     0.05000000      -12345.00      -12345.00   4.123670e+09      -12345.00
   0.0005390000       659.9506      -811.0195      -12345.00      -12345.00
      -12345.00      -12345.00      -12345.00      -12345.00      -12345.00
      -12345.00      -12345.00      -12345.00      -12345.00      -12345.00
      -12345.00      -12345.00      -12345.00      -12345.00      -12345.00
      -12345.00      -12345.00      -12345.00      -12345.00      -12345.00
      -12345.00      -19.20220       17.58380       1260.000       0.000000
       9.831100       126.5297      -12345.00       24.71000      -12345.00
      -12345.00      -12345.00      -12345.00      -12345.00      -12345.00
      -12345.00      -12345.00      -12345.00      -12345.00      -12345.00
       12338.53       253.1835       86.58014       110.9680      -12345.00
      -12345.00      -12345.00       0.000000       0.000000      -12345.00
      -12345.00      -12345.00      -12345.00      -12345.00      -12345.00
      -12345.00      -12345.00      -12345.00      -12345.00      -12345.00
      2019        39        12         8        39
        19         6    -12345    -12345     13200
    -12345    -12345    -12345    -12345    -12345
         1    -12345    -12345    -12345    -12345
    -12345    -12345    -12345    -12345    -12345
    -12345    -12345    -12345    -12345    -12345
    -12345    -12345    -12345    -12345    -12345
         1    -12345    -12345    -12345    -12345
TSUM    Mindanao, Philip
00      -12345  -12345  
-12345  -12345  -12345  
-12345  -12345  -12345  
-12345  -12345  -12345  
-12345  -12345  -12345  
-12345  -12345  BHZ     
IU      -12345  Streckei
[...]
       44918.00       44994.00       45090.00       45217.00       45344.00
       45453.00       45513.00       45561.00       45583.00       45619.00
       45658.00       45685.00       45712.00       45703.00       45718.00
       45714.00       45693.00       45659.00       45573.00       45489.00
       45419.00       45323.00       45196.00       45094.00       45004.00
       44888.00       44756.00       44609.00       44490.00       44427.00
       44382.00       44297.00       44141.00       43994.00       43892.00
       43826.00       43815.00       43798.00       43742.00       43693.00
       43658.00       43658.00       43660.00       43622.00       43597.00
       43563.00       43570.00       43577.00       43564.00       43573.00
       43579.00       43603.00       43602.00       43605.00       43594.00
       43582.00       43618.00       43683.00       43766.00       43825.00
       43884.00       43921.00       43973.00       44052.00       44133.00
       44207.00       44256.00       44325.00       44356.00       44391.00
       44430.00       44440.00       44491.00       44544.00       44581.00
       44574.00       44586.00       44603.00       44603.00       44626.00
       44626.00       44631.00       44621.00       44644.00       44680.00
       44679.00       44703.00       44760.00       44800.00       44813.00
       44862.00       44904.00       44941.00       44990.00       45035.00
       45045.00       45032.00       45018.00       44999.00       45005.00
       45002.00       45004.00       44997.00       44998.00       45029.00
       45049.00       45079.00       45095.00       45110.00       45087.00
       45042.00       44998.00       44917.00       44883.00       44821.00
       44748.00       44699.00       44617.00       44576.00       44524.00
       44447.00       44350.00       44233.00       44133.00       44043.00
       43941.00       43845.00       43742.00       43594.00       43488.00
       43382.00       43274.00       43183.00       43071.00       42991.00
       42909.00       42848.00       42812.00       42776.00       42749.00
       42715.00       42699.00       42683.00       42675.00       42675.00
       42668.00       42653.00       42612.00       42598.00       42573.00
       42547.00       42565.00       42584.00       42619.00       42640.00
       42674.00       42691.00       42679.00       42718.00       42724.00
       42752.00       42831.00       42890.00       42976.00       43052.00
       43152.00       43270.00       43340.00       43416.00       43495.00
       43583.00       43679.00       43800.00       43917.00       44016.00
       44135.00       44245.00       44351.00       44421.00       44468.00
       44543.00       44616.00       44697.00       44752.00       44767.00
       44793.00       44816.00       44866.00       44887.00       44883.00
       44901.00       44899.00       44947.00       44968.00       44983.00
       44986.00       44958.00       44970.00       44933.00       44896.00
       44867.00       44797.00       44728.00       44674.00       44574.00
       44496.00       44458.00       44395.00       44362.00       44319.00
       44290.00       44263.00       44255.00       44263.00       44246.00
       44251.00       44218.00       44221.00       44213.00       44181.00
       44169.00       44117.00       44125.00       44097.00       44093.00
       44099.00       44063.00       44103.00       44089.00       44134.00
       44201.00       44189.00       44215.00       44223.00       44244.00
       44325.00       44398.00       44452.00       44476.00       44511.00
       44578.00       44635.00       44708.00       44740.00       44750.00
       44769.00       44752.00       44744.00       44692.00       44575.00
       44500.00       44469.00       44483.00       44478.00       44399.00
       44351.00       44274.00       44261.00       44295.00       44242.00
       44160.00       44012.00       43929.00       43893.00       43850.00
       43821.00       43697.00       43580.00       43497.00       43418.00
       43347.00       43238.00       43112.00       42958.00       42839.00
       42741.00       42597.00       42438.00       42273.00       42124.00
       41979.00       41840.00       41682.00       41544.00       41406.00
       41292.00       41201.00       41066.00       40958.00       40846.00
       40788.00       40774.00       40763.00       40753.00       40775.00
       40860.00       40932.00       41050.00       41168.00       41262.00
       41363.00       41474.00       41586.00       41693.00       41825.00
       41921.00       42034.00       42120.00       42203.00       42345.00
       42444.00       42554.00       42682.00       42830.00       42973.00
       43103.00       43246.00       43396.00       43542.00       43697.00
       43825.00       43904.00       44027.00       44106.00       44214.00
       44328.00       44369.00       44434.00       44496.00       44591.00
       44663.00       44736.00       44775.00       44799.00       44900.00
       44972.00       45061.00       45140.00       45184.00       45237.00
       45285.00       45326.00       45357.00       45417.00       45439.00
       45438.00       45481.00       45484.00       45480.00       45518.00
       45534.00       45553.00       45575.00       45547.00       45550.00
       45553.00       45537.00       45553.00       45525.00       45490.00
       45437.00       45375.00       45300.00       45214.00       45156.00
       45040.00       44964.00       44866.00       44753.00       44703.00
       44600.00       44506.00       44381.00       44290.00       44237.00
       44217.00       44231.00       44174.00       44117.00       44058.00
       44047.00       44066.00       44082.00       44091.00       44030.00
       43979.00       43985.00       44019.00       44098.00       44147.00
       44157.00       44182.00       44210.00       44307.00       44434.00
       44562.00       44658.00       44689.00       44749.00       44847.00
       44908.00       44967.00       44974.00       44893.00       44853.00
       44825.00       44832.00       44864.00       44826.00       44741.00
       44645.00       44606.00       44619.00       44601.00       44534.00
       44419.00       44304.00       44244.00       44274.00       44314.00
       44278.00       44229.00       44124.00       44055.00       44069.00
       44042.00       43981.00       43830.00       43683.00       43606.00
       43564.00       43555.00       43500.00       43443.00       43361.00
       43296.00       43320.00       43338.00       43350.00       43361.00
       43382.00       43416.00       43440.00       43470.00       43504.00
       43557.00       43590.00       43598.00       43591.00       43577.00
       43572.00       43565.00       43568.00       43499.00       43461.00
       43448.00       43455.00       43526.00       43503.00       43515.00
       43554.00       43608.00       43734.00       43816.00       43899.00
       43999.00       44080.00       44149.00       44215.00       44283.00
       44336.00       44390.00       44439.00       44450.00       44449.00
       44446.00       44459.00       44469.00       44463.00       44461.00
       44456.00       44460.00       44479.00       44518.00       44549.00
       44553.00       44528.00       44510.00       44522.00       44558.00
       44596.00       44580.00       44539.00       44487.00       44478.00
       44510.00       44518.00       44533.00       44490.00       44463.00
       44491.00       44498.00       44568.00       44632.00       44673.00
       44701.00       44711.00       44761.00       44826.00       44919.00
       44967.00       44984.00       45021.00       45076.00       45148.00
       45194.00       45248.00       45280.00       45301.00       45345.00
       45346.00       45352.00       45368.00       45339.00       45342.00
       45307.00       45271.00       45237.00       45167.00       45165.00
       45114.00       45076.00       45027.00       44950.00       44907.00
       44831.00       44800.00       44734.00       44670.00       44625.00
       44563.00       44513.00       44436.00       44377.00       44315.00
       44301.00       44287.00       44262.00       44271.00       44259.00
       44293.00       44342.00       44388.00       44439.00       44480.00
       44523.00       44578.00       44633.00       44648.00       44691.00
       44729.00       44757.00       44786.00       44804.00       44840.00
       44857.00       44899.00       44945.00       44988.00       44998.00
       45026.00       45070.00       45094.00       45146.00       45136.00
       45134.00       45112.00       45097.00       45067.00       44986.00
       44934.00       44837.00       44768.00       44685.00       44583.00
       44467.00       44344.00       44262.00       44176.00       44079.00
       43963.00       43851.00       43728.00       43657.00       43574.00
       43486.00       43445.00       43372.00       43330.00       43300.00
       43229.00       43170.00       43114.00       43062.00       43037.00
       43003.00       42965.00       42933.00       42906.00       42899.00
       42930.00       42955.00       42956.00       42968.00       42974.00
       43005.00       43024.00       43014.00       43018.00       42992.00
       42971.00       42942.00       42891.00       42880.00       42835.00
       42781.00       42764.00       42716.00       42680.00       42651.00
       42620.00       42632.00       42617.00       42598.00       42637.00
       42638.00       42634.00       42665.00       42660.00       42673.00
       42708.00       42741.00       42798.00       42848.00       42948.00
       43061.00       43199.00       43386.00       43537.00       43699.00
       43864.00       44001.00       44123.00       44237.00       44363.00
       44473.00       44539.00       44593.00       44617.00       44639.00
       44654.00       44647.00       44661.00       44660.00       44660.00
       44647.00       44626.00       44604.00       44581.00       44538.00
       44467.00       44392.00       44296.00       44207.00       44071.00
       43894.00       43694.00       43476.00       43281.00       43053.00
       42814.00       42579.00       42335.00       42120.00       41901.00
       41679.00       41514.00       41383.00       41287.00       41201.00
       41117.00       41039.00       41002.00       41051.00       41070.00
       41101.00       41147.00       41223.00       41343.00       41422.00
       41514.00       41593.00       41685.00       41833.00       41991.00
       42128.00       42282.00       42437.00       42576.00       42756.00
       42909.00       43048.00       43208.00       43359.00       43535.00
       43689.00       43818.00       43954.00       44064.00       44213.00
       44342.00       44429.00       44530.00       44603.00       44688.00
       44800.00       44909.00       44981.00       45042.00       45106.00
       45138.00       45185.00       45242.00       45287.00       45319.00
       45336.00       45352.00       45368.00       45389.00       45421.00
       45409.00       45406.00       45412.00       45395.00       45410.00
       45389.00       45373.00       45324.00       45267.00       45247.00
       45202.00       45151.00       45067.00       45014.00       44946.00
       44885.00       44834.00       44777.00       44718.00       44608.00
       44524.00       44417.00       44284.00       44126.00       43980.00
       43864.00       43711.00       43570.00       43444.00       43317.00
       43191.00       43064.00       42930.00       42804.00       42681.00
       42586.00       42491.00       42401.00       42316.00       42201.00
       42129.00       42047.00       41977.00       41953.00       41903.00
       41873.00       41866.00       41861.00       41863.00       41891.00
       41897.00       41911.00       41991.00       42058.00       42140.00
       42245.00       42312.00       42373.00       42432.00       42488.00
       42543.00       42621.00       42705.00       42770.00       42862.00
       42964.00       43053.00       43153.00       43280.00       43393.00
       43523.00       43665.00       43790.00       43913.00       44048.00
       44180.00       44278.00       44441.00       44574.00       44709.00
       44855.00       44960.00       45146.00       45276.00       45447.00
       45642.00       45749.00       45921.00       46047.00       46153.00
       46289.00       46398.00       46556.00       46700.00       46825.00
       46928.00       46990.00       47092.00       47180.00       47223.00
       47270.00       47287.00       47293.00       47305.00       47280.00
       47264.00       47224.00       47158.00       47089.00       46993.00
       46895.00       46774.00       46647.00       46521.00       46378.00
       46238.00       46067.00       45879.00       45692.00       45497.00
       45299.00       45079.00       44858.00       44643.00       44432.00
       44234.00       44024.00       43799.00       43597.00       43391.00
       43187.00       43014.00       42820.00       42616.00       42430.00
       42262.00       42131.00       42009.00       41895.00       41813.00
       41724.00       41634.00       41561.00       41528.00       41506.00
       41460.00       41466.00       41461.00       41443.00       41489.00
       41514.00       41586.00       41721.00       41823.00       41979.00
       42116.00       42247.00       42431.00       42598.00       42792.00
       42976.00       43151.00       43342.00       43522.00       43712.00
       43891.00       44063.00       44265.00       44482.00       44707.00
       44933.00       45102.00       45273.00       45473.00       45668.00
       45844.00       45972.00       46079.00       46168.00       46252.00
       46341.00       46418.00       46481.00       46542.00       46578.00
       46583.00       46602.00       46613.00       46631.00       46640.00
       46621.00       46570.00       46494.00       46431.00       46338.00
       46230.00       46125.00       45990.00       45836.00       45676.00
       45497.00       45311.00       45115.00       44938.00       44764.00
       44573.00       44393.00       44194.00       44009.00       43818.00
       43636.00       43485.00       43331.00       43173.00       43025.00
       42884.00       42754.00       42632.00       42505.00       42395.00
       42296.00       42232.00       42163.00       42084.00       42020.00
       41956.00       41916.00       41898.00       41893.00       41889.00
       41909.00       41964.00       42036.00       42095.00       42116.00
       42124.00       42134.00       42161.00       42173.00       42174.00
       42191.00       42192.00       42208.00       42254.00       42300.00
       42336.00       42363.00       42385.00       42425.00       42484.00
       42518.00       42539.00       42572.00       42579.00       42597.00
       42602.00       42619.00       42657.00       42639.00       42649.00
       42655.00       42673.00       42734.00       42786.00       42847.00
       42909.00       42996.00       43091.00       43218.00       43346.00
       43444.00       43558.00       43649.00       43768.00       43914.00
       44027.00       44148.00       44241.00       44324.00       44398.00
       44451.00       44526.00       44573.00       44660.00       44737.00
       44762.00       44814.00       44804.00       44847.00       44927.00
       44913.00       44957.00       44983.00       44967.00       44992.00
       44974.00       44983.00       45012.00       45013.00       45021.00
       45034.00       45025.00       44971.00       44939.00       44898.00
       44832.00       44761.00       44663.00       44563.00       44438.00
       44345.00       44271.00       44177.00       44086.00       43982.00
       43882.00       43786.00       43689.00       43601.00       43504.00
       43406.00       43317.00       43211.00       43112.00       43031.00
       42946.00       42825.00       42711.00       42576.00       42437.00
       42355.00       42239.00       42116.00       41976.00       41793.00
       41643.00       41552.00       41488.00       41401.00       41302.00
       41233.00       41170.00       41134.00       41167.00       41169.00
       41207.00       41251.00       41291.00       41424.00       41545.00
       41679.00       41830.00       41979.00       42141.00       42324.00
       42527.00       42726.00       42915.00       43117.00       43307.00
       43509.00       43732.00       43923.00       44146.00       44339.00
       44522.00       44677.00       44840.00       45015.00       45128.00
       45292.00       45440.00       45581.00       45684.00       45773.00
       45884.00       45921.00       45968.00       46017.00       46054.00
       46077.00       46059.00       46047.00       46014.00       45968.00
       45953.00       45886.00       45818.00       45749.00       45678.00
       45624.00       45521.00       45455.00       45352.00       45198.00
       45043.00       44901.00       44795.00       44688.00       44620.00
       44502.00       44391.00       44324.00       44210.00       44144.00
       44079.00       43999.00       43912.00       43803.00       43741.00
       43669.00       43612.00       43586.00       43515.00       43454.00
       43421.00       43371.00       43341.00       43334.00       43328.00
       43329.00       43324.00       43315.00       43332.00       43340.00
       43370.00       43406.00       43435.00       43491.00       43505.00
       43543.00       43582.00       43591.00       43620.00       43632.00
       43667.00       43690.00       43727.00       43803.00       43830.00
       43864.00       43909.00       43970.00       44014.00       44024.00
       44092.00       44120.00       44150.00       44223.00       44267.00
       44344.00       44375.00       44393.00       44410.00       44402.00
       44424.00       44424.00       44457.00       44480.00       44459.00
       44458.00       44435.00       44403.00       44394.00       44385.00
