     0.02500000      -12345.00      -12345.00   3.294500e+10      -12345.00
   0.0005380000       659.9755      -924.0195      -12345.00      -12345.00
      -12345.00      -12345.00      -12345.00      -12345.00      -12345.00
      -12345.00      -12345.00      -12345.00      -12345.00      -12345.00
      -12345.00      -12345.00      -12345.00      -12345.00      -12345.00
      -12345.00      -12345.00      -12345.00      -12345.00      -12345.00
      -12345.00       32.37130      -64.69630       30.00000       0.000000
       9.831100       126.5297      -12345.00       24.71000      -12345.00
      -12345.00      -12345.00      -12345.00      -12345.00      -12345.00
      -12345.00      -12345.00      -12345.00      -12345.00      -12345.00
       15198.14       13.89537       343.7589       136.6862      -12345.00
      -12345.00      -12345.00       0.000000       0.000000      -12345.00
      -12345.00      -12345.00      -12345.00      -12345.00      -12345.00
      -12345.00      -12345.00      -12345.00      -12345.00      -12345.00
      2019        39        12        10        32
        19         6    -12345    -12345     26400
    -12345    -12345    -12345    -12345    -12345
         1    -12345    -12345    -12345    -12345
    -12345    -12345    -12345    -12345    -12345
    -12345    -12345    -12345    -12345    -12345
    -12345    -12345    -12345    -12345    -12345
         1    -12345    -12345    -12345    -12345
BBSR    Mindanao, Philip
10      -12345  -12345  
-12345  -12345  -12345  
-12345  -12345  -12345  
-12345  -12345  -12345  
-12345  -12345  -12345  
-12345  -12345  BHZ     
IU      -12345  Streckei
[...]
       10182.00       12403.00       8560.000       5097.000       17013.00
       8206.000       10204.00       17474.00       556.0000       13105.00
       15829.00      -468.0000       13021.00       18478.00       11856.00
       10434.00       10102.00       16617.00       15146.00       7177.000
       11607.00       18781.00       14909.00       10833.00       13971.00
       20690.00       17802.00       8190.000       21106.00       22692.00
       10428.00       18247.00       20613.00       18022.00       14299.00
       17424.00       21835.00       17373.00       21641.00       16704.00
       18985.00       27174.00       17614.00       18707.00       21088.00
       24389.00       25786.00       15722.00       24200.00       29244.00
       20686.00       21927.00       26263.00       30212.00       19581.00
       20258.00       34508.00       18175.00       21952.00       33027.00
       22462.00       27007.00       24705.00       28977.00       31850.00
       23019.00       28777.00       30015.00       28094.00       25106.00
       28189.00       31348.00       26009.00       34776.00       29274.00
       24349.00       36412.00       28379.00       20851.00       31057.00
       36727.00       23414.00       22562.00       34064.00       27032.00
       22401.00       26269.00       29219.00       25731.00       23988.00
       29217.00       20870.00       22418.00       30735.00       17768.00
       17460.00       28361.00       22501.00       16299.00       22129.00
       22268.00       18733.00       16028.00       16313.00       23818.00
       17595.00       12005.00       17903.00       17926.00       11266.00
       14752.00       19144.00       8429.000       11337.00       14832.00
       11562.00       15402.00       9525.000       11301.00       12988.00
       5627.000       9957.000       12786.00       10496.00       4756.000
       1951.000       9584.000       9484.000       4757.000       6554.000
       4521.000       5349.000       4411.000       551.0000       8421.000
       7248.000       3739.000       8634.000       6304.000       4011.000
       6553.000       7305.000       4817.000       10703.00       15405.00
       4163.000       3569.000       15026.00       14239.00       7364.000
       9284.000       12545.00       11638.00       14986.00       11690.00
       11292.00       19028.00       11936.00       9462.000       19629.00
       17400.00       12113.00       11764.00       15083.00       17621.00
       13975.00       13653.00       10601.00       20450.00       22841.00
       6329.000       13544.00       17628.00       18499.00       20118.00
       10524.00       19190.00       21317.00       14472.00       17103.00
       17936.00       20293.00       19229.00       20019.00       15279.00
       19892.00       27262.00       12039.00       18023.00       21392.00
       17315.00       24001.00       15577.00       20523.00       21411.00
       15965.00       22964.00       15522.00       18415.00       27426.00
       18320.00       18478.00       29044.00       21076.00       13496.00
       29781.00       26782.00       17484.00       26677.00       21368.00
       24221.00       28061.00       21065.00       26635.00       21802.00
       23588.00       30469.00       23457.00       23927.00       24679.00
       29997.00       28093.00       17709.00       32629.00       30848.00
       17913.00       35080.00       25098.00       18787.00       34223.00
       23290.00       22764.00       32069.00       30702.00       21995.00
       26020.00       33471.00       21984.00       26609.00       30530.00
       19948.00       24486.00       27150.00       22687.00       22260.00
       22602.00       25282.00       24987.00       25336.00       20915.00
       21468.00       31205.00       22078.00       22398.00       27809.00
       21794.00       27010.00       23933.00       23882.00       26749.00
       23983.00       23773.00       26111.00       33351.00       20434.00
       20650.00       33472.00       22823.00       22026.00       29964.00
       28297.00       25392.00       25866.00       25752.00       25656.00
       23813.00       24677.00       28697.00       23307.00       20318.00
       23596.00       22813.00       21454.00       22421.00       24119.00
       21751.00       22106.00       24251.00       21038.00       20172.00
       20094.00       19909.00       21858.00       21507.00       16789.00
       21052.00       25249.00       14309.00       14458.00       22230.00
       19772.00       17793.00       16213.00       17902.00       19938.00
       17512.00       17142.00       18678.00       20237.00       11341.00
       13064.00       21186.00       14148.00       14374.00       14668.00
       16599.00       15827.00       9476.000       16472.00       13038.00
       9920.000       18015.00       10492.00       11682.00       19728.00
       12323.00       12461.00       14076.00       11700.00       18062.00
       11846.00       5327.000       19257.00       16097.00       7098.000
       17159.00       16163.00       12374.00       15208.00       12523.00
       16306.00       15074.00       12331.00       17382.00       13047.00
       15127.00       16325.00       10275.00       17823.00       15792.00
       10207.00       17031.00       12452.00       13600.00       16068.00
       8653.000       12572.00       16144.00       15930.00       9376.000
       7451.000       17906.00       14245.00       8724.000       13768.00
       10754.00       9780.000       15357.00       11303.00       10226.00
       13407.00       12315.00       14064.00       10618.00       7409.000
       12704.00       14002.00       12446.00       14235.00       11169.00
       11775.00       20659.00       13303.00       8228.000       15147.00
       17540.00       16761.00       9499.000       12519.00       17446.00
       16435.00       17940.00       13350.00       14182.00       18801.00
       17861.00       15797.00       14734.00       17888.00       18338.00
       18071.00       17640.00       15903.00       20388.00       18828.00
       17207.00       19811.00       18651.00       20721.00       19753.00
       18308.00       22833.00       24907.00       20235.00       17956.00
       26195.00       24021.00       16369.00       27431.00       28393.00
       18193.00       24937.00       29149.00       22622.00       26736.00
       26773.00       20040.00       29675.00       27556.00       18958.00
       27551.00       25534.00       24149.00       28159.00       23993.00
       27749.00       29280.00       26691.00       24697.00       24923.00
       31211.00       27766.00       26596.00       28763.00       24442.00
       27124.00       27861.00       22024.00       26453.00       30328.00
       18664.00       20250.00       31156.00       20888.00       20280.00
       27816.00       22366.00       22071.00       20052.00       21900.00
       25652.00       21932.00       21573.00       20118.00       22996.00
       20753.00       17822.00       22701.00       12841.00       17391.00
       27311.00       17706.00       17574.00       19960.00       21207.00
       17533.00       17648.00       19362.00       14925.00       24219.00
       19021.00       13206.00       20351.00       13210.00       13172.00
       14142.00       17442.00       24803.00       15400.00       11598.00
       9625.000       14428.00       20518.00       3930.000       14055.00
       25889.00       4475.000       16331.00       22597.00       3337.000
       18133.00       18104.00       6739.000       13635.00       11352.00
       16031.00       16181.00       7071.000       10057.00       15384.00
       14375.00       6640.000       10223.00       20044.00       12123.00
       8591.000       15533.00       16037.00       13540.00       10209.00
       10770.00       12565.00       9995.000       11214.00       14207.00
       18432.00       16818.00       10945.00       15801.00       15025.00
       11099.00       12341.00       12717.00       16913.00       18015.00
       13194.00       11301.00       18687.00       19989.00       8778.000
       13437.00       23413.00       19987.00       18619.00       17238.00
       22618.00       27040.00       17641.00       16689.00       22511.00
       27981.00       28518.00       19950.00       22956.00       29240.00
       24757.00       23480.00       19877.00       23790.00       39963.00
       26161.00       15795.00       38485.00       29959.00       20849.00
       38438.00       27311.00       18277.00       33950.00       30245.00
       25166.00       35646.00       28867.00       25490.00       33215.00
       28239.00       23717.00       28089.00       29192.00       21188.00
       26473.00       29824.00       19565.00       27379.00       21265.00
       13224.00       29289.00       22451.00       17051.00       23632.00
       17374.00       15736.00       21122.00       20201.00       12994.00
       16039.00       19749.00       13093.00       14583.00       21284.00
       14924.00       14075.00       22024.00       13766.00       13064.00
       19399.00       16761.00       21850.00       13981.00       9536.000
       19874.00       13165.00       11532.00       17331.00       15678.00
       11943.00       10994.00       15116.00       14228.00       12256.00
       13945.00       14582.00       13826.00       14610.00       15424.00
       13631.00       14490.00       11549.00       10839.00       16743.00
       13394.00       12568.00       17811.00       15377.00       9513.000
       15902.00       22242.00       15567.00       17276.00       15707.00
       15359.00       23090.00       16073.00       18935.00       26171.00
       19209.00       18898.00       21033.00       21895.00       22225.00
       24408.00       25012.00       19499.00       25812.00       25598.00
       18372.00       26090.00       24789.00       20394.00       23453.00
       22079.00       21707.00       22658.00       24930.00       21996.00
       20652.00       24499.00       20867.00       20397.00       24059.00
       21023.00       18698.00       21582.00       18218.00       18744.00
       21321.00       15849.00       20208.00       19512.00       10179.00
       17337.00       19827.00       9401.000       15252.00       19379.00
       10675.00       12500.00       14869.00       15503.00       14639.00
       9876.000       12920.00       13278.00       13814.00       13571.00
       11075.00       14009.00       10617.00       12583.00       17220.00
       12387.00       12133.00       17161.00       16284.00       12658.00
       16093.00       17498.00       13716.00       15745.00       17744.00
       15229.00       16606.00       18785.00       16253.00       18479.00
       21781.00       14607.00       20049.00       24621.00       16524.00
       22820.00       21355.00       20697.00       24258.00       17106.00
       24325.00       22451.00       18622.00       21804.00       14796.00
       25617.00       18256.00       12553.00       27853.00       17314.00
       20449.00       21105.00       15297.00       23118.00       19214.00
       20163.00       19280.00       18783.00       19370.00       16900.00
       22610.00       15534.00       12826.00       16724.00       10011.00
       9790.000       12223.00       8978.000       2296.000       8276.000
       6075.000      -4580.000       7082.000       1982.000      -5784.000
       3297.000      -6177.000      -8079.000      -3571.000      -8095.000
      -9420.000      -12163.00      -6951.000      -10695.00      -15654.00
      -11946.00      -15135.00      -9228.000      -11587.00      -17331.00
      -12988.00      -14312.00      -13724.00      -13191.00      -12003.00
      -14190.00      -16777.00      -13731.00      -17149.00      -16793.00
      -11441.00      -15441.00      -17641.00      -9786.000      -13460.00
      -14546.00      -7958.000      -11210.00      -8934.000      -4764.000
      -6022.000      -7124.000      -51.00000      -3616.000      -5895.000
       6717.000       3741.000       5617.000       8173.000       6471.000
       12763.00       14467.00       18860.00       15774.00       22749.00
       29922.00       18404.00       33151.00       35812.00       27074.00
       44744.00       41600.00       35354.00       48114.00       48705.00
       45716.00       54508.00       53870.00       51284.00       61931.00
       56242.00       55667.00       71229.00       64155.00       61112.00
       69373.00       67218.00       68157.00       69324.00       71865.00
       71866.00       68592.00       73823.00       68184.00       67015.00
       77038.00       69963.00       71355.00       75435.00       66797.00
       70956.00       72181.00       62679.00       66738.00       69920.00
       60772.00       63637.00       66939.00       59734.00       61050.00
       62618.00       57894.00       56716.00       60626.00       58232.00
       48996.00       54984.00       53171.00       45641.00       55715.00
       47610.00       43437.00       49483.00       37253.00       38605.00
       41865.00       34107.00       36304.00       35043.00       30703.00
       28175.00       28969.00       27336.00       18908.00       25887.00
       24826.00       14694.00       21613.00       20649.00       13720.00
       16189.00       15724.00       11081.00       12998.00       15427.00
       9145.000       9759.000       12880.00       7156.000       8060.000
       7789.000       6295.000       9953.000       7591.000       3676.000
       4319.000       8197.000       3726.000       48.00000       9244.000
       5274.000      -344.0000       5792.000       3124.000       4125.000
       8433.000       3714.000       3010.000       10560.00       8150.000
       3589.000       11530.00       11104.00       5900.000       11227.00
       12402.00       8538.000       9690.000       10204.00       11725.00
       10842.00       9006.000       11178.00       10812.00       8284.000
       7451.000       11157.00       8003.000       1452.000       9788.000
       10869.00       2066.000       8155.000       8064.000       6134.000
       10725.00       5497.000       7423.000       11204.00       6289.000
       6764.000       11892.00       11022.00       5387.000       9734.000
       13482.00       7979.000       11455.00       10324.00       8122.000
       15735.00       9820.000       6051.000       11770.00       11372.00
       11406.00       10650.00       11295.00       11506.00       11899.00
       16620.00       12616.00       14505.00       19013.00       12161.00
       19876.00       25165.00       15117.00       21692.00       28117.00
       20402.00       26349.00       30535.00       27144.00       31415.00
       28426.00       27030.00       31421.00       32770.00       32169.00
       30790.00       33816.00       34509.00       33658.00       35573.00
       37602.00       35930.00       34746.00       38875.00       34974.00
       34654.00       38963.00       32454.00       36740.00       41035.00
       30458.00       34899.00       38964.00       30017.00       32005.00
       34928.00       30720.00       29983.00       31651.00       26460.00
       25644.00       28790.00       23760.00       23714.00       25644.00
       20323.00       17459.00       22341.00       18951.00       12801.00
       19256.00       16185.00       11708.00       15304.00       10153.00
       6579.000       7673.000       7778.000       4490.000       3928.000
       699.0000      -6877.000      -2409.000      -7513.000      -15037.00
      -6145.000      -11461.00      -19952.00      -18124.00      -23171.00
      -21163.00      -20697.00      -27399.00      -27633.00      -26556.00
      -26336.00      -34175.00      -33549.00      -25199.00      -35284.00
      -36407.00      -26222.00      -34861.00      -35939.00      -27390.00
      -34028.00      -34201.00      -28545.00      -33824.00      -28963.00
      -25745.00      -35063.00      -27678.00      -21418.00      -28255.00
      -25993.00      -18720.00      -20496.00      -20966.00      -14933.00
      -15421.00      -14670.00      -8114.000      -6888.000      -7422.000
       29.00000       311.0000      -2209.000       4271.000       4137.000
       9101.000       17036.00       12380.00       13727.00       19764.00
       18950.00       21274.00       29414.00       30624.00       26906.00
       33150.00       35753.00       33897.00       40627.00       39553.00
       39933.00       50120.00       47676.00       45364.00       52877.00
       54620.00       52380.00       54653.00       59004.00       58268.00
       57159.00       61949.00       63342.00       59166.00       62483.00
       67221.00       67549.00       63733.00       61561.00       67324.00
       64506.00       61982.00       67550.00       66382.00       61909.00
       63126.00       67880.00       63203.00       59895.00       66554.00
       62285.00       59716.00       65927.00       60572.00       56874.00
       62277.00       59851.00       55454.00       58202.00       53360.00
       49375.00       57018.00       52661.00       46954.00       50592.00
       46588.00       47641.00       43670.00       35345.00       42590.00
       41037.00       35472.00       33708.00       31369.00       35234.00
       25333.00       23922.00       33543.00       18366.00       21285.00
       29988.00       11578.00       17504.00       24240.00       6762.000
       13790.00       20128.00       5104.000       13680.00       20507.00
       7236.000       9532.000       15096.00       9536.000       9490.000
       13585.00       10295.00       8412.000       13313.00       12259.00
       9447.000       13313.00       10004.00       11639.00       19498.00
       11259.00       9891.000       19988.00       15809.00       11941.00
       21332.00       19750.00       10148.00       16933.00       22015.00
       16102.00       18357.00       18830.00       17845.00       21170.00
       17810.00       18050.00       22180.00       18407.00       14506.00
       19241.00       20895.00       14317.00       16720.00       19804.00
