     0.05000000      -12345.00      -12345.00   3.634450e+09      -12345.00
   0.0005380000       659.9506      -623.0195      -12345.00      -12345.00
      -12345.00      -12345.00      -12345.00      -12345.00      -12345.00
      -12345.00      -12345.00      -12345.00      -12345.00      -12345.00
      -12345.00      -12345.00      -12345.00      -12345.00      -12345.00
      -12345.00      -12345.00      -12345.00      -12345.00      -12345.00
      -12345.00      -4.673700       55.47920       475.0000       91.00000
       9.831100       126.5297      -12345.00       24.71000      -12345.00
      -12345.00      -12345.00      -12345.00      -12345.00      -12345.00
      -12345.00      -12345.00      -12345.00      -12345.00      -12345.00
       8030.909       261.8699       78.18497       72.22691      -12345.00
      -12345.00      -12345.00       0.000000       0.000000      -12345.00
      -12345.00      -12345.00      -12345.00      -12345.00      -12345.00
      -12345.00      -12345.00      -12345.00      -12345.00      -12345.00
      2019        39        12         5        31
        19         6    -12345    -12345     13200
    -12345    -12345    -12345    -12345    -12345
         1    -12345    -12345    -12345    -12345
    -12345    -12345    -12345    -12345    -12345
    -12345    -12345    -12345    -12345    -12345
    -12345    -12345    -12345    -12345    -12345
         1    -12345    -12345    -12345    -12345
MSEY    Mindanao, Philip
00      -12345  -12345  
-12345  -12345  -12345  
-12345  -12345  -12345  
-12345  -12345  -12345  
-12345  -12345  -12345  
-12345  -12345  BHZ     
II      -12345  Geotech 
[...]
      -739846.0      -739744.0      -739608.0      -739569.0      -739501.0
      -739348.0      -739284.0      -739281.0      -739185.0      -739097.0
      -739030.0      -738875.0      -738667.0      -738503.0      -738360.0
      -738197.0      -737964.0      -737660.0      -737396.0      -737087.0
      -736651.0      -736218.0      -735855.0      -735535.0      -735232.0
      -734930.0      -734598.0      -734245.0      -733897.0      -733586.0
      -733366.0      -733285.0      -733278.0      -733143.0      -733069.0
      -733240.0      -733393.0      -733520.0      -733749.0      -733938.0
      -733949.0      -733963.0      -734050.0      -734131.0      -734220.0
      -734333.0      -734503.0      -734620.0      -734774.0      -734938.0
      -735030.0      -735327.0      -735649.0      -735828.0      -736068.0
      -736268.0      -736363.0      -736512.0      -736621.0      -736673.0
      -736766.0      -736673.0      -736592.0      -736665.0      -736697.0
      -736768.0      -736789.0      -736794.0      -736889.0      -737041.0
      -737265.0      -737443.0      -737566.0      -737769.0      -737984.0
      -738125.0      -738250.0      -738397.0      -738602.0      -738889.0
      -739098.0      -739151.0      -739263.0      -739346.0      -739320.0
      -739327.0      -739335.0      -739313.0      -739357.0      -739514.0
      -739570.0      -739462.0      -739314.0      -739219.0      -739144.0
      -738982.0      -738780.0      -738470.0      -738080.0      -737775.0
      -737593.0      -737377.0      -737110.0      -736980.0      -736871.0
      -736710.0      -736591.0      -736493.0      -736379.0      -736233.0
      -736090.0      -735964.0      -735943.0      -735998.0      -736019.0
      -736062.0      -736084.0      -736148.0      -736296.0      -736334.0
      -736390.0      -736535.0      -736613.0      -736707.0      -736941.0
      -737238.0      -737427.0      -737529.0      -737622.0      -737740.0
      -737940.0      -738191.0      -738407.0      -738499.0      -738491.0
      -738480.0      -738478.0      -738341.0      -738060.0      -737848.0
      -737698.0      -737530.0      -737343.0      -737235.0      -737204.0
      -737113.0      -737106.0      -737203.0      -737258.0      -737216.0
      -737056.0      -736862.0      -736704.0      -736571.0      -736369.0
      -736082.0      -735814.0      -735551.0      -735191.0      -734853.0
      -734643.0      -734430.0      -734252.0      -734142.0      -734004.0
      -733798.0      -733577.0      -733493.0      -733556.0      -733658.0
      -733742.0      -733881.0      -734070.0      -734200.0      -734281.0
      -734306.0      -734375.0      -734485.0      -734607.0      -734828.0
      -735073.0      -735297.0      -735587.0      -735905.0      -736178.0
      -736483.0      -736730.0      -737026.0      -737483.0      -737911.0
      -738307.0      -738681.0      -739083.0      -739410.0      -739574.0
      -739700.0      -739818.0      -739979.0      -740142.0      -740249.0
      -740234.0      -740153.0      -740144.0      -740189.0      -740253.0
      -740194.0      -740047.0      -739975.0      -739960.0      -739890.0
      -739748.0      -739675.0      -739663.0      -739651.0      -739590.0
      -739464.0      -739429.0      -739439.0      -739335.0      -739073.0
      -738746.0      -738520.0      -738394.0      -738308.0      -738122.0
      -737897.0      -737787.0      -737673.0      -737478.0      -737179.0
      -736934.0      -736749.0      -736553.0      -736357.0      -736121.0
      -735941.0      -735736.0      -735421.0      -735080.0      -734817.0
      -734677.0      -734566.0      -734418.0      -734254.0      -734054.0
      -733859.0      -733767.0      -733730.0      -733637.0      -733512.0
      -733403.0      -733243.0      -733172.0      -733226.0      -733231.0
      -733236.0      -733323.0      -733585.0      -733963.0      -734256.0
      -734412.0      -734571.0      -734784.0      -734980.0      -735226.0
      -735428.0      -735541.0      -735652.0      -735858.0      -736169.0
      -736456.0      -736725.0      -736991.0      -737282.0      -737634.0
      -738015.0      -738353.0      -738640.0      -738896.0      -739155.0
      -739495.0      -739875.0      -740219.0      -740444.0      -740508.0
      -740451.0      -740363.0      -740285.0      -740214.0      -740108.0
      -740005.0      -739944.0      -739706.0      -739396.0      -739186.0
      -738956.0      -738697.0      -738472.0      -738336.0      -738225.0
      -738124.0      -738019.0      -737883.0      -737724.0      -737475.0
      -737271.0      -737201.0      -737158.0      -737096.0      -737010.0
      -736826.0      -736621.0      -736548.0      -736424.0      -736187.0
      -736013.0      -735866.0      -735638.0      -735392.0      -735267.0
      -735127.0      -734898.0      -734731.0      -734615.0      -734597.0
      -734674.0      -734725.0      -734730.0      -734758.0      -734907.0
      -735129.0      -735397.0      -735603.0      -735615.0      -735689.0
      -735973.0      -736299.0      -736598.0      -736895.0      -737122.0
      -737243.0      -737389.0      -737592.0      -737803.0      -738035.0
      -738238.0      -738430.0      -738644.0      -738879.0      -739104.0
      -739190.0      -739123.0      -738907.0      -738688.0      -738543.0
      -738306.0      -738111.0      -737929.0      -737668.0      -737533.0
      -737490.0      -737442.0      -737305.0      -737047.0      -736834.0
      -736745.0      -736600.0      -736355.0      -736140.0      -735919.0
      -735746.0      -735654.0      -735658.0      -735687.0      -735616.0
      -735606.0      -735713.0      -735806.0      -735813.0      -735825.0
      -735987.0      -736314.0      -736633.0      -736784.0      -736915.0
      -737052.0      -737042.0      -737009.0      -737051.0      -737003.0
      -736952.0      -736986.0      -736870.0      -736773.0      -736884.0
      -736993.0      -737039.0      -737089.0      -737216.0      -737377.0
      -737533.0      -737750.0      -737921.0      -738013.0      -738259.0
      -738553.0      -738679.0      -738740.0      -738660.0      -738562.0
      -738471.0      -738222.0      -738077.0      -737911.0      -737691.0
      -737620.0      -737551.0      -737483.0      -737376.0      -737161.0
      -736986.0      -736905.0      -736829.0      -736756.0      -736500.0
      -736088.0      -735854.0      -735730.0      -735547.0      -735274.0
      -735029.0      -734922.0      -734868.0      -734808.0      -734772.0
      -734831.0      -734904.0      -734822.0      -734753.0      -734844.0
      -734967.0      -735041.0      -735059.0      -735176.0      -735411.0
      -735652.0      -735975.0      -736276.0      -736377.0      -736443.0
      -736667.0      -736916.0      -737088.0      -737329.0      -737651.0
      -737905.0      -738057.0      -738237.0      -738387.0      -738360.0
      -738358.0      -738492.0      -738478.0      -738318.0      -738351.0
      -738480.0      -738527.0      -738600.0      -738762.0      -738931.0
      -739001.0      -739102.0      -739268.0      -739375.0      -739403.0
      -739531.0      -739698.0      -739715.0      -739717.0      -739665.0
      -739685.0      -739712.0      -739543.0      -739488.0      -739438.0
      -739208.0      -738931.0      -738602.0      -738340.0      -738108.0
      -737732.0      -737429.0      -737294.0      -737131.0      -736945.0
      -736796.0      -736722.0      -736704.0      -736581.0      -736454.0
      -736448.0      -736323.0      -736081.0      -735846.0      -735517.0
      -735188.0      -734971.0      -734780.0      -734510.0      -734265.0
      -734204.0      -734123.0      -733958.0      -733933.0      -733982.0
      -733939.0      -733950.0      -734157.0      -734296.0      -734205.0
      -734036.0      -733908.0      -733862.0      -733839.0      -733743.0
      -733627.0      -733566.0      -733531.0      -733445.0      -733251.0
      -733172.0      -733258.0      -733288.0      -733327.0      -733416.0
      -733511.0      -733565.0      -733564.0      -733602.0      -733624.0
      -733634.0      -733838.0      -734138.0      -734347.0      -734559.0
      -734794.0      -734994.0      -735181.0      -735400.0      -735690.0
      -736056.0      -736511.0      -737039.0      -737513.0      -738047.0
      -738739.0      -739352.0      -739838.0      -740319.0      -740826.0
      -741355.0      -741832.0      -742173.0      -742444.0      -742703.0
      -742922.0      -743134.0      -743310.0      -743415.0      -743543.0
      -743742.0      -743984.0      -744176.0      -744233.0      -744228.0
      -744175.0      -744038.0      -743887.0      -743807.0      -743703.0
      -743359.0      -742899.0      -742524.0      -742053.0      -741478.0
      -740960.0      -740474.0      -740091.0      -739754.0      -739329.0
      -738952.0      -738629.0      -738369.0      -738124.0      -737705.0
      -737344.0      -737096.0      -736807.0      -736555.0      -736240.0
      -735895.0      -735657.0      -735395.0      -735101.0      -734782.0
      -734383.0      -733944.0      -733569.0      -733358.0      -733212.0
      -732939.0      -732616.0      -732440.0      -732290.0      -732080.0
      -731786.0      -731442.0      -731183.0      -730977.0      -730989.0
      -731147.0      -731217.0      -731263.0      -731276.0      -731289.0
      -731300.0      -731355.0      -731528.0      -731694.0      -731763.0
      -731728.0      -731729.0      -731779.0      -731751.0      -731717.0
      -731729.0      -731855.0      -732166.0      -732535.0      -732925.0
      -733294.0      -733622.0      -734066.0      -734481.0      -734785.0
      -735041.0      -735230.0      -735424.0      -735589.0      -735761.0
      -735963.0      -736152.0      -736294.0      -736403.0      -736652.0
      -737097.0      -737599.0      -737986.0      -738324.0      -738701.0
      -739100.0      -739498.0      -739754.0      -739938.0      -740151.0
      -740423.0      -740656.0      -740761.0      -740888.0      -741059.0
      -741241.0      -741374.0      -741472.0      -741611.0      -741787.0
      -741935.0      -742043.0      -742169.0      -742322.0      -742522.0
      -742665.0      -742715.0      -742764.0      -742823.0      -742821.0
      -742778.0      -742801.0      -742808.0      -742808.0      -742797.0
      -742666.0      -742491.0      -742342.0      -742209.0      -742029.0
      -741878.0      -741762.0      -741531.0      -741230.0      -740894.0
      -740524.0      -740114.0      -739630.0      -739152.0      -738705.0
      -738149.0      -737581.0      -737155.0      -736748.0      -736381.0
      -736059.0      -735774.0      -735548.0      -735319.0      -735108.0
      -735039.0      -735099.0      -735133.0      -735160.0      -735184.0
      -735213.0      -735119.0      -734811.0      -734502.0      -734251.0
      -733993.0      -733620.0      -733227.0      -732944.0      -732705.0
      -732468.0      -732218.0      -731974.0      -731810.0      -731753.0
      -731605.0      -731418.0      -731293.0      -731161.0      -731089.0
      -731013.0      -730933.0      -730909.0      -730934.0      -730997.0
      -731094.0      -731243.0      -731428.0      -731678.0      -731908.0
      -732129.0      -732399.0      -732646.0      -732849.0      -732958.0
      -732981.0      -732921.0      -732854.0      -732864.0      -732912.0
      -733068.0      -733458.0      -734107.0      -734893.0      -735774.0
      -736677.0      -737574.0      -738444.0      -739209.0      -739991.0
      -740783.0      -741475.0      -742059.0      -742556.0      -742858.0
      -742896.0      -742752.0      -742474.0      -742175.0      -741934.0
      -741754.0      -741625.0      -741621.0      -741799.0      -742034.0
      -742173.0      -742257.0      -742342.0      -742311.0      -742232.0
      -742156.0      -742055.0      -741946.0      -741850.0      -741816.0
      -741773.0      -741711.0      -741611.0      -741524.0      -741461.0
      -741307.0      -741146.0      -741121.0      -741351.0      -741768.0
      -742497.0      -743824.0      -745625.0      -747539.0      -749214.0
      -750431.0      -751156.0      -751488.0      -751488.0      -751369.0
      -751354.0      -751343.0      -751203.0      -750799.0      -750010.0
      -748743.0      -747038.0      -745072.0      -742963.0      -740841.0
      -738777.0      -736873.0      -735130.0      -733458.0      -731846.0
      -730319.0      -729012.0      -727932.0      -726912.0      -725780.0
      -724611.0      -723615.0      -722774.0      -722076.0      -721539.0
      -721166.0      -721047.0      -721191.0      -721452.0      -721790.0
      -722177.0      -722554.0      -722983.0      -723447.0      -724041.0
      -724823.0      -725822.0      -727045.0      -728180.0      -729173.0
      -730139.0      -731109.0      -731974.0      -732669.0      -733322.0
      -734005.0      -734787.0      -735469.0      -736043.0      -736619.0
      -737060.0      -737322.0      -737387.0      -737347.0      -737107.0
      -736622.0      -736169.0      -735821.0      -735658.0      -735649.0
      -735560.0      -735377.0      -735092.0      -734732.0      -734318.0
      -733877.0      -733430.0      -732734.0      -731848.0      -731027.0
      -730360.0      -729879.0      -729533.0      -729361.0      -729385.0
      -729631.0      -730076.0      -730644.0      -731335.0      -732116.0
      -733051.0      -734059.0      -735044.0      -736035.0      -736939.0
      -737737.0      -738421.0      -739067.0      -739637.0      -740072.0
      -740402.0      -740480.0      -740428.0      -740485.0      -740668.0
      -740752.0      -740542.0      -740175.0      -739765.0      -739337.0
      -738949.0      -738692.0      -738461.0      -738173.0      -737913.0
      -737576.0      -737201.0      -736717.0      -735999.0      -735205.0
      -734399.0      -733804.0      -733437.0      -733098.0      -732810.0
      -732560.0      -732506.0      -732676.0      -732998.0      -733521.0
      -734130.0      -734826.0      -735641.0      -736541.0      -737518.0
      -738552.0      -739505.0      -740225.0      -740797.0      -741322.0
      -741851.0      -742406.0      -742948.0      -743416.0      -743762.0
      -744053.0      -744294.0      -744407.0      -744374.0      -744318.0
      -744447.0      -744740.0      -745120.0      -745447.0      -745623.0
      -745632.0      -745289.0      -744680.0      -743985.0      -743348.0
      -742843.0      -742275.0      -741671.0      -741109.0      -740563.0
      -739938.0      -739106.0      -738054.0      -736797.0      -735513.0
      -734173.0      -732692.0      -731277.0      -729916.0      -728643.0
      -727565.0      -726626.0      -725873.0      -725518.0      -725539.0
      -725580.0      -725581.0      -725709.0      -726082.0      -726553.0
      -727073.0      -727935.0      -728937.0      -730088.0      -731581.0
      -733042.0      -734422.0      -735652.0      -736561.0      -737426.0
      -738152.0      -738729.0      -739338.0      -739766.0      -739995.0
      -740035.0      -739908.0      -739833.0      -739736.0      -739531.0
      -739442.0      -739405.0      -739355.0      -739405.0      -739373.0
      -739414.0      -739528.0      -739484.0      -739376.0      -739112.0
      -738759.0      -738287.0      -737660.0      -737109.0      -736538.0
      -735907.0      -735147.0      -734193.0      -733380.0      -732864.0
      -732607.0      -732565.0      -732698.0      -733038.0      -733521.0
      -734129.0      -734806.0      -735504.0      -736304.0      -737306.0
      -738450.0      -739635.0      -740832.0      -741817.0      -742462.0
      -742862.0      -743197.0      -743485.0      -743713.0      -743943.0
      -744012.0      -743992.0      -744013.0      -743879.0      -743638.0
      -743412.0      -743220.0      -743205.0      -743364.0      -743618.0
      -744004.0      -744589.0      -745231.0      -745820.0      -746389.0
      -746800.0      -747076.0      -747229.0      -747288.0      -747253.0
      -747019.0      -746740.0      -746332.0      -745753.0      -745089.0
      -744301.0      -743437.0      -742407.0      -741289.0      -740324.0
      -739510.0      -738860.0      -738427.0      -738017.0      -737602.0
      -737227.0      -736646.0      -735895.0      -735213.0      -734663.0
      -734252.0      -733924.0      -733663.0      -733528.0      -733512.0
      -733524.0      -733526.0      -733530.0      -733465.0      -733397.0
      -733358.0      -733234.0      -733101.0      -733053.0      -732964.0
      -732726.0      -732447.0      -732206.0      -731990.0      -731841.0
      -731815.0      -731962.0      -732283.0      -732722.0      -733143.0
      -733520.0      -733927.0      -734303.0      -734637.0      -735099.0
      -735670.0      -736301.0      -737045.0      -737704.0      -738199.0
      -738474.0      -738594.0      -738792.0      -738886.0      -738852.0
      -738868.0      -738920.0      -738975.0      -738976.0      -738908.0
      -738725.0      -738396.0      -738051.0      -737765.0      -737549.0
      -737424.0      -737338.0      -737161.0      -736895.0      -736722.0
      -736483.0      -736217.0      -736109.0      -735951.0      -735869.0
      -735838.0      -735589.0      -735325.0      -735167.0      -734974.0
      -734857.0      -734902.0      -735031.0      -735386.0      -735948.0
      -736543.0      -737270.0      -738188.0      -739123.0      -739911.0
      -740434.0      -740683.0      -740798.0      -740802.0      -740664.0
      -740468.0      -740224.0      -739933.0      -739656.0      -739383.0
      -739094.0      -738646.0      -737950.0      -737080.0      -736157.0
      -735321.0      -734535.0      -733908.0      -733501.0      -733192.0
      -733001.0      -732879.0      -732887.0      -732992.0      -733123.0
      -733322.0      -733541.0      -733830.0      -734084.0      -734230.0
      -734362.0      -734562.0      -734857.0      -735297.0      -735889.0
      -736464.0      -737060.0      -737558.0      -737824.0      -737928.0
