     0.02500000      -12345.00      -12345.00   2.436090e+09      -12345.00
       0.000000       660.0000      -1131.000      -12345.00      -12345.00
      -12345.00      -12345.00      -12345.00      -12345.00      -12345.00
      -12345.00      -12345.00      -12345.00      -12345.00      -12345.00
      -12345.00      -12345.00      -12345.00      -12345.00      -12345.00
      -12345.00      -12345.00      -12345.00      -12345.00      -12345.00
      -12345.00       13.14340      -59.55880       180.0000       0.000000
       9.831100       126.5297      -12345.00       24.71000      -12345.00
      -12345.00      -12345.00      -12345.00      -12345.00      -12345.00
      -12345.00      -12345.00      -12345.00      -12345.00      -12345.00
       17388.78       14.94877       344.8727       156.3880      -12345.00
      -12345.00      -12345.00       0.000000       0.000000      -12345.00
      -12345.00      -12345.00      -12345.00      -12345.00      -12345.00
      -12345.00      -12345.00      -12345.00      -12345.00      -12345.00
      2019        39        12        13        59
         0         6    -12345    -12345     26401
    -12345    -12345    -12345    -12345    -12345
         1    -12345    -12345    -12345    -12345
    -12345    -12345    -12345    -12345    -12345
    -12345    -12345    -12345    -12345    -12345
    -12345    -12345    -12345    -12345    -12345
         1    -12345    -12345    -12345    -12345
BBGH    Mindanao, Philip
00      -12345  -12345  
-12345  -12345  -12345  
-12345  -12345  -12345  
-12345  -12345  -12345  
-12345  -12345  -12345  
-12345  -12345  BHZ     
CU      -12345  Streckei
[...]
      -81.00000      -1026.000      -1804.000      -2503.000      -2916.000
      -3560.000      -4324.000      -4685.000      -4530.000      -4297.000
      -5063.000      -4934.000      -4098.000      -4349.000      -4105.000
      -3105.000      -2526.000      -2355.000      -1632.000      -415.0000
       3.000000       294.0000       673.0000       957.0000       1999.000
       2910.000       3414.000       4102.000       4881.000       5702.000
       6291.000       6677.000       7421.000       7918.000       7788.000
       8586.000       9127.000       8253.000       8704.000       9664.000
       9116.000       9372.000       10132.00       9592.000       9484.000
       9841.000       9415.000       9367.000       9544.000       9197.000
       9247.000       9151.000       8820.000       9282.000       9550.000
       9448.000       9880.000       10423.00       10874.00       11321.00
       12049.00       12995.00       13404.00       14235.00       14949.00
       14729.00       15665.00       16230.00       16225.00       17602.00
       17755.00       17830.00       19271.00       19656.00       19761.00
       20018.00       20153.00       20616.00       21008.00       21484.00
       21293.00       21210.00       22204.00       22050.00       21181.00
       20985.00       20844.00       20303.00       19525.00       18988.00
       18625.00       18412.00       17505.00       16482.00       16500.00
       16271.00       15289.00       14819.00       14874.00       13839.00
       13026.00       13057.00       11863.00       11216.00       11593.00
       10900.00       10539.00       10867.00       10131.00       9069.000
       8891.000       8846.000       8360.000       7847.000       7721.000
       7753.000       7702.000       7652.000       7283.000       7294.000
       7521.000       6996.000       7010.000       7563.000       7277.000
       6435.000       6495.000       7289.000       6826.000       5703.000
       5102.000       4491.000       3793.000       2446.000       947.0000
       641.0000      -149.0000      -1547.000      -1793.000      -2669.000
      -4321.000      -4727.000      -5184.000      -6843.000      -8249.000
      -8999.000      -9708.000      -10682.00      -12047.00      -12715.00
      -13311.00      -14452.00      -15119.00      -15614.00      -15949.00
      -16592.00      -16761.00      -16570.00      -17703.00      -17877.00
      -17283.00      -17502.00      -16925.00      -16212.00      -15950.00
      -15021.00      -14223.00      -13675.00      -12729.00      -11650.00
      -9757.000      -8712.000      -8793.000      -7355.000      -6370.000
      -6045.000      -4507.000      -3584.000      -3037.000      -2091.000
      -1469.000      -598.0000       527.0000       1501.000       1865.000
       2336.000       4112.000       5568.000       6102.000       6956.000
       7987.000       8886.000       9722.000       10252.00       10703.00
       11604.00       12142.00       11986.00       11974.00       12232.00
       12632.00       12341.00       12051.00       12755.00       12413.00
       11520.00       11814.00       11678.00       11134.00       10801.00
       10418.00       10657.00       9905.000       8483.000       8779.000
       9091.000       7692.000       6386.000       6406.000       6564.000
       6298.000       5889.000       5932.000       6590.000       7037.000
       7156.000       7396.000       7713.000       8152.000       8725.000
       8717.000       8980.000       9893.000       9878.000       10082.00
       11337.00       11354.00       11206.00       12975.00       13919.00
       13334.00       14043.00       15400.00       15538.00       15785.00
       16593.00       16724.00       17080.00       17454.00       17231.00
       17741.00       17692.00       16679.00       16849.00       16917.00
       16113.00       15872.00       15475.00       14663.00       13700.00
       13108.00       12351.00       10734.00       10339.00       9471.000
       7696.000       7193.000       5960.000       4221.000       3017.000
       1904.000       1267.000      -12.00000      -1436.000      -1798.000
      -2904.000      -4359.000      -4993.000      -6035.000      -6749.000
      -7319.000      -8590.000      -9029.000      -9640.000      -10712.00
      -11003.00      -11355.00      -11615.00      -12011.00      -11894.00
      -11297.00      -11682.00      -11175.00      -10222.00      -9982.000
      -9167.000      -8385.000      -7547.000      -6598.000      -5890.000
      -4733.000      -3654.000      -2699.000      -1685.000      -1160.000
      -403.0000       817.0000       1673.000       2189.000       3194.000
       4745.000       5451.000       6018.000       7405.000       7650.000
       7414.000       8273.000       8846.000       9284.000       10073.00
       10138.00       10350.00       11294.00       11645.00       11772.00
       12289.00       12789.00       13124.00       12858.00       12516.00
       12556.00       12607.00       12494.00       11956.00       12045.00
       12613.00       12512.00       12842.00       13176.00       12484.00
       12907.00       13834.00       12849.00       12582.00       13446.00
       13127.00       12741.00       12861.00       12917.00       12776.00
       12864.00       12775.00       12275.00       12717.00       12973.00
       12096.00       11672.00       11740.00       11786.00       11321.00
       10190.00       9924.000       9841.000       9073.000       8748.000
       8273.000       7908.000       7620.000       6943.000       7155.000
       6837.000       6225.000       6775.000       6534.000       5680.000
       5309.000       5227.000       4948.000       4649.000       4653.000
       4240.000       4113.000       3530.000       2724.000       3185.000
       2572.000       1692.000       1788.000       1119.000       956.0000
       1034.000       270.0000       166.0000       326.0000       368.0000
       963.0000       1059.000       829.0000       1329.000       1492.000
       1829.000       3157.000       3520.000       4036.000       5937.000
       6730.000       6970.000       8013.000       8997.000       9678.000
       10070.00       11046.00       12104.00       11981.00       12224.00
       13187.00       13367.00       13118.00       13378.00       13387.00
       13583.00       14286.00       13560.00       13081.00       13882.00
       13364.00       12840.00       13041.00       12590.00       12616.00
       12402.00       12043.00       12050.00       11791.00       12108.00
       11266.00       10893.00       12299.00       11719.00       10944.00
       11647.00       11744.00       11173.00       10699.00       10815.00
       11180.00       11094.00       10259.00       10022.00       10734.00
       10121.00       9234.000       9541.000       9044.000       7790.000
       7318.000       7159.000       6295.000       5036.000       4760.000
       5311.000       5011.000       4184.000       4027.000       3837.000
       3054.000       2676.000       2952.000       2637.000       1822.000
       1295.000       1079.000       868.0000       363.0000       407.0000
       413.0000       58.00000       271.0000       24.00000      -352.0000
      -477.0000      -599.0000      -472.0000      -1207.000      -1567.000
      -1106.000      -1578.000      -1932.000      -1969.000      -2136.000
      -1947.000      -1720.000      -1447.000      -1684.000      -1915.000
      -895.0000      -239.0000      -529.0000      -305.0000       378.0000
       995.0000       759.0000       399.0000       1447.000       2200.000
       1996.000       2116.000       2460.000       3075.000       3722.000
       3606.000       3420.000       3746.000       3713.000       3616.000
       3673.000       3410.000       3665.000       3987.000       3967.000
       4284.000       4360.000       4624.000       4775.000       4193.000
       4534.000       5255.000       4847.000       4341.000       4976.000
       5811.000       5577.000       5162.000       5568.000       6386.000
       6688.000       6663.000       6806.000       6933.000       7121.000
       7396.000       7678.000       7297.000       6784.000       7178.000
       7311.000       6795.000       6669.000       7110.000       7534.000
       7502.000       7244.000       7368.000       7692.000       7313.000
       6484.000       6278.000       5992.000       4817.000       4066.000
       4253.000       4207.000       3130.000       2539.000       3362.000
       3237.000       2476.000       2804.000       2884.000       2644.000
       2831.000       2937.000       2579.000       1918.000       2004.000
       2388.000       1775.000       1437.000       1966.000       1978.000
       1924.000       2293.000       2764.000       3489.000       4178.000
       5260.000       5992.000       5979.000       6672.000       7213.000
       7287.000       7646.000       8233.000       8874.000       9014.000
       9931.000       11164.00       11249.00       12157.00       13442.00
       13701.00       13994.00       14132.00       14024.00       14505.00
       15028.00       14575.00       14257.00       15239.00       15651.00
       15324.00       15979.00       16124.00       16050.00       16721.00
       16177.00       15910.00       16498.00       16174.00       15959.00
       16005.00       16187.00       16399.00       15980.00       15778.00
       15575.00       14545.00       13894.00       13699.00       12813.00
       11826.00       11089.00       10540.00       9486.000       8160.000
       7908.000       6941.000       5614.000       5219.000       4057.000
       2742.000       1809.000       951.0000       225.0000      -996.0000
      -1857.000      -2336.000      -3784.000      -5100.000      -5142.000
      -5433.000      -6533.000      -7418.000      -7568.000      -7261.000
      -8106.000      -8861.000      -8091.000      -8365.000      -8756.000
      -8213.000      -8640.000      -8775.000      -8539.000      -9226.000
      -9676.000      -9630.000      -9853.000      -10424.00      -10557.00
      -10686.00      -11118.00      -10885.00      -11231.00      -11603.00
      -10704.00      -10642.00      -11415.00      -11337.00      -10636.00
      -9916.000      -9773.000      -9719.000      -8850.000      -7780.000
      -7248.000      -6985.000      -6427.000      -5023.000      -3437.000
      -3088.000      -2149.000      -249.0000       819.0000       1590.000
       2417.000       3536.000       4637.000       5575.000       6453.000
       7485.000       9335.000       10599.00       10964.00       12132.00
       13319.00       13951.00       15314.00       16773.00       17731.00
       18401.00       18861.00       19539.00       20528.00       21636.00
       22010.00       22170.00       22843.00       23549.00       24076.00
       23736.00       23595.00       24427.00       24503.00       23796.00
       23725.00       23751.00       23160.00       23066.00       22810.00
       22333.00       22087.00       20880.00       20031.00       19519.00
       18420.00       17852.00       17215.00       15896.00       14486.00
       13337.00       12485.00       11522.00       10219.00       8899.000
       8292.000       7586.000       5899.000       4776.000       4281.000
       3290.000       1570.000      -88.00000      -499.0000      -986.0000
      -2632.000      -3908.000      -3995.000      -4243.000      -4998.000
      -5091.000      -4962.000      -4754.000      -4235.000      -4604.000
      -4348.000      -2558.000      -1798.000      -1680.000      -738.0000
       461.0000       1699.000       3328.000       4580.000       5303.000
       6816.000       8170.000       9178.000       10808.00       11938.00
       12546.00       13834.00       15404.00       15906.00       16795.00
       18192.00       18377.00       18758.00       18843.00       18822.00
       19700.00       19267.00       18817.00       19938.00       19847.00
       19249.00       19791.00       19534.00       18970.00       18794.00
       18866.00       18931.00       18329.00       18598.00       18993.00
       18067.00       17731.00       18261.00       17244.00       15990.00
       16042.00       15515.00       14819.00       13758.00       12345.00
       11187.00       9881.000       9378.000       8183.000       5993.000
       4759.000       3545.000       1586.000      -273.0000      -1830.000
      -3345.000      -4734.000      -5720.000      -6490.000      -7541.000
      -8921.000      -10237.00      -11359.00      -12904.00      -14078.00
      -14293.00      -15482.00      -17007.00      -16974.00      -17095.00
      -18050.00      -18054.00      -17762.00      -18109.00      -17215.00
      -15820.00      -15874.00      -15371.00      -14080.00      -12975.00
      -11775.00      -10861.00      -9224.000      -7763.000      -7123.000
      -5390.000      -3867.000      -2675.000      -402.0000       853.0000
       1829.000       3981.000       5150.000       6113.000       7216.000
       7686.000       8800.000       9749.000       10525.00       11391.00
       11685.00       12095.00       12098.00       11960.00       12430.00
       13001.00       13416.00       13574.00       13852.00       13775.00
       13451.00       13795.00       14077.00       13729.00       13149.00
       13681.00       14030.00       12499.00       12051.00       12384.00
       11734.00       11573.00       11667.00       11514.00       11241.00
       11103.00       11193.00       10810.00       10733.00       10900.00
       10091.00       9707.000       10200.00       9677.000       8595.000
       8750.000       8511.000       7500.000       7825.000       7286.000
       6480.000       7041.000       5894.000       5058.000       5833.000
       4708.000       3479.000       4094.000       4187.000       3387.000
       2822.000       2841.000       2515.000       1287.000       838.0000
       854.0000       98.00000      -179.0000       208.0000      -194.0000
      -859.0000      -359.0000       207.0000      -178.0000      -275.0000
       483.0000       993.0000       1201.000       1905.000       2168.000
       2482.000       3539.000       3537.000       4014.000       5406.000
       5091.000       5223.000       6132.000       6115.000       6499.000
       6923.000       7201.000       7183.000       7348.000       8337.000
       8119.000       7848.000       8620.000       8740.000       8096.000
       7566.000       7913.000       7957.000       7151.000       7183.000
       8134.000       7990.000       7287.000       7820.000       7778.000
       7120.000       7195.000       7246.000       7440.000       7213.000
       6733.000       7269.000       7520.000       7413.000       7675.000
       7480.000       7489.000       7669.000       7708.000       7944.000
       7957.000       8091.000       7704.000       7257.000       7494.000
       7009.000       6504.000       6653.000       6286.000       5271.000
       4756.000       4673.000       3735.000       2876.000       2939.000
       2790.000       2618.000       2448.000       2030.000       1615.000
       745.0000       170.0000      -71.00000      -872.0000      -1620.000
      -1663.000      -1435.000      -1999.000      -2481.000      -2031.000
      -2137.000      -2500.000      -2396.000      -2061.000      -1428.000
      -1271.000      -1113.000      -589.0000      -438.0000      -291.0000
      -306.0000      -310.0000       423.0000       674.0000       321.0000
       949.0000       1499.000       1177.000       1551.000       1973.000
       1858.000       2373.000       2775.000       2840.000       3371.000
       3589.000       4042.000       5255.000       5409.000       5572.000
       6977.000       7888.000       8075.000       8499.000       9326.000
       9875.000       10480.00       11295.00       11715.00       12719.00
       13901.00       14494.00       15722.00       16830.00       17238.00
       18262.00       19137.00       19274.00       19866.00       20712.00
       21343.00       21494.00       20812.00       20722.00       21238.00
       20548.00       19613.00       19718.00       19546.00       19165.00
       18903.00       18293.00       17775.00       17097.00       16488.00
       15775.00       15256.00       14855.00       13593.00       12587.00
       11441.00       10278.00       9692.000       8316.000       7071.000
       6575.000       5886.000       5338.000       4754.000       3769.000
       2874.000       1991.000       1600.000       1170.000       34.00000
      -340.0000      -559.0000      -893.0000      -845.0000      -756.0000
      -195.0000      -563.0000      -964.0000       27.00000       487.0000
       454.0000       519.0000       1288.000       2015.000       1585.000
       2214.000       2993.000       3055.000       3696.000       3805.000
       4388.000       5081.000       4545.000       4857.000       5343.000
       5479.000       5709.000       5277.000       5858.000       6549.000
       6141.000       5886.000       5761.000       6294.000       6095.000
       5103.000       5715.000       6177.000       5670.000       5678.000
       5173.000       4859.000       5249.000       4351.000       3647.000
       3775.000       3710.000       3754.000       3255.000       3158.000
       3430.000       2935.000       2847.000       3061.000       2895.000
       2969.000       3004.000       2693.000       2745.000       2788.000
       2256.000       2238.000       2555.000       2064.000       1870.000
       1767.000       960.0000       651.0000      -32.00000      -891.0000
      -581.0000      -841.0000      -1378.000      -570.0000      -259.0000
      -1199.000      -1531.000      -1344.000      -1393.000      -1551.000
      -1554.000      -1693.000      -2075.000      -1790.000      -1742.000
      -2002.000      -1947.000      -1764.000      -1182.000      -1029.000
      -473.0000       223.0000       597.0000       1648.000       1653.000
       1838.000       3125.000       3112.000       2984.000       3668.000
       4021.000       4258.000       4208.000       4263.000       4931.000
