     0.02500000      -12345.00      -12345.00   2.082930e+09      -12345.00
   0.0005390000       659.9755      -313.0196      -12345.00      -12345.00
      -12345.00      -12345.00      -12345.00      -12345.00      -12345.00
      -12345.00      -12345.00      -12345.00      -12345.00      -12345.00
      -12345.00      -12345.00      -12345.00      -12345.00      -12345.00
      -12345.00      -12345.00      -12345.00      -12345.00      -12345.00
      -12345.00      -19.93360       134.3600       366.0000       0.000000
       9.831100       126.5297      -12345.00       24.71000      -12345.00
      -12345.00      -12345.00      -12345.00      -12345.00      -12345.00
      -12345.00      -12345.00      -12345.00      -12345.00      -12345.00
       3398.596       165.4008       344.6908       30.56567      -12345.00
      -12345.00      -12345.00       0.000000       0.000000      -12345.00
      -12345.00      -12345.00      -12345.00      -12345.00      -12345.00
      -12345.00      -12345.00      -12345.00      -12345.00      -12345.00
      2019        39        12         0        21
        19         6    -12345    -12345     26400
    -12345    -12345    -12345    -12345    -12345
         1    -12345    -12345    -12345    -12345
    -12345    -12345    -12345    -12345    -12345
    -12345    -12345    -12345    -12345    -12345
    -12345    -12345    -12345    -12345    -12345
         1    -12345    -12345    -12345    -12345
WRAB    Mindanao, Philip
10      -12345  -12345  
-12345  -12345  -12345  
-12345  -12345  -12345  
-12345  -12345  -12345  
-12345  -12345  -12345  
-12345  -12345  BHZ     
II      -12345  Nanometr
[...]
      -7116.000      -7139.000      -7170.000      -7208.000      -7258.000
      -7316.000      -7385.000      -7449.000      -7487.000      -7518.000
      -7544.000      -7566.000      -7597.000      -7635.000      -7672.000
      -7710.000      -7749.000      -7794.000      -7859.000      -7941.000
      -8024.000      -8117.000      -8217.000      -8315.000      -8433.000
      -8562.000      -8696.000      -8842.000      -8985.000      -9118.000
      -9233.000      -9342.000      -9457.000      -9566.000      -9668.000
      -9765.000      -9855.000      -9944.000      -10041.00      -10151.00
      -10262.00      -10367.00      -10472.00      -10591.00      -10719.00
      -10845.00      -10965.00      -11084.00      -11204.00      -11313.00
      -11409.00      -11495.00      -11585.00      -11682.00      -11777.00
      -11858.00      -11920.00      -11974.00      -12014.00      -12046.00
      -12064.00      -12056.00      -12033.00      -11995.00      -11955.00
      -11895.00      -11812.00      -11717.00      -11597.00      -11450.00
      -11277.00      -11090.00      -10879.00      -10641.00      -10389.00
      -10125.00      -9857.000      -9577.000      -9285.000      -8995.000
      -8701.000      -8406.000      -8112.000      -7826.000      -7552.000
      -7285.000      -7026.000      -6775.000      -6546.000      -6343.000
      -6153.000      -5987.000      -5850.000      -5736.000      -5645.000
      -5571.000      -5509.000      -5470.000      -5453.000      -5468.000
      -5520.000      -5578.000      -5650.000      -5752.000      -5857.000
      -5970.000      -6119.000      -6283.000      -6457.000      -6669.000
      -6888.000      -7099.000      -7321.000      -7546.000      -7773.000
      -7989.000      -8185.000      -8379.000      -8578.000      -8775.000
      -8969.000      -9166.000      -9356.000      -9530.000      -9711.000
      -9896.000      -10080.00      -10271.00      -10459.00      -10662.00
      -10876.00      -11081.00      -11286.00      -11477.00      -11655.00
      -11833.00      -12009.00      -12178.00      -12348.00      -12519.00
      -12672.00      -12817.00      -12966.00      -13114.00      -13257.00
      -13391.00      -13524.00      -13658.00      -13791.00      -13915.00
      -14040.00      -14177.00      -14307.00      -14435.00      -14564.00
      -14690.00      -14822.00      -14953.00      -15090.00      -15234.00
      -15374.00      -15515.00      -15645.00      -15761.00      -15869.00
      -15951.00      -16009.00      -16062.00      -16105.00      -16139.00
      -16168.00      -16178.00      -16170.00      -16147.00      -16106.00
      -16056.00      -15990.00      -15903.00      -15807.00      -15698.00
      -15600.00      -15502.00      -15363.00      -15208.00      -15047.00
      -14881.00      -14719.00      -14557.00      -14393.00      -14221.00
      -14044.00      -13873.00      -13708.00      -13556.00      -13405.00
      -13250.00      -13111.00      -12984.00      -12867.00      -12756.00
      -12647.00      -12551.00      -12464.00      -12373.00      -12275.00
      -12174.00      -12073.00      -11958.00      -11818.00      -11660.00
      -11492.00      -11311.00      -11113.00      -10896.00      -10664.00
      -10423.00      -10176.00      -9925.000      -9665.000      -9415.000
      -9164.000      -8900.000      -8639.000      -8356.000      -8056.000
      -7753.000      -7426.000      -7091.000      -6736.000      -6356.000
      -5980.000      -5607.000      -5234.000      -4858.000      -4483.000
      -4110.000      -3731.000      -3357.000      -2992.000      -2640.000
      -2303.000      -1981.000      -1678.000      -1392.000      -1127.000
      -873.0000      -634.0000      -425.0000      -239.0000      -78.00000
       49.00000       141.0000       195.0000       214.0000       217.0000
       198.0000       158.0000       108.0000       29.00000      -66.00000
      -163.0000      -275.0000      -413.0000      -568.0000      -727.0000
      -892.0000      -1077.000      -1294.000      -1538.000      -1783.000
      -2026.000      -2292.000      -2555.000      -2813.000      -3081.000
      -3343.000      -3601.000      -3848.000      -4092.000      -4337.000
      -4562.000      -4772.000      -4967.000      -5151.000      -5334.000
      -5498.000      -5645.000      -5808.000      -5955.000      -6080.000
      -6204.000      -6329.000      -6451.000      -6540.000      -6615.000
      -6678.000      -6706.000      -6713.000      -6697.000      -6657.000
      -6592.000      -6495.000      -6375.000      -6237.000      -6075.000
      -5907.000      -5740.000      -5550.000      -5361.000      -5190.000
      -5017.000      -4833.000      -4652.000      -4493.000      -4345.000
      -4200.000      -4066.000      -3953.000      -3858.000      -3785.000
      -3737.000      -3715.000      -3716.000      -3735.000      -3766.000
      -3808.000      -3859.000      -3914.000      -3982.000      -4066.000
      -4157.000      -4257.000      -4361.000      -4469.000      -4593.000
      -4725.000      -4856.000      -4994.000      -5148.000      -5306.000
      -5452.000      -5600.000      -5763.000      -5923.000      -6070.000
      -6220.000      -6382.000      -6543.000      -6698.000      -6851.000
      -6993.000      -7127.000      -7266.000      -7394.000      -7511.000
      -7634.000      -7750.000      -7864.000      -7983.000      -8090.000
      -8192.000      -8305.000      -8434.000      -8582.000      -8750.000
      -8946.000      -9169.000      -9409.000      -9666.000      -9947.000
      -10240.00      -10534.00      -10837.00      -11137.00      -11432.00
      -11731.00      -12024.00      -12308.00      -12568.00      -12806.00
      -13040.00      -13253.00      -13449.00      -13633.00      -13792.00
      -13925.00      -14035.00      -14129.00      -14211.00      -14278.00
      -14321.00      -14349.00      -14364.00      -14353.00      -14310.00
      -14252.00      -14182.00      -14076.00      -13941.00      -13771.00
      -13567.00      -13342.00      -13084.00      -12799.00      -12496.00
      -12181.00      -11856.00      -11516.00      -11181.00      -10861.00
      -10536.00      -10208.00      -9895.000      -9590.000      -9301.000
      -9021.000      -8729.000      -8445.000      -8163.000      -7872.000
      -7593.000      -7319.000      -7050.000      -6790.000      -6533.000
      -6292.000      -6076.000      -5876.000      -5699.000      -5563.000
      -5463.000      -5396.000      -5355.000      -5333.000      -5338.000
      -5377.000      -5444.000      -5531.000      -5635.000      -5731.000
      -5821.000      -5911.000      -5998.000      -6089.000      -6181.000
      -6283.000      -6384.000      -6469.000      -6558.000      -6635.000
      -6708.000      -6784.000      -6848.000      -6912.000      -6963.000
      -7001.000      -7024.000      -7016.000      -6990.000      -6942.000
      -6868.000      -6768.000      -6644.000      -6504.000      -6349.000
      -6182.000      -6005.000      -5828.000      -5659.000      -5487.000
      -5320.000      -5174.000      -5033.000      -4901.000      -4789.000
      -4682.000      -4584.000      -4493.000      -4407.000      -4334.000
      -4269.000      -4228.000      -4207.000      -4196.000      -4204.000
      -4221.000      -4252.000      -4300.000      -4372.000      -4463.000
      -4549.000      -4645.000      -4762.000      -4891.000      -5037.000
      -5204.000      -5378.000      -5555.000      -5744.000      -5931.000
      -6108.000      -6275.000      -6440.000      -6612.000      -6777.000
      -6939.000      -7100.000      -7262.000      -7434.000      -7617.000
      -7814.000      -8009.000      -8199.000      -8386.000      -8565.000
      -8749.000      -8937.000      -9138.000      -9354.000      -9574.000
      -9800.000      -10026.00      -10258.00      -10481.00      -10699.00
      -10918.00      -11127.00      -11331.00      -11524.00      -11714.00
      -11903.00      -12082.00      -12244.00      -12395.00      -12546.00
      -12700.00      -12855.00      -13001.00      -13146.00      -13281.00
      -13385.00      -13475.00      -13547.00      -13597.00      -13627.00
      -13641.00      -13653.00      -13653.00      -13642.00      -13627.00
      -13600.00      -13560.00      -13505.00      -13436.00      -13359.00
      -13271.00      -13168.00      -13050.00      -12917.00      -12779.00
      -12638.00      -12488.00      -12337.00      -12193.00      -12064.00
      -11942.00      -11817.00      -11700.00      -11579.00      -11447.00
      -11305.00      -11143.00      -10970.00      -10780.00      -10563.00
      -10330.00      -10078.00      -9808.000      -9525.000      -9232.000
      -8929.000      -8623.000      -8311.000      -7996.000      -7687.000
      -7376.000      -7064.000      -6753.000      -6437.000      -6119.000
      -5802.000      -5495.000      -5202.000      -4916.000      -4650.000
      -4399.000      -4165.000      -3955.000      -3767.000      -3601.000
      -3461.000      -3340.000      -3238.000      -3164.000      -3111.000
      -3073.000      -3057.000      -3064.000      -3090.000      -3145.000
      -3233.000      -3339.000      -3458.000      -3585.000      -3711.000
      -3855.000      -4018.000      -4187.000      -4366.000      -4542.000
      -4714.000      -4892.000      -5068.000      -5248.000      -5432.000
      -5608.000      -5774.000      -5931.000      -6083.000      -6230.000
      -6367.000      -6496.000      -6626.000      -6763.000      -6902.000
      -7049.000      -7189.000      -7326.000      -7478.000      -7623.000
      -7762.000      -7893.000      -8006.000      -8116.000      -8222.000
      -8320.000      -8409.000      -8482.000      -8538.000      -8576.000
      -8602.000      -8614.000      -8608.000      -8587.000      -8543.000
      -8475.000      -8390.000      -8290.000      -8181.000      -8061.000
      -7931.000      -7798.000      -7661.000      -7513.000      -7351.000
      -7178.000      -7008.000      -6842.000      -6675.000      -6503.000
      -6330.000      -6174.000      -6035.000      -5914.000      -5812.000
      -5726.000      -5660.000      -5601.000      -5549.000      -5512.000
      -5486.000      -5465.000      -5446.000      -5423.000      -5391.000
      -5361.000      -5324.000      -5266.000      -5200.000      -5124.000
      -5042.000      -4959.000      -4866.000      -4773.000      -4692.000
      -4612.000      -4535.000      -4459.000      -4378.000      -4297.000
      -4227.000      -4167.000      -4110.000      -4066.000      -4029.000
      -4006.000      -3994.000      -3987.000      -4004.000      -4037.000
      -4094.000      -4181.000      -4295.000      -4433.000      -4593.000
      -4771.000      -4957.000      -5146.000      -5335.000      -5523.000
      -5722.000      -5914.000      -6106.000      -6305.000      -6490.000
      -6668.000      -6845.000      -7013.000      -7181.000      -7343.000
      -7504.000      -7667.000      -7826.000      -7987.000      -8138.000
      -8283.000      -8432.000      -8572.000      -8706.000      -8835.000
      -8966.000      -9101.000      -9237.000      -9381.000      -9539.000
      -9713.000      -9900.000      -10107.00      -10336.00      -10579.00
      -10840.00      -11113.00      -11401.00      -11700.00      -12003.00
      -12319.00      -12632.00      -12941.00      -13247.00      -13539.00
      -13828.00      -14105.00      -14376.00      -14642.00      -14891.00
      -15134.00      -15380.00      -15631.00      -15876.00      -16113.00
      -16344.00      -16553.00      -16746.00      -16929.00      -17078.00
      -17197.00      -17285.00      -17335.00      -17363.00      -17364.00
      -17337.00      -17283.00      -17200.00      -17093.00      -16957.00
      -16793.00      -16609.00      -16404.00      -16188.00      -15956.00
      -15704.00      -15440.00      -15169.00      -14891.00      -14597.00
      -14294.00      -13983.00      -13653.00      -13309.00      -12957.00
      -12610.00      -12265.00      -11915.00      -11560.00      -11201.00
      -10824.00      -10422.00      -10009.00      -9592.000      -9164.000
      -8726.000      -8268.000      -7791.000      -7304.000      -6796.000
      -6287.000      -5785.000      -5284.000      -4787.000      -4288.000
      -3787.000      -3288.000      -2790.000      -2298.000      -1819.000
      -1351.000      -890.0000      -460.0000      -72.00000       277.0000
       575.0000       828.0000       1036.000       1203.000       1339.000
       1438.000       1519.000       1587.000       1638.000       1679.000
       1707.000       1722.000       1732.000       1730.000       1703.000
       1654.000       1592.000       1513.000       1416.000       1297.000
       1155.000       1008.000       860.0000       709.0000       553.0000
       394.0000       230.0000       59.00000      -116.0000      -301.0000
      -492.0000      -676.0000      -850.0000      -1022.000      -1192.000
      -1361.000      -1535.000      -1707.000      -1880.000      -2058.000
      -2242.000      -2436.000      -2639.000      -2849.000      -3071.000
      -3298.000      -3531.000      -3779.000      -4038.000      -4317.000
      -4619.000      -4940.000      -5283.000      -5640.000      -6013.000
      -6407.000      -6805.000      -7207.000      -7624.000      -8045.000
      -8465.000      -8877.000      -9278.000      -9671.000      -10055.00
      -10429.00      -10786.00      -11129.00      -11469.00      -11790.00
      -12090.00      -12361.00      -12600.00      -12816.00      -12991.00
      -13127.00      -13237.00      -13320.00      -13383.00      -13421.00
      -13429.00      -13424.00      -13393.00      -13327.00      -13238.00
      -13128.00      -13000.00      -12857.00      -12698.00      -12533.00
      -12359.00      -12181.00      -11999.00      -11806.00      -11614.00
      -11415.00      -11215.00      -11018.00      -10822.00      -10645.00
      -10481.00      -10331.00      -10192.00      -10060.00      -9944.000
      -9831.000      -9723.000      -9624.000      -9521.000      -9414.000
      -9304.000      -9183.000      -9059.000      -8921.000      -8779.000
      -8634.000      -8478.000      -8325.000      -8161.000      -7987.000
      -7818.000      -7640.000      -7448.000      -7251.000      -7037.000
      -6822.000      -6612.000      -6387.000      -6162.000      -5938.000
      -5716.000      -5498.000      -5286.000      -5092.000      -4918.000
      -4765.000      -4642.000      -4542.000      -4473.000      -4429.000
      -4412.000      -4425.000      -4454.000      -4515.000      -4611.000
      -4728.000      -4857.000      -5002.000      -5153.000      -5308.000
      -5472.000      -5637.000      -5802.000      -5961.000      -6115.000
      -6274.000      -6426.000      -6576.000      -6735.000      -6898.000
      -7057.000      -7213.000      -7374.000      -7538.000      -7708.000
      -7879.000      -8046.000      -8215.000      -8385.000      -8554.000
      -8721.000      -8894.000      -9075.000      -9260.000      -9447.000
      -9636.000      -9829.000      -10024.00      -10214.00      -10395.00
      -10562.00      -10708.00      -10838.00      -10944.00      -11029.00
      -11099.00      -11148.00      -11181.00      -11199.00      -11205.00
      -11205.00      -11195.00      -11179.00      -11154.00      -11120.00
      -11078.00      -11021.00      -10960.00      -10897.00      -10826.00
      -10758.00      -10684.00      -10609.00      -10541.00      -10468.00
      -10394.00      -10316.00      -10243.00      -10177.00      -10117.00
      -10060.00      -9995.000      -9932.000      -9858.000      -9783.000
      -9706.000      -9619.000      -9536.000      -9456.000      -9381.000
      -9313.000      -9246.000      -9187.000      -9138.000      -9094.000
      -9059.000      -9030.000      -9013.000      -9009.000      -9010.000
      -9022.000      -9050.000      -9092.000      -9154.000      -9230.000
      -9309.000      -9397.000      -9491.000      -9583.000      -9684.000
      -9777.000      -9858.000      -9942.000      -10023.00      -10104.00
      -10187.00      -10267.00      -10348.00      -10427.00      -10500.00
      -10582.00      -10655.00      -10724.00      -10795.00      -10850.00
      -10897.00      -10930.00      -10946.00      -10949.00      -10928.00
      -10895.00      -10837.00      -10744.00      -10639.00      -10518.00
      -10384.00      -10239.00      -10081.00      -9912.000      -9721.000
      -9513.000      -9283.000      -9037.000      -8775.000      -8480.000
      -8171.000      -7849.000      -7515.000      -7180.000      -6842.000
      -6514.000      -6200.000      -5893.000      -5610.000      -5361.000
      -5139.000      -4950.000      -4792.000      -4663.000      -4561.000
      -4481.000      -4423.000      -4380.000      -4361.000      -4368.000
      -4402.000      -4468.000      -4567.000      -4692.000      -4845.000
      -5024.000      -5220.000      -5441.000      -5674.000      -5910.000
      -6156.000      -6410.000      -6669.000      -6939.000      -7215.000
      -7487.000      -7755.000      -8013.000      -8265.000      -8506.000
      -8734.000      -8961.000      -9178.000      -9377.000      -9556.000
      -9715.000      -9848.000      -9960.000      -10047.00      -10099.00
      -10117.00      -10108.00      -10073.00      -10006.00      -9921.000
      -9824.000      -9711.000      -9591.000      -9467.000      -9350.000
      -9242.000      -9136.000      -9034.000      -8933.000      -8835.000
      -8738.000      -8642.000      -8547.000      -8451.000      -8349.000
      -8239.000      -8132.000      -8020.000      -7903.000      -7796.000
      -7696.000      -7614.000      -7535.000      -7458.000      -7397.000
      -7344.000      -7292.000      -7241.000      -7194.000      -7142.000
      -7085.000      -7025.000      -6949.000      -6862.000      -6771.000
      -6678.000      -6581.000      -6486.000      -6391.000      -6292.000
      -6192.000      -6086.000      -5987.000      -5884.000      -5765.000
