     0.02500000      -12345.00      -12345.00   1.993130e+09      -12345.00
   0.0005380000       659.9755      -581.0195      -12345.00      -12345.00
      -12345.00      -12345.00      -12345.00      -12345.00      -12345.00
      -12345.00      -12345.00      -12345.00      -12345.00      -12345.00
      -12345.00      -12345.00      -12345.00      -12345.00      -12345.00
      -12345.00      -12345.00      -12345.00      -12345.00      -12345.00
      -12345.00      -13.90930      -171.7773       705.0000       1.000000
       9.831100       126.5297      -12345.00       24.71000      -12345.00
      -12345.00      -12345.00      -12345.00      -12345.00      -12345.00
      -12345.00      -12345.00      -12345.00      -12345.00      -12345.00
       7292.872       110.1388       287.6669       65.58928      -12345.00
      -12345.00      -12345.00       0.000000       0.000000      -12345.00
      -12345.00      -12345.00      -12345.00      -12345.00      -12345.00
      -12345.00      -12345.00      -12345.00      -12345.00      -12345.00
      2019        39        12         4        49
        19         6    -12345    -12345     26400
    -12345    -12345    -12345    -12345    -12345
         1    -12345    -12345    -12345    -12345
    -12345    -12345    -12345    -12345    -12345
    -12345    -12345    -12345    -12345    -12345
    -12345    -12345    -12345    -12345    -12345
         1    -12345    -12345    -12345    -12345
AFI     Mindanao, Philip
00      -12345  -12345  
-12345  -12345  -12345  
-12345  -12345  -12345  
-12345  -12345  -12345  
-12345  -12345  -12345  
-12345  -12345  BHZ     
IU      -12345  Streckei
[...]
       481.0000       677.0000       768.0000       903.0000       1084.000
       1176.000       1305.000       1557.000       1628.000       1739.000
       1884.000       1900.000       2057.000       2136.000       2144.000
       2250.000       2383.000       2425.000       2322.000       2308.000
       2318.000       2284.000       2350.000       2452.000       2345.000
       2183.000       2245.000       2267.000       2274.000       2388.000
       2424.000       2432.000       2536.000       2629.000       2746.000
       2876.000       2883.000       2971.000       3028.000       2999.000
       3077.000       3153.000       3203.000       3226.000       3249.000
       3243.000       3231.000       3228.000       3290.000       3482.000
       3538.000       3561.000       3672.000       3729.000       3806.000
       3916.000       4092.000       4200.000       4284.000       4549.000
       4616.000       4712.000       4997.000       5019.000       5137.000
       5381.000       5447.000       5625.000       5897.000       5998.000
       6159.000       6391.000       6457.000       6580.000       6724.000
       6788.000       6892.000       7002.000       7067.000       7002.000
       6938.000       7013.000       6957.000       6826.000       6815.000
       6650.000       6525.000       6461.000       6288.000       6254.000
       6175.000       5982.000       5819.000       5765.000       5729.000
       5597.000       5525.000       5439.000       5304.000       5271.000
       5198.000       5002.000       4894.000       4776.000       4617.000
       4567.000       4340.000       4052.000       3960.000       3819.000
       3630.000       3502.000       3400.000       3159.000       2927.000
       2929.000       2782.000       2578.000       2477.000       2171.000
       1958.000       1862.000       1691.000       1643.000       1528.000
       1379.000       1314.000       1206.000       1147.000       1056.000
       919.0000       810.0000       763.0000       762.0000       678.0000
       695.0000       702.0000       659.0000       723.0000       793.0000
       933.0000       1013.000       1075.000       1137.000       1177.000
       1295.000       1277.000       1293.000       1448.000       1568.000
       1719.000       1812.000       1864.000       1959.000       1957.000
       1956.000       1941.000       1865.000       1866.000       1842.000
       1863.000       1891.000       1756.000       1656.000       1615.000
       1545.000       1483.000       1416.000       1322.000       1277.000
       1333.000       1329.000       1287.000       1242.000       1073.000
       958.0000       927.0000       944.0000       838.0000       638.0000
       683.0000       664.0000       617.0000       583.0000       416.0000
       388.0000       292.0000       136.0000       113.0000       30.00000
      -107.0000      -215.0000      -312.0000      -422.0000      -610.0000
      -725.0000      -719.0000      -866.0000      -952.0000      -950.0000
      -1032.000      -1093.000      -1159.000      -1176.000      -1215.000
      -1271.000      -1327.000      -1424.000      -1505.000      -1497.000
      -1431.000      -1498.000      -1502.000      -1466.000      -1536.000
      -1502.000      -1518.000      -1483.000      -1357.000      -1356.000
      -1222.000      -1120.000      -1121.000      -989.0000      -963.0000
      -904.0000      -729.0000      -685.0000      -608.0000      -458.0000
      -360.0000      -268.0000      -68.00000       70.00000       144.0000
       360.0000       425.0000       455.0000       581.0000       576.0000
       699.0000       923.0000       997.0000       1087.000       1279.000
       1389.000       1490.000       1677.000       1813.000       1896.000
       1991.000       2170.000       2285.000       2361.000       2477.000
       2507.000       2641.000       2726.000       2711.000       2924.000
       3108.000       3115.000       3243.000       3366.000       3466.000
       3587.000       3528.000       3553.000       3664.000       3730.000
       3774.000       3693.000       3752.000       3866.000       3827.000
       3953.000       4075.000       3966.000       4008.000       4112.000
       4092.000       4140.000       4177.000       4156.000       4183.000
       4170.000       4138.000       4217.000       4151.000       4040.000
       4132.000       4105.000       4006.000       3985.000       3852.000
       3693.000       3657.000       3560.000       3401.000       3323.000
       3243.000       3071.000       2898.000       2848.000       2770.000
       2689.000       2564.000       2391.000       2426.000       2380.000
       2136.000       2036.000       2077.000       2057.000       2028.000
       2030.000       1995.000       2000.000       2080.000       2132.000
       2157.000       2191.000       2088.000       2058.000       2148.000
       2009.000       1956.000       1991.000       1785.000       1677.000
       1689.000       1702.000       1695.000       1555.000       1457.000
       1407.000       1333.000       1162.000       1096.000       1195.000
       1040.000       940.0000       1045.000       1016.000       1002.000
       1035.000       998.0000       954.0000       1025.000       1047.000
       967.0000       1030.000       1057.000       1115.000       1195.000
       1119.000       1169.000       1201.000       1133.000       1104.000
       1160.000       1200.000       1090.000       1166.000       1190.000
       973.0000       901.0000       849.0000       789.0000       766.0000
       614.0000       438.0000       336.0000       230.0000       53.00000
      -44.00000      -105.0000      -257.0000      -245.0000      -237.0000
      -367.0000      -411.0000      -520.0000      -620.0000      -629.0000
      -689.0000      -728.0000      -783.0000      -829.0000      -855.0000
      -830.0000      -767.0000      -866.0000      -938.0000      -873.0000
      -822.0000      -680.0000      -498.0000      -456.0000      -398.0000
      -281.0000      -203.0000      -37.00000       194.0000       307.0000
       379.0000       558.0000       672.0000       688.0000       860.0000
       1038.000       1149.000       1316.000       1353.000       1384.000
       1590.000       1657.000       1602.000       1765.000       1849.000
       1761.000       1879.000       1921.000       1878.000       1971.000
       1896.000       1841.000       1951.000       1934.000       1846.000
       1776.000       1690.000       1639.000       1648.000       1663.000
       1654.000       1665.000       1758.000       1809.000       1794.000
       1912.000       2057.000       2174.000       2246.000       2306.000
       2495.000       2659.000       2747.000       2835.000       3034.000
       3197.000       3312.000       3528.000       3639.000       3790.000
       3970.000       4109.000       4282.000       4327.000       4459.000
       4614.000       4662.000       4792.000       4910.000       4997.000
       5138.000       5288.000       5354.000       5336.000       5358.000
       5472.000       5573.000       5581.000       5524.000       5501.000
       5563.000       5516.000       5444.000       5496.000       5430.000
       5289.000       5138.000       4952.000       4888.000       4842.000
       4746.000       4686.000       4624.000       4543.000       4373.000
       4169.000       4011.000       3794.000       3650.000       3571.000
       3429.000       3356.000       3249.000       3038.000       2905.000
       2793.000       2654.000       2611.000       2511.000       2400.000
       2381.000       2218.000       2084.000       2020.000       1896.000
       1880.000       1830.000       1781.000       1797.000       1724.000
       1662.000       1564.000       1481.000       1452.000       1395.000
       1422.000       1425.000       1442.000       1490.000       1414.000
       1462.000       1567.000       1598.000       1670.000       1604.000
       1693.000       1884.000       1789.000       1929.000       2123.000
       2055.000       2170.000       2307.000       2254.000       2321.000
       2438.000       2421.000       2559.000       2602.000       2552.000
       2723.000       2791.000       2865.000       2936.000       2926.000
       3045.000       3120.000       3124.000       3127.000       3063.000
       3075.000       3159.000       3098.000       3037.000       3021.000
       2916.000       2812.000       2718.000       2613.000       2488.000
       2399.000       2290.000       2056.000       1902.000       1848.000
       1727.000       1600.000       1453.000       1348.000       1289.000
       1107.000       1083.000       1143.000       1035.000       1044.000
       1152.000       1119.000       1027.000       1060.000       1087.000
       1070.000       1155.000       1161.000       1101.000       1176.000
       1123.000       1032.000       1085.000       938.0000       922.0000
       1033.000       787.0000       688.0000       686.0000       572.0000
       598.0000       393.0000       228.0000       202.0000      -100.0000
      -267.0000      -380.0000      -613.0000      -748.0000      -865.0000
      -915.0000      -996.0000      -1211.000      -1289.000      -1437.000
      -1678.000      -1654.000      -1802.000      -1967.000      -1874.000
      -1954.000      -1990.000      -1977.000      -2071.000      -2045.000
      -2035.000      -2022.000      -1928.000      -1935.000      -1940.000
      -1949.000      -1933.000      -1810.000      -1800.000      -1798.000
      -1762.000      -1838.000      -1890.000      -1805.000      -1693.000
      -1757.000      -1856.000      -1801.000      -1812.000      -1866.000
      -1759.000      -1676.000      -1691.000      -1629.000      -1528.000
      -1432.000      -1281.000      -1274.000      -1267.000      -1019.000
      -919.0000      -852.0000      -672.0000      -567.0000      -414.0000
      -201.0000       61.00000       284.0000       480.0000       663.0000
       775.0000       937.0000       1078.000       1183.000       1335.000
       1412.000       1484.000       1638.000       1743.000       1894.000
       2057.000       2070.000       2021.000       2026.000       2154.000
       2218.000       2234.000       2347.000       2377.000       2367.000
       2368.000       2396.000       2423.000       2312.000       2243.000
       2184.000       2122.000       2189.000       2148.000       2024.000
       1986.000       1918.000       1826.000       1914.000       1947.000
       1743.000       1721.000       1838.000       1882.000       1907.000
       1871.000       1783.000       1739.000       1784.000       1820.000
       1876.000       1987.000       2047.000       2080.000       2201.000
       2234.000       2160.000       2312.000       2500.000       2551.000
       2733.000       2861.000       2897.000       3094.000       3233.000
       3285.000       3442.000       3614.000       3723.000       3919.000
       4087.000       4142.000       4380.000       4608.000       4708.000
       4938.000       5202.000       5386.000       5562.000       5700.000
       5840.000       6064.000       6184.000       6376.000       6726.000
       6894.000       7065.000       7322.000       7487.000       7685.000
       7887.000       8068.000       8312.000       8462.000       8661.000
       8931.000       9106.000       9314.000       9446.000       9633.000
       9825.000       9835.000       9999.000       10168.00       10202.00
       10279.00       10288.00       10262.00       10339.00       10411.00
       10376.00       10339.00       10342.00       10317.00       10201.00
       10068.00       9948.000       9756.000       9692.000       9619.000
       9462.000       9382.000       9177.000       8942.000       8715.000
       8516.000       8287.000       7944.000       7704.000       7419.000
       7103.000       6752.000       6330.000       5985.000       5598.000
       5225.000       4837.000       4400.000       4020.000       3599.000
       3171.000       2801.000       2349.000       1935.000       1637.000
       1161.000       695.0000       389.0000      -64.00000      -479.0000
      -743.0000      -1160.000      -1576.000      -1865.000      -2289.000
      -2638.000      -2912.000      -3385.000      -3769.000      -4061.000
      -4414.000      -4787.000      -5088.000      -5348.000      -5748.000
      -6053.000      -6291.000      -6652.000      -6936.000      -7151.000
      -7393.000      -7527.000      -7664.000      -7820.000      -7888.000
      -8009.000      -8096.000      -8210.000      -8268.000      -8278.000
      -8381.000      -8380.000      -8465.000      -8558.000      -8574.000
      -8591.000      -8541.000      -8579.000      -8556.000      -8439.000
      -8356.000      -8236.000      -8106.000      -7980.000      -7878.000
      -7815.000      -7754.000      -7612.000      -7446.000      -7252.000
      -7011.000      -6937.000      -6785.000      -6475.000      -6292.000
      -6078.000      -5864.000      -5692.000      -5388.000      -5061.000
      -4819.000      -4551.000      -4240.000      -3947.000      -3582.000
      -3150.000      -2791.000      -2470.000      -2082.000      -1720.000
      -1382.000      -1005.000      -658.0000      -291.0000       71.00000
       339.0000       662.0000       1071.000       1348.000       1595.000
       1891.000       2090.000       2415.000       2786.000       2997.000
       3278.000       3605.000       3855.000       4086.000       4323.000
       4530.000       4774.000       5055.000       5325.000       5564.000
       5762.000       6054.000       6318.000       6533.000       6806.000
       7049.000       7258.000       7447.000       7686.000       7985.000
       8217.000       8256.000       8316.000       8551.000       8775.000
       8921.000       9017.000       9091.000       9153.000       9249.000
       9348.000       9447.000       9521.000       9514.000       9580.000
       9640.000       9641.000       9710.000       9803.000       9860.000
       9838.000       9809.000       9790.000       9746.000       9771.000
       9787.000       9731.000       9769.000       9804.000       9721.000
       9713.000       9632.000       9414.000       9361.000       9317.000
       9120.000       9029.000       8932.000       8711.000       8673.000
       8574.000       8335.000       8235.000       8064.000       7802.000
       7590.000       7426.000       7210.000       6973.000       6832.000
       6585.000       6267.000       5977.000       5688.000       5431.000
       5099.000       4775.000       4438.000       4011.000       3631.000
       3218.000       2809.000       2450.000       1959.000       1439.000
       1025.000       621.0000       146.0000      -353.0000      -862.0000
      -1387.000      -1822.000      -2260.000      -2743.000      -3104.000
      -3434.000      -3828.000      -4143.000      -4440.000      -4783.000
      -5051.000      -5360.000      -5678.000      -5853.000      -6013.000
      -6197.000      -6380.000      -6512.000      -6648.000      -6786.000
      -6899.000      -7137.000      -7164.000      -7103.000      -7300.000
      -7250.000      -7142.000      -7294.000      -7251.000      -7083.000
      -7121.000      -7021.000      -6760.000      -6688.000      -6437.000
      -6137.000      -6062.000      -5740.000      -5354.000      -5200.000
      -5001.000      -4683.000      -4441.000      -4258.000      -3987.000
      -3821.000      -3637.000      -3248.000      -3059.000      -2913.000
      -2570.000      -2373.000      -2300.000      -2009.000      -1731.000
      -1592.000      -1207.000      -925.0000      -790.0000      -470.0000
      -184.0000       141.0000       566.0000       912.0000       1121.000
       1385.000       1687.000       1912.000       2209.000       2477.000
       2737.000       3106.000       3378.000       3538.000       3877.000
       4222.000       4325.000       4586.000       4880.000       5021.000
       5339.000       5585.000       5690.000       5852.000       6072.000
       6304.000       6487.000       6663.000       6686.000       6780.000
       6991.000       7085.000       7218.000       7318.000       7432.000
       7598.000       7682.000       7815.000       7934.000       7986.000
       8106.000       8174.000       8287.000       8417.000       8449.000
       8613.000       8701.000       8609.000       8637.000       8790.000
       8856.000       8863.000       8970.000       9043.000       9058.000
       9166.000       9116.000       8929.000       8980.000       8983.000
       8911.000       8970.000       8778.000       8519.000       8450.000
       8193.000       7959.000       7942.000       7716.000       7435.000
       7302.000       7042.000       6773.000       6553.000       6198.000
       5899.000       5696.000       5361.000       5092.000       4934.000
       4668.000       4426.000       4194.000       4002.000       3844.000
       3560.000       3296.000       3033.000       2801.000       2662.000
       2450.000       2262.000       2080.000       1749.000       1408.000
       1180.000       861.0000       504.0000       321.0000       52.00000
      -200.0000      -296.0000      -579.0000      -847.0000      -1013.000
      -1278.000      -1440.000      -1536.000      -1748.000      -1926.000
      -1933.000      -2102.000      -2359.000      -2395.000      -2482.000
      -2516.000      -2494.000      -2565.000      -2558.000      -2583.000
      -2681.000      -2708.000      -2682.000      -2767.000      -2807.000
      -2768.000      -2783.000      -2716.000      -2725.000      -2715.000
      -2628.000      -2638.000      -2642.000      -2677.000      -2698.000
      -2769.000      -2911.000      -2920.000      -2947.000      -2996.000
      -2985.000      -3026.000      -2984.000      -2906.000      -2993.000
      -3085.000      -2996.000      -2881.000      -2847.000      -2784.000
      -2701.000      -2634.000      -2572.000      -2459.000      -2339.000
      -2255.000      -2110.000      -1948.000      -1807.000      -1684.000
