     0.05000000      -12345.00      -12345.00   3.800000e+09      -12345.00
   0.0005380000       659.9506      -909.0195      -12345.00      -12345.00
      -12345.00      -12345.00      -12345.00      -12345.00      -12345.00
      -12345.00      -12345.00      -12345.00      -12345.00      -12345.00
      -12345.00      -12345.00      -12345.00      -12345.00      -12345.00
      -12345.00      -12345.00      -12345.00      -12345.00      -12345.00
      -12345.00      -15.95940      -5.745500       537.0000       60.00000
       9.831100       126.5297      -12345.00       24.71000      -12345.00
      -12345.00      -12345.00      -12345.00      -12345.00      -12345.00
      -12345.00      -12345.00      -12345.00      -12345.00      -12345.00
       14806.30       257.3673       91.41192       133.1622      -12345.00
      -12345.00      -12345.00       0.000000       0.000000      -12345.00
      -12345.00      -12345.00      -12345.00      -12345.00      -12345.00
      -12345.00      -12345.00      -12345.00      -12345.00      -12345.00
      2019        39        12        10        17
        19         6    -12345    -12345     13200
    -12345    -12345    -12345    -12345    -12345
         1    -12345    -12345    -12345    -12345
    -12345    -12345    -12345    -12345    -12345
    -12345    -12345    -12345    -12345    -12345
    -12345    -12345    -12345    -12345    -12345
         1    -12345    -12345    -12345    -12345
SHEL    Mindanao, Philip
00      -12345  -12345  
-12345  -12345  -12345  
-12345  -12345  -12345  
-12345  -12345  -12345  
-12345  -12345  -12345  
-12345  -12345  BHZ     
II      -12345  Geotech 
[...]
      -201565.0      -201492.0      -201507.0      -201469.0      -201434.0
      -201493.0      -201650.0      -201841.0      -201897.0      -201875.0
      -201890.0      -201782.0      -201506.0      -201174.0      -200834.0
      -200469.0      -200217.0      -200059.0      -199808.0      -199558.0
      -199296.0      -198923.0      -198608.0      -198586.0      -198575.0
      -198417.0      -198461.0      -198544.0      -198530.0      -198670.0
      -198965.0      -199291.0      -199641.0      -200082.0      -200479.0
      -200759.0      -201063.0      -201310.0      -201325.0      -201233.0
      -201172.0      -201211.0      -201170.0      -200800.0      -200498.0
      -200128.0      -199569.0      -199296.0      -199205.0      -199201.0
      -199280.0      -199622.0      -200341.0      -201092.0      -201850.0
      -202823.0      -203889.0      -204880.0      -205892.0      -207030.0
      -208090.0      -208810.0      -209385.0      -209838.0      -210079.0
      -210122.0      -209755.0      -209249.0      -208786.0      -208429.0
      -208331.0      -208261.0      -208153.0      -208157.0      -208539.0
      -208954.0      -209073.0      -209233.0      -209280.0      -208846.0
      -208183.0      -207677.0      -207120.0      -206314.0      -205311.0
      -204312.0      -203387.0      -202410.0      -201488.0      -200873.0
      -200261.0      -199464.0      -198827.0      -198092.0      -197389.0
      -196817.0      -196369.0      -196259.0      -196133.0      -195777.0
      -195492.0      -195467.0      -195213.0      -195023.0      -195269.0
      -195453.0      -195504.0      -195535.0      -196004.0      -196765.0
      -197095.0      -197742.0      -199129.0      -200603.0      -201594.0
      -202331.0      -203196.0      -203521.0      -203692.0      -203557.0
      -202673.0      -201687.0      -200507.0      -199459.0      -198554.0
      -197680.0      -196729.0      -195773.0      -195435.0      -195374.0
      -195461.0      -195767.0      -196582.0      -197745.0      -198391.0
      -198773.0      -199027.0      -198836.0      -198393.0      -198222.0
      -198453.0      -198736.0      -199184.0      -199876.0      -200825.0
      -202064.0      -203166.0      -203968.0      -204557.0      -204624.0
      -204322.0      -204305.0      -204473.0      -204619.0      -204692.0
      -204721.0      -204840.0      -204882.0      -204930.0      -204887.0
      -204695.0      -204423.0      -204124.0      -204011.0      -203757.0
      -203300.0      -202711.0      -202078.0      -201809.0      -201637.0
      -201255.0      -200727.0      -200229.0      -199931.0      -199825.0
      -200042.0      -200465.0      -200880.0      -201414.0      -201956.0
      -202558.0      -203322.0      -203779.0      -204043.0      -204410.0
      -204624.0      -204778.0      -205026.0      -205092.0      -204812.0
      -204471.0      -204383.0      -204375.0      -204321.0      -204279.0
      -204248.0      -204670.0      -205247.0      -205637.0      -206357.0
      -207136.0      -207493.0      -207485.0      -207493.0      -207596.0
      -207584.0      -207373.0      -206818.0      -206143.0      -205570.0
      -205006.0      -204414.0      -203707.0      -202892.0      -202069.0
      -201428.0      -200951.0      -200463.0      -200445.0      -200811.0
      -200938.0      -200847.0      -200774.0      -200962.0      -201208.0
      -201215.0      -201037.0      -200663.0      -200554.0      -200741.0
      -200515.0      -200155.0      -200037.0      -200032.0      -199980.0
      -200011.0      -200449.0      -200718.0      -200639.0      -200623.0
      -200527.0      -200468.0      -200599.0      -200724.0      -200730.0
      -200547.0      -200343.0      -200109.0      -199600.0      -198964.0
      -198287.0      -197769.0      -197277.0      -196761.0      -196395.0
      -195905.0      -195723.0      -195567.0      -194984.0      -194259.0
      -193625.0      -193433.0      -193106.0      -192754.0      -192754.0
      -192812.0      -193065.0      -192923.0      -192383.0      -192280.0
      -192490.0      -192726.0      -192997.0      -193445.0      -194218.0
      -194968.0      -195758.0      -196758.0      -197561.0      -198480.0
      -199387.0      -199915.0      -200585.0      -201170.0      -201406.0
      -201497.0      -201298.0      -200938.0      -200564.0      -200173.0
      -199837.0      -199461.0      -199135.0      -198974.0      -198724.0
      -198487.0      -198383.0      -198081.0      -197819.0      -197564.0
      -197228.0      -197136.0      -196975.0      -196828.0      -196662.0
      -196481.0      -196735.0      -196985.0      -197249.0      -197530.0
      -197555.0      -197676.0      -197789.0      -197943.0      -197775.0
      -197496.0      -197683.0      -197624.0      -197669.0      -197878.0
      -197988.0      -198358.0      -198737.0      -199221.0      -199704.0
      -199917.0      -200416.0      -200970.0      -201332.0      -201760.0
      -202023.0      -202649.0      -203058.0      -203288.0      -203819.0
      -203902.0      -204302.0      -204941.0      -205423.0      -205725.0
      -205913.0      -205996.0      -205698.0      -205479.0      -205216.0
      -205122.0      -205003.0      -204678.0      -204312.0      -204264.0
      -204497.0      -204504.0      -204679.0      -204685.0      -204554.0
      -204341.0      -204468.0      -204554.0      -204336.0      -204586.0
      -204675.0      -205176.0      -205648.0      -205501.0      -205238.0
      -205098.0      -205123.0      -204566.0      -204080.0      -203697.0
      -203125.0      -202918.0      -202838.0      -202505.0      -202357.0
      -202796.0      -203030.0      -203044.0      -203501.0      -204190.0
      -204562.0      -204940.0      -205256.0      -205327.0      -205696.0
      -205917.0      -205971.0      -206194.0      -206776.0      -207133.0
      -207044.0      -207496.0      -207668.0      -207374.0      -207239.0
      -206782.0      -206049.0      -205169.0      -204127.0      -203025.0
      -201859.0      -200993.0      -200249.0      -199610.0      -199604.0
      -199422.0      -199402.0      -199813.0      -199534.0      -199602.0
      -200287.0      -200337.0      -200123.0      -200349.0      -200551.0
      -200301.0      -200243.0      -200251.0      -199914.0      -199846.0
      -199940.0      -199809.0      -199799.0      -199970.0      -199684.0
      -199022.0      -198784.0      -198793.0      -198272.0      -197847.0
      -197993.0      -197865.0      -198054.0      -198598.0      -198874.0
      -199338.0      -199834.0      -200327.0      -200450.0      -200459.0
      -200820.0      -200918.0      -201155.0      -201472.0      -201598.0
      -201934.0      -202085.0      -202116.0      -202072.0      -201750.0
      -201559.0      -201343.0      -201346.0      -201564.0      -201629.0
      -201963.0      -202154.0      -202208.0      -202499.0      -202662.0
      -202597.0      -202607.0      -202908.0      -202775.0      -202313.0
      -202259.0      -202076.0      -201800.0      -201797.0      -201544.0
      -201192.0      -201089.0      -201085.0      -201066.0      -200859.0
      -200688.0      -200268.0      -199774.0      -199438.0      -198763.0
      -198114.0      -197568.0      -197215.0      -197066.0      -196979.0
      -197101.0      -197411.0      -197851.0      -198288.0      -198746.0
      -199258.0      -200044.0      -200747.0      -200913.0      -201085.0
      -201528.0      -202117.0      -202561.0      -202829.0      -203014.0
      -203011.0      -203104.0      -203275.0      -203435.0      -203753.0
      -204208.0      -204448.0      -204434.0      -204490.0      -204576.0
      -204570.0      -204632.0      -204496.0      -203957.0      -203810.0
      -203833.0      -203679.0      -203685.0      -203833.0      -203991.0
      -203955.0      -203935.0      -203830.0      -203630.0      -203505.0
      -203409.0      -203330.0      -203174.0      -203189.0      -203247.0
      -203245.0      -203309.0      -202948.0      -202262.0      -201612.0
      -200826.0      -200132.0      -199581.0      -199055.0      -198516.0
      -198077.0      -197879.0      -197672.0      -197354.0      -197072.0
      -197077.0      -197229.0      -197455.0      -197844.0      -198047.0
      -197915.0      -197971.0      -198109.0      -198193.0      -198360.0
      -198266.0      -198397.0      -198554.0      -198644.0      -199136.0
      -199539.0      -199823.0      -199888.0      -200277.0      -200882.0
      -200962.0      -201370.0      -201729.0      -201818.0      -202004.0
      -202199.0      -202489.0      -202350.0      -202277.0      -202561.0
      -202648.0      -202748.0      -203014.0      -203222.0      -203306.0
      -203286.0      -203078.0      -202949.0      -202921.0      -202579.0
      -201993.0      -201593.0      -201307.0      -200755.0      -200316.0
      -200093.0      -199881.0      -199832.0      -199748.0      -199661.0
      -199669.0      -199851.0      -200173.0      -200469.0      -201049.0
      -201935.0      -202661.0      -203160.0      -203559.0      -203769.0
      -203887.0      -203763.0      -203528.0      -203345.0      -203025.0
      -202744.0      -202255.0      -201934.0      -201927.0      -201447.0
      -200902.0      -200339.0      -199631.0      -199162.0      -198682.0
      -198329.0      -198165.0      -198125.0      -198110.0      -197947.0
      -198092.0      -198186.0      -198000.0      -197761.0      -197205.0
      -196975.0      -196820.0      -196470.0      -196286.0      -195834.0
      -195748.0      -195812.0      -195690.0      -195858.0      -196074.0
      -196513.0      -196958.0      -197697.0      -198588.0      -199145.0
      -199840.0      -200108.0      -200507.0      -201042.0      -201184.0
      -201495.0      -201565.0      -201606.0      -201691.0      -201993.0
      -202112.0      -201853.0      -201747.0      -201409.0      -201258.0
      -200909.0      -200443.0      -200186.0      -200175.0      -200565.0
      -201001.0      -201658.0      -202261.0      -203040.0      -203633.0
      -204375.0      -205442.0      -205953.0      -206568.0      -207050.0
      -207543.0      -207925.0      -207969.0      -208471.0      -208697.0
      -209184.0      -210121.0      -210525.0      -211103.0      -211426.0
      -211411.0      -211368.0      -210816.0      -210340.0      -209778.0
      -209143.0      -208483.0      -207554.0      -206891.0      -206122.0
      -205241.0      -204413.0      -203628.0      -203099.0      -202374.0
      -201862.0      -201444.0      -200852.0      -200483.0      -200097.0
      -199715.0      -199099.0      -198433.0      -197853.0      -197044.0
      -196578.0      -196312.0      -196019.0      -195905.0      -195536.0
      -195361.0      -195384.0      -195222.0      -195262.0      -195262.0
      -195606.0      -196392.0      -196852.0      -197355.0      -198048.0
      -198472.0      -198792.0      -199018.0      -199079.0      -199001.0
      -199000.0      -199045.0      -198900.0      -199167.0      -199458.0
      -199562.0      -199749.0      -199804.0      -199903.0      -199770.0
      -199549.0      -199357.0      -199223.0      -199105.0      -198897.0
      -198868.0      -198979.0      -199100.0      -199261.0      -199500.0
      -199841.0      -200506.0      -201296.0      -201908.0      -202618.0
      -203385.0      -203981.0      -204623.0      -204943.0      -205274.0
      -205846.0      -206181.0      -206466.0      -206605.0      -206603.0
      -206282.0      -205880.0      -205599.0      -205196.0      -204888.0
      -204565.0      -204206.0      -203861.0      -203530.0      -203308.0
      -203053.0      -202902.0      -202778.0      -202400.0      -202161.0
      -201756.0      -201144.0      -200878.0      -200510.0      -200096.0
      -199738.0      -199379.0      -199088.0      -198652.0      -198335.0
      -198224.0      -198046.0      -197810.0      -197782.0      -197787.0
      -197832.0      -197830.0      -197606.0      -197526.0      -197266.0
      -196970.0      -196807.0      -196427.0      -196193.0      -195958.0
      -195486.0      -195030.0      -194866.0      -195053.0      -195130.0
      -195296.0      -195792.0      -196344.0      -197122.0      -197994.0
      -198463.0      -198786.0      -199254.0      -199478.0      -199549.0
      -199525.0      -199480.0      -199501.0      -199322.0      -199347.0
      -199604.0      -199887.0      -200263.0      -200831.0      -201562.0
      -202372.0      -203396.0      -204271.0      -205108.0      -206017.0
      -206949.0      -207943.0      -208614.0      -209218.0      -210002.0
      -210753.0      -211360.0      -211899.0      -212270.0      -212291.0
      -212081.0      -211822.0      -211577.0      -211208.0      -210716.0
      -210308.0      -209846.0      -209231.0      -208707.0      -208144.0
      -207398.0      -206556.0      -205566.0      -204525.0      -203369.0
      -202007.0      -200669.0      -199072.0      -197410.0      -196174.0
      -195141.0      -194212.0      -193264.0      -192351.0      -191597.0
      -191036.0      -190719.0      -190667.0      -190752.0      -190865.0
      -191091.0      -191426.0      -191950.0      -192617.0      -193330.0
      -194055.0      -194929.0      -195828.0      -196655.0      -197355.0
      -197846.0      -198228.0      -198464.0      -198749.0      -198919.0
      -198915.0      -199020.0      -199163.0      -199407.0      -199830.0
      -200230.0      -200781.0      -201445.0      -201926.0      -202385.0
      -202632.0      -202761.0      -202962.0      -203185.0      -203469.0
      -203546.0      -203545.0      -203730.0      -203922.0      -204073.0
      -204285.0      -204382.0      -204680.0      -205173.0      -205381.0
      -205630.0      -205808.0      -206016.0      -206408.0      -206471.0
      -206251.0      -205959.0      -205657.0      -205381.0      -205084.0
      -204640.0      -204313.0      -203836.0      -203209.0      -202812.0
      -202213.0      -201742.0      -201283.0      -200686.0      -200359.0
      -200023.0      -199660.0      -199292.0      -198883.0      -198432.0
      -197916.0      -197696.0      -197766.0      -197764.0      -197806.0
      -197905.0      -198162.0      -198564.0      -198903.0      -199419.0
      -199997.0      -200564.0      -201019.0      -201416.0      -201952.0
      -202322.0      -202659.0      -202940.0      -202996.0      -203068.0
      -202998.0      -202729.0      -202491.0      -202280.0      -202127.0
      -202147.0      -202230.0      -202235.0      -202206.0      -202123.0
      -202069.0      -202031.0      -201940.0      -201813.0      -201829.0
      -201959.0      -201950.0      -201947.0      -201933.0      -201950.0
      -202067.0      -202187.0      -202165.0      -202035.0      -201910.0
      -201617.0      -201230.0      -201018.0      -201042.0      -201016.0
      -200884.0      -200791.0      -200735.0      -200704.0      -200652.0
      -200624.0      -200757.0      -200992.0      -201460.0      -202076.0
      -202522.0      -203078.0      -203523.0      -203593.0      -203394.0
      -203091.0      -202777.0      -202542.0      -202283.0      -201955.0
      -201690.0      -201234.0      -201068.0      -200986.0      -200748.0
      -200524.0      -200171.0      -199850.0      -199367.0      -198856.0
      -198504.0      -198231.0      -197979.0      -197860.0      -197855.0
      -197898.0      -198107.0      -198606.0      -199248.0      -199754.0
      -200174.0      -200695.0      -201361.0      -201897.0      -202225.0
      -202527.0      -202927.0      -203198.0      -203397.0      -203648.0
      -203786.0      -203945.0      -204094.0      -204281.0      -204545.0
      -204663.0      -204621.0      -204541.0      -204329.0      -203864.0
      -203446.0      -203256.0      -203120.0      -202930.0      -202676.0
      -202372.0      -202110.0      -201786.0      -201411.0      -201065.0
      -200502.0      -199881.0      -199258.0      -198764.0      -198625.0
      -198599.0      -198794.0      -199259.0      -199787.0      -200325.0
      -200926.0      -201448.0      -201819.0      -202005.0      -201943.0
      -201873.0      -201750.0      -201535.0      -201181.0      -200763.0
      -200340.0      -199821.0      -199560.0      -199407.0      -199089.0
      -198766.0      -198542.0      -198381.0      -198358.0      -198475.0
      -198503.0      -198549.0      -198674.0      -199010.0      -199364.0
      -199768.0      -200337.0      -200577.0      -200802.0      -201005.0
      -201049.0      -201041.0      -201017.0      -201104.0      -200991.0
      -200804.0      -200672.0      -200461.0      -200223.0      -200108.0
      -200146.0      -200280.0      -200397.0      -200259.0      -200066.0
      -199978.0      -199883.0      -199729.0      -199507.0      -199166.0
      -198892.0      -198824.0      -198819.0      -199064.0      -199249.0
      -199349.0      -199626.0      -200005.0      -200482.0      -200614.0
      -200472.0      -200342.0      -200163.0      -199999.0      -199887.0
      -199672.0      -199388.0      -199285.0      -199312.0      -199650.0
      -200222.0      -200865.0      -201650.0      -202370.0      -203131.0
      -203821.0      -204372.0      -204894.0      -205474.0      -206145.0
      -206660.0      -207097.0      -207412.0      -207672.0      -207829.0
      -207731.0      -207465.0      -207061.0      -206645.0      -206177.0
      -205765.0      -205489.0      -205345.0      -205275.0      -205176.0
      -205085.0      -205009.0      -205027.0      -205161.0      -205280.0
      -205398.0      -205523.0      -205576.0      -205536.0      -205278.0
      -204829.0      -204281.0      -203848.0      -203485.0      -203088.0
      -202665.0      -202054.0      -201458.0      -200787.0      -200237.0
      -199775.0      -199171.0      -198811.0      -198308.0      -197627.0
      -197154.0      -196696.0      -196224.0      -195729.0      -195255.0
      -194903.0      -194771.0      -195071.0      -195459.0      -195703.0
      -195992.0      -196160.0      -196081.0      -195804.0      -195452.0
