     0.05000000      -12345.00      -12345.00   5.663980e+09      -12345.00
   0.0005360000       659.9506      -230.0195      -12345.00      -12345.00
      -12345.00      -12345.00      -12345.00      -12345.00      -12345.00
      -12345.00      -12345.00      -12345.00      -12345.00      -12345.00
      -12345.00      -12345.00      -12345.00      -12345.00      -12345.00
      -12345.00      -12345.00      -12345.00      -12345.00      -12345.00
      -12345.00       31.09480       121.1908       40.00000       0.000000
       9.831100       126.5297      -12345.00       24.71000      -12345.00
      -12345.00      -12345.00      -12345.00      -12345.00      -12345.00
      -12345.00      -12345.00      -12345.00      -12345.00      -12345.00
       2416.499       347.5515       165.6619       21.73306      -12345.00
      -12345.00      -12345.00       0.000000       0.000000      -12345.00
      -12345.00      -12345.00      -12345.00      -12345.00      -12345.00
      -12345.00      -12345.00      -12345.00      -12345.00      -12345.00
      2019        39        11        58        58
        19         6    -12345    -12345     13200
    -12345    -12345    -12345    -12345    -12345
         1    -12345    -12345    -12345    -12345
    -12345    -12345    -12345    -12345    -12345
    -12345    -12345    -12345    -12345    -12345
    -12345    -12345    -12345    -12345    -12345
         1    -12345    -12345    -12345    -12345
SSE     Mindanao, Philip
00      -12345  -12345  
-12345  -12345  -12345  
-12345  -12345  -12345  
-12345  -12345  -12345  
-12345  -12345  -12345  
-12345  -12345  BHZ     
IC      -12345  Streckei
[...]
       3126.000       3109.000       3068.000       2914.000       2879.000
       2682.000       2805.000       2698.000       2543.000       2455.000
       2237.000       2037.000       1781.000       1604.000       1364.000
       1058.000       924.0000       662.0000       359.0000       221.0000
      -77.00000      -219.0000      -560.0000      -775.0000      -752.0000
      -993.0000      -1180.000      -1309.000      -1187.000      -1314.000
      -1413.000      -1392.000      -1532.000      -1364.000      -1301.000
      -1209.000      -1104.000      -953.0000      -664.0000      -662.0000
      -473.0000      -217.0000       61.00000       248.0000       297.0000
       582.0000       666.0000       729.0000       1057.000       1272.000
       1436.000       1713.000       1813.000       1999.000       2247.000
       2432.000       2670.000       2766.000       2762.000       2703.000
       2786.000       2833.000       2736.000       2752.000       2736.000
       2616.000       2586.000       2687.000       2579.000       2430.000
       2408.000       2204.000       2019.000       1822.000       1828.000
       1865.000       1715.000       1831.000       1674.000       1656.000
       1808.000       1695.000       1843.000       1958.000       1960.000
       2103.000       2254.000       2247.000       2237.000       2254.000
       2278.000       2242.000       2148.000       2127.000       2001.000
       1878.000       1991.000       2021.000       2029.000       2150.000
       2162.000       2287.000       2223.000       2181.000       2284.000
       2213.000       2340.000       2454.000       2592.000       2772.000
       2809.000       2807.000       2666.000       2580.000       2567.000
       2423.000       2154.000       1891.000       1705.000       1773.000
       1740.000       1572.000       1614.000       1464.000       1552.000
       1541.000       1267.000       1226.000       1161.000       1187.000
       1086.000       998.0000       965.0000       715.0000       514.0000
       309.0000       134.0000       84.00000      -197.0000      -444.0000
      -647.0000      -921.0000      -1269.000      -1597.000      -1868.000
      -2103.000      -2186.000      -2419.000      -2479.000      -2616.000
      -2689.000      -2696.000      -2677.000      -2381.000      -2255.000
      -2050.000      -1899.000      -1712.000      -1586.000      -1534.000
      -1211.000      -793.0000      -356.0000      -81.00000       237.0000
       393.0000       428.0000       675.0000       877.0000       1369.000
       1800.000       2065.000       2357.000       2487.000       2753.000
       2982.000       3203.000       3334.000       3561.000       3851.000
       3869.000       4122.000       4327.000       4286.000       4545.000
       4874.000       4940.000       4993.000       5010.000       5038.000
       5049.000       4949.000       4874.000       4645.000       4353.000
       4147.000       3916.000       3702.000       3519.000       3257.000
       3094.000       2786.000       2402.000       2196.000       1940.000
       1773.000       1413.000       1225.000       1189.000       930.0000
       739.0000       435.0000       328.0000       248.0000       66.00000
       25.00000      -103.0000      -176.0000      -192.0000      -375.0000
      -659.0000      -684.0000      -613.0000      -615.0000      -456.0000
      -398.0000      -523.0000      -628.0000      -572.0000      -345.0000
       7.000000       246.0000       290.0000       327.0000       311.0000
       317.0000       243.0000       310.0000       475.0000       524.0000
       638.0000       608.0000       520.0000       375.0000       137.0000
      -12.00000       16.00000       84.00000       108.0000       149.0000
       19.00000      -75.00000      -53.00000       57.00000       229.0000
       361.0000       469.0000       342.0000       237.0000       420.0000
       636.0000       840.0000       1127.000       1264.000       1313.000
       1541.000       1630.000       1650.000       1789.000       1854.000
       1958.000       2049.000       2169.000       2334.000       2435.000
       2688.000       2856.000       3015.000       3271.000       3394.000
       3657.000       3747.000       3754.000       3819.000       3750.000
       4038.000       4229.000       4217.000       4269.000       4218.000
       4390.000       4458.000       4431.000       4440.000       4523.000
       4617.000       4336.000       4326.000       4263.000       3974.000
       3908.000       3854.000       3717.000       3351.000       3096.000
       2786.000       2394.000       2130.000       1798.000       1494.000
       1091.000       809.0000       542.0000       208.0000       64.00000
      -288.0000      -495.0000      -722.0000      -1111.000      -1213.000
      -1324.000      -1436.000      -1802.000      -2138.000      -2137.000
      -2212.000      -2241.000      -2108.000      -2124.000      -1964.000
      -1846.000      -1791.000      -1487.000      -1397.000      -1106.000
      -889.0000      -763.0000      -637.0000      -486.0000      -254.0000
      -218.0000      -66.00000      -57.00000       128.0000       420.0000
       519.0000       705.0000       889.0000       1122.000       1223.000
       1335.000       1644.000       1899.000       2237.000       2323.000
       2401.000       2740.000       2655.000       2731.000       2859.000
       2926.000       3168.000       3151.000       3140.000       3052.000
       3036.000       3079.000       3109.000       3225.000       3272.000
       3228.000       2887.000       2608.000       2615.000       2468.000
       2338.000       2396.000       2246.000       2225.000       2244.000
       2041.000       1899.000       1722.000       1670.000       1584.000
       1432.000       1387.000       1345.000       1193.000       975.0000
       1036.000       974.0000       752.0000       765.0000       752.0000
       806.0000       794.0000       834.0000       854.0000       894.0000
       1227.000       1245.000       1300.000       1220.000       1319.000
       1500.000       1504.000       1884.000       1721.000       1984.000
       2072.000       1653.000       1939.000       1995.000       1952.000
       1713.000       1609.000       1585.000       1341.000       1275.000
       1003.000       927.0000       871.0000       756.0000       668.0000
       558.0000       443.0000       101.0000       72.00000       197.0000
       469.0000       662.0000       546.0000       661.0000       804.0000
       935.0000       1155.000       1437.000       1537.000       1575.000
       1694.000       1681.000       1812.000       1937.000       2079.000
       2109.000       1963.000       2117.000       2028.000       1749.000
       1598.000       1587.000       1622.000       1378.000       1316.000
       1357.000       1201.000       1068.000       1106.000       1085.000
       994.0000       888.0000       923.0000       1234.000       1289.000
       1441.000       1417.000       1382.000       1607.000       1558.000
       1752.000       1667.000       1687.000       1825.000       1703.000
       1981.000       1982.000       2040.000       2004.000       1614.000
       1617.000       1383.000       1427.000       1441.000       981.0000
       1006.000       601.0000       450.0000       430.0000      -13.00000
      -17.00000      -503.0000      -772.0000      -770.0000      -981.0000
      -881.0000      -841.0000      -737.0000      -576.0000      -413.0000
      -107.0000       49.00000       165.0000       622.0000       1082.000
       1354.000       1532.000       1703.000       1996.000       2223.000
       2471.000       2758.000       2848.000       3002.000       3012.000
       3023.000       3114.000       2957.000       2949.000       2999.000
       3023.000       3112.000       2938.000       2660.000       2462.000
       1926.000       1854.000       1779.000       1471.000       1598.000
       1178.000       936.0000       786.0000       519.0000       499.0000
       372.0000       537.0000       406.0000       30.00000      -111.0000
      -359.0000      -334.0000      -103.0000       4.000000       32.00000
      -165.0000      -274.0000      -267.0000      -255.0000      -35.00000
       276.0000       543.0000       655.0000       719.0000       760.0000
       673.0000       940.0000       1086.000       1114.000       1283.000
       1151.000       1305.000       1197.000       1294.000       1485.000
       1756.000       2277.000       2070.000       2512.000       2097.000
       1989.000       2415.000       2099.000       2725.000       2322.000
       2640.000       2688.000       2491.000       3095.000       2598.000
       3064.000       3007.000       3213.000       3606.000       3116.000
       3543.000       3512.000       3363.000       3514.000       3379.000
       3683.000       3529.000       3472.000       3466.000       3257.000
       3441.000       3033.000       3011.000       2881.000       2692.000
       2369.000       2049.000       2220.000       1854.000       1947.000
       1730.000       1365.000       1265.000       737.0000       539.0000
       260.0000       60.00000      -165.0000      -490.0000      -592.0000
      -1041.000      -1285.000      -1297.000      -1248.000      -1147.000
      -1250.000      -1172.000      -1103.000      -902.0000      -571.0000
      -412.0000       34.00000       211.0000       341.0000       682.0000
       632.0000       835.0000       1131.000       1297.000       1551.000
       1566.000       1671.000       1623.000       1409.000       1486.000
       1296.000       1349.000       1437.000       1131.000       1040.000
       849.0000       671.0000       673.0000       634.0000       807.0000
       942.0000       681.0000       526.0000       563.0000       634.0000
       891.0000       1348.000       1510.000       1424.000       1456.000
       1441.000       1589.000       1641.000       1734.000       1982.000
       2006.000       2119.000       2130.000       2160.000       2334.000
       2337.000       2494.000       2686.000       2534.000       2593.000
       2706.000       2499.000       2425.000       2498.000       2639.000
       2489.000       2117.000       1894.000       1457.000       1191.000
       1510.000       1267.000       1297.000       1586.000       1244.000
       1376.000       1276.000       1332.000       1540.000       1662.000
       1882.000       1943.000       2060.000       1975.000       2097.000
       2155.000       2132.000       2093.000       2040.000       1892.000
       1985.000       2199.000       2109.000       2408.000       2550.000
       2526.000       2504.000       2124.000       2184.000       2425.000
       2151.000       2186.000       2253.000       1991.000       2023.000
       1987.000       1911.000       1890.000       1750.000       1739.000
       1635.000       1473.000       1290.000       1205.000       1115.000
       848.0000       829.0000       555.0000       86.00000      -235.0000
      -507.0000      -531.0000      -616.0000      -754.0000      -892.0000
      -1230.000      -1460.000      -1590.000      -1605.000      -1548.000
      -1724.000      -1825.000      -1827.000      -1983.000      -2097.000
      -2097.000      -2167.000      -2245.000      -2071.000      -1963.000
      -2060.000      -1870.000      -1672.000      -1488.000      -915.0000
      -521.0000      -253.0000       367.0000       639.0000       942.0000
       1435.000       1826.000       2410.000       2860.000       3630.000
       4326.000       5020.000       6082.000       7254.000       8961.000
       10894.00       12883.00       14879.00       17002.00       18962.00
       20323.00       21343.00       22052.00       22377.00       22191.00
       21781.00       21310.00       20844.00       20461.00       19734.00
       18815.00       17113.00       14420.00       11074.00       6372.000
       744.0000      -5466.000      -12015.00      -18505.00      -24322.00
      -29011.00      -32642.00      -34767.00      -35546.00      -34925.00
      -33158.00      -30372.00      -26767.00      -23101.00      -19422.00
      -15917.00      -12327.00      -8681.000      -4822.000      -117.0000
       5291.000       11431.00       18319.00       25859.00       33404.00
       40016.00       45694.00       49538.00       51274.00       51343.00
       49424.00       45838.00       40098.00       32497.00       23077.00
       11534.00      -1723.000      -16475.00      -32065.00      -48051.00
      -63767.00      -78718.00      -92263.00      -103638.0      -112158.0
      -117052.0      -117937.0      -114766.0      -107465.0      -96324.00
      -81504.00      -63791.00      -44388.00      -23641.00      -2796.000
       17219.00       36023.00       53075.00       67752.00       79497.00
       88353.00       94271.00       97306.00       97756.00       95862.00
       92277.00       87457.00       81123.00       73799.00       65744.00
       56890.00       47779.00       39143.00       31751.00       26267.00
       23330.00       22440.00       22856.00       23036.00       21620.00
       17664.00       10645.00       1610.000      -9211.000      -20805.00
      -31320.00      -39303.00      -44008.00      -45162.00      -43284.00
      -38889.00      -32265.00      -24705.00      -16749.00      -9714.000
      -4680.000      -1332.000       879.0000       3075.000       6561.000
       11726.00       18067.00       25655.00       33804.00       41141.00
       46258.00       47694.00       45237.00       39416.00       31248.00
       21370.00       10665.00       224.0000      -8967.000      -15278.00
      -18476.00      -18483.00      -15576.00      -10680.00      -4440.000
       1658.000       6856.000       10545.00       12361.00       12680.00
       11346.00       8719.000       5313.000       1577.000      -1997.000
      -5250.000      -7595.000      -8637.000      -8898.000      -8658.000
      -7986.000      -6953.000      -5356.000      -3355.000      -975.0000
       1309.000       3379.000       6121.000       9580.000       13643.00
       18147.00       22045.00       24502.00       25265.00       24148.00
       21256.00       16437.00       9720.000       1666.000      -7492.000
      -17072.00      -26792.00      -36214.00      -43994.00      -50001.00
      -54153.00      -56246.00      -56557.00      -55062.00      -51952.00
      -47536.00      -42253.00      -36636.00      -30958.00      -25761.00
      -21550.00      -18668.00      -17200.00      -16749.00      -17071.00
      -17635.00      -18038.00      -17927.00      -17356.00      -16394.00
      -14423.00      -11349.00      -7258.000      -2483.000       3049.000
       9241.000       15264.00       20971.00       26034.00       30410.00
       34359.00       37367.00       39026.00       39603.00       39994.00
       40591.00       41762.00       43538.00       45106.00       46091.00
       46242.00       45718.00       44452.00       42251.00       38797.00
       33536.00       27222.00       20593.00       14306.00       9188.000
       5466.000       3144.000       1610.000       456.0000      -881.0000
      -2524.000      -3655.000      -3962.000      -3595.000      -2988.000
      -2389.000      -2286.000      -2994.000      -4195.000      -5108.000
      -4933.000      -3280.000      -144.0000       3506.000       6848.000
       9573.000       10941.00       10588.00       8707.000       5872.000
       2960.000       646.0000      -682.0000      -930.0000      -55.00000
       1831.000       4519.000       7975.000       12230.00       16476.00
       19998.00       22313.00       23087.00       23044.00       22698.00
       22266.00       21502.00       20062.00       18438.00       17417.00
       17623.00       19275.00       21364.00       22738.00       22677.00
       20423.00       16118.00       10068.00       2609.000      -5725.000
      -14572.00      -22705.00      -29000.00      -32482.00      -32231.00
      -28669.00      -22538.00      -15349.00      -8904.000      -4650.000
      -2979.000      -3155.000      -4497.000      -6143.000      -8177.000
      -10475.00      -12574.00      -14465.00      -15789.00      -16989.00
      -18925.00      -22268.00      -27565.00      -34269.00      -41281.00
      -47863.00      -53424.00      -57679.00      -59936.00      -59330.00
      -55910.00      -50317.00      -43899.00      -37768.00      -32547.00
      -28649.00      -26281.00      -25797.00      -26863.00      -29043.00
      -31460.00      -33070.00      -33556.00      -32912.00      -31420.00
      -29609.00      -28148.00      -26836.00      -25666.00      -24519.00
      -23117.00      -21394.00      -18864.00      -15741.00      -11738.00
      -6869.000      -1317.000       4870.000       10906.00       16632.00
       21819.00       26139.00       29094.00       30068.00       28699.00
       25303.00       20467.00       14553.00       8190.000       1871.000
      -3637.000      -8061.000      -11184.00      -12787.00      -13469.00
      -13706.00      -13705.00      -13154.00      -12121.00      -10790.00
      -8835.000      -6597.000      -4215.000      -1955.000      -396.0000
       361.0000       140.0000      -990.0000      -2667.000      -4447.000
      -6075.000      -7407.000      -8164.000      -8637.000      -9371.000
      -10093.00      -10137.00      -8694.000      -5515.000      -709.0000
       5427.000       11996.00       18625.00       24962.00       30532.00
       34692.00       37007.00       37406.00       36601.00       35316.00
       33075.00       30028.00       26491.00       22787.00       19437.00
       16337.00       13497.00       10905.00       8334.000       5736.000
       3028.000       635.0000      -1337.000      -2870.000      -3917.000
      -5018.000      -5284.000      -4217.000      -1928.000       1989.000
       6959.000       12691.00       18461.00       23495.00       27978.00
       31602.00       34477.00       36840.00       38345.00       39005.00
       38723.00       37131.00       35038.00       33214.00       31582.00
