     0.05000000      -12345.00      -12345.00   5.713060e+09      -12345.00
   0.0005380000       659.9506      -790.0195      -12345.00      -12345.00
      -12345.00      -12345.00      -12345.00      -12345.00      -12345.00
      -12345.00      -12345.00      -12345.00      -12345.00      -12345.00
      -12345.00      -12345.00      -12345.00      -12345.00      -12345.00
      -12345.00      -12345.00      -12345.00      -12345.00      -12345.00
      -12345.00       33.61070      -116.4555       1280.000       5.300000
       9.831100       126.5297      -12345.00       24.71000      -12345.00
      -12345.00      -12345.00      -12345.00      -12345.00      -12345.00
      -12345.00      -12345.00      -12345.00      -12345.00      -12345.00
       11815.75       50.75718       293.8527       106.2663      -12345.00
      -12345.00      -12345.00       0.000000       0.000000      -12345.00
      -12345.00      -12345.00      -12345.00      -12345.00      -12345.00
      -12345.00      -12345.00      -12345.00      -12345.00      -12345.00
      2019        39        12         8        18
        19         6    -12345    -12345     13200
    -12345    -12345    -12345    -12345    -12345
         1    -12345    -12345    -12345    -12345
    -12345    -12345    -12345    -12345    -12345
    -12345    -12345    -12345    -12345    -12345
    -12345    -12345    -12345    -12345    -12345
         1    -12345    -12345    -12345    -12345
PFO     Mindanao, Philip
00      -12345  -12345  
-12345  -12345  -12345  
-12345  -12345  -12345  
-12345  -12345  -12345  
-12345  -12345  -12345  
-12345  -12345  BHZ     
II      -12345  Streckei
[...]
       4381.000       4296.000       4239.000       4156.000       4096.000
       4064.000       4031.000       3968.000       3927.000       3918.000
       3873.000       3781.000       3719.000       3698.000       3654.000
       3565.000       3472.000       3407.000       3336.000       3282.000
       3237.000       3171.000       3093.000       3051.000       3036.000
       2994.000       2972.000       2968.000       2988.000       3009.000
       3019.000       3086.000       3161.000       3230.000       3324.000
       3436.000       3558.000       3689.000       3850.000       4014.000
       4179.000       4364.000       4542.000       4694.000       4872.000
       5029.000       5168.000       5341.000       5442.000       5530.000
       5640.000       5729.000       5816.000       5877.000       5902.000
       5906.000       5925.000       5909.000       5898.000       5931.000
       5935.000       5958.000       5982.000       5972.000       5999.000
       6038.000       6084.000       6130.000       6149.000       6215.000
       6283.000       6323.000       6401.000       6485.000       6572.000
       6648.000       6688.000       6722.000       6772.000       6790.000
       6748.000       6715.000       6695.000       6677.000       6644.000
       6585.000       6513.000       6474.000       6482.000       6442.000
       6420.000       6399.000       6355.000       6378.000       6382.000
       6378.000       6402.000       6379.000       6385.000       6389.000
       6355.000       6363.000       6359.000       6351.000       6329.000
       6308.000       6320.000       6311.000       6308.000       6299.000
       6281.000       6324.000       6368.000       6398.000       6482.000
       6552.000       6632.000       6709.000       6764.000       6857.000
       6892.000       6915.000       6973.000       6990.000       6995.000
       6982.000       6956.000       6966.000       6962.000       6951.000
       6942.000       6906.000       6896.000       6877.000       6847.000
       6817.000       6800.000       6775.000       6733.000       6714.000
       6684.000       6659.000       6619.000       6548.000       6451.000
       6407.000       6348.000       6230.000       6148.000       6065.000
       6008.000       5922.000       5862.000       5803.000       5721.000
       5668.000       5575.000       5523.000       5442.000       5382.000
       5355.000       5295.000       5259.000       5186.000       5113.000
       5014.000       4970.000       4927.000       4819.000       4774.000
       4708.000       4656.000       4617.000       4587.000       4578.000
       4556.000       4567.000       4557.000       4565.000       4601.000
       4653.000       4708.000       4762.000       4846.000       4911.000
       4971.000       5062.000       5157.000       5230.000       5296.000
       5381.000       5457.000       5494.000       5561.000       5619.000
       5639.000       5681.000       5693.000       5708.000       5711.000
       5714.000       5713.000       5671.000       5599.000       5541.000
       5525.000       5478.000       5434.000       5396.000       5369.000
       5363.000       5351.000       5360.000       5378.000       5359.000
       5370.000       5396.000       5419.000       5487.000       5542.000
       5631.000       5667.000       5710.000       5833.000       5906.000
       5966.000       6038.000       6134.000       6249.000       6296.000
       6335.000       6423.000       6465.000       6516.000       6592.000
       6660.000       6722.000       6768.000       6842.000       6937.000
       7010.000       7090.000       7198.000       7279.000       7353.000
       7449.000       7544.000       7603.000       7682.000       7765.000
       7806.000       7856.000       7897.000       7931.000       7956.000
       7979.000       7994.000       7983.000       7958.000       7920.000
       7887.000       7852.000       7816.000       7763.000       7738.000
       7735.000       7729.000       7738.000       7703.000       7718.000
       7738.000       7689.000       7666.000       7628.000       7584.000
       7526.000       7453.000       7403.000       7316.000       7228.000
       7180.000       7115.000       7044.000       6994.000       6919.000
       6829.000       6734.000       6644.000       6575.000       6482.000
       6401.000       6325.000       6232.000       6153.000       6071.000
       5961.000       5839.000       5758.000       5648.000       5492.000
       5403.000       5312.000       5165.000       5054.000       4925.000
       4816.000       4735.000       4606.000       4500.000       4393.000
       4274.000       4166.000       4069.000       3968.000       3851.000
       3766.000       3668.000       3546.000       3452.000       3345.000
       3222.000       3121.000       3026.000       2925.000       2848.000
       2786.000       2720.000       2659.000       2629.000       2609.000
       2591.000       2582.000       2587.000       2625.000       2660.000
       2688.000       2713.000       2759.000       2817.000       2848.000
       2896.000       2965.000       2998.000       3048.000       3125.000
       3203.000       3306.000       3397.000       3481.000       3582.000
       3679.000       3791.000       3899.000       3988.000       4110.000
       4226.000       4364.000       4492.000       4625.000       4810.000
       4967.000       5130.000       5321.000       5547.000       5729.000
       5900.000       6100.000       6295.000       6482.000       6640.000
       6803.000       6917.000       7050.000       7198.000       7322.000
       7412.000       7481.000       7612.000       7692.000       7753.000
       7841.000       7908.000       7964.000       8013.000       8091.000
       8186.000       8274.000       8316.000       8381.000       8466.000
       8549.000       8633.000       8680.000       8732.000       8787.000
       8827.000       8858.000       8887.000       8838.000       8834.000
       8860.000       8784.000       8719.000       8610.000       8498.000
       8369.000       8234.000       8088.000       7881.000       7702.000
       7529.000       7355.000       7139.000       6963.000       6823.000
       6647.000       6515.000       6412.000       6308.000       6221.000
       6148.000       6083.000       6029.000       5979.000       5953.000
       5915.000       5901.000       5889.000       5852.000       5838.000
       5794.000       5750.000       5687.000       5634.000       5622.000
       5577.000       5561.000       5500.000       5415.000       5360.000
       5283.000       5214.000       5123.000       5070.000       5002.000
       4948.000       4900.000       4829.000       4827.000       4747.000
       4671.000       4646.000       4616.000       4592.000       4517.000
       4481.000       4446.000       4373.000       4347.000       4314.000
       4270.000       4231.000       4193.000       4189.000       4149.000
       4131.000       4121.000       4098.000       4122.000       4140.000
       4171.000       4178.000       4204.000       4248.000       4269.000
       4319.000       4329.000       4346.000       4387.000       4419.000
       4456.000       4466.000       4485.000       4521.000       4553.000
       4599.000       4630.000       4665.000       4742.000       4767.000
       4796.000       4880.000       4942.000       4992.000       5042.000
       5111.000       5147.000       5204.000       5293.000       5315.000
       5350.000       5381.000       5438.000       5528.000       5566.000
       5619.000       5678.000       5729.000       5807.000       5871.000
       5946.000       6034.000       6103.000       6182.000       6257.000
       6329.000       6391.000       6429.000       6489.000       6559.000
       6612.000       6671.000       6736.000       6789.000       6836.000
       6906.000       6971.000       6984.000       7018.000       7046.000
       7047.000       7057.000       7050.000       7052.000       7034.000
       7010.000       6985.000       6951.000       6925.000       6919.000
       6883.000       6850.000       6835.000       6769.000       6758.000
       6736.000       6685.000       6672.000       6661.000       6642.000
       6626.000       6645.000       6635.000       6614.000       6609.000
       6559.000       6527.000       6539.000       6545.000       6550.000
       6545.000       6545.000       6557.000       6572.000       6550.000
       6557.000       6594.000       6576.000       6603.000       6632.000
       6650.000       6660.000       6711.000       6777.000       6784.000
       6868.000       6914.000       6957.000       7029.000       7054.000
       7135.000       7192.000       7225.000       7261.000       7281.000
       7350.000       7372.000       7354.000       7358.000       7354.000
       7363.000       7316.000       7237.000       7208.000       7166.000
       7088.000       7024.000       6996.000       6969.000       6898.000
       6838.000       6790.000       6721.000       6664.000       6585.000
       6518.000       6438.000       6308.000       6232.000       6109.000
       5943.000       5819.000       5677.000       5496.000       5334.000
       5206.000       5019.000       4889.000       4787.000       4671.000
       4568.000       4421.000       4345.000       4288.000       4218.000
       4152.000       4084.000       3984.000       3872.000       3790.000
       3707.000       3632.000       3520.000       3438.000       3341.000
       3259.000       3198.000       3099.000       2998.000       2882.000
       2835.000       2752.000       2682.000       2638.000       2581.000
       2568.000       2523.000       2541.000       2547.000       2542.000
       2614.000       2669.000       2742.000       2829.000       2901.000
       2982.000       3079.000       3181.000       3275.000       3390.000
       3534.000       3662.000       3760.000       3890.000       4048.000
       4170.000       4307.000       4441.000       4547.000       4708.000
       4884.000       5055.000       5236.000       5398.000       5584.000
       5754.000       5939.000       6103.000       6244.000       6432.000
       6583.000       6757.000       6942.000       7107.000       7295.000
       7490.000       7677.000       7848.000       8038.000       8227.000
       8376.000       8528.000       8693.000       8851.000       9015.000
       9120.000       9241.000       9356.000       9448.000       9589.000
       9640.000       9682.000       9722.000       9746.000       9787.000
       9808.000       9837.000       9848.000       9866.000       9855.000
       9874.000       9933.000       9918.000       9943.000       9983.000
       9954.000       9936.000       9901.000       9865.000       9821.000
       9722.000       9628.000       9538.000       9426.000       9281.000
       9126.000       8949.000       8785.000       8608.000       8409.000
       8231.000       8027.000       7873.000       7713.000       7535.000
       7418.000       7279.000       7121.000       6987.000       6839.000
       6697.000       6566.000       6399.000       6241.000       6092.000
       5927.000       5756.000       5589.000       5382.000       5176.000
       4975.000       4728.000       4495.000       4229.000       3955.000
       3690.000       3436.000       3189.000       2910.000       2660.000
       2377.000       2141.000       1940.000       1694.000       1513.000
       1302.000       1104.000       951.0000       797.0000       660.0000
       549.0000       492.0000       382.0000       347.0000       344.0000
       299.0000       289.0000       252.0000       267.0000       301.0000
       329.0000       384.0000       454.0000       467.0000       545.0000
       671.0000       729.0000       856.0000       938.0000       1049.000
       1176.000       1287.000       1442.000       1559.000       1710.000
       1833.000       1988.000       2144.000       2302.000       2499.000
       2670.000       2888.000       3071.000       3291.000       3554.000
       3814.000       4075.000       4328.000       4645.000       4943.000
       5246.000       5570.000       5890.000       6209.000       6508.000
       6840.000       7162.000       7444.000       7742.000       8024.000
       8300.000       8595.000       8840.000       9110.000       9330.000
       9536.000       9799.000       9999.000       10242.00       10435.00
       10648.00       10895.00       11065.00       11262.00       11407.00
       11535.00       11598.00       11671.00       11782.00       11791.00
       11824.00       11851.00       11830.00       11798.00       11762.00
       11729.00       11656.00       11547.00       11436.00       11348.00
       11250.00       11082.00       10951.00       10811.00       10610.00
       10481.00       10328.00       10140.00       9936.000       9730.000
       9534.000       9284.000       9074.000       8826.000       8563.000
       8326.000       8042.000       7797.000       7549.000       7308.000
       7079.000       6854.000       6640.000       6426.000       6274.000
       6082.000       5879.000       5738.000       5536.000       5363.000
       5177.000       4992.000       4869.000       4670.000       4524.000
       4375.000       4206.000       4082.000       3925.000       3804.000
       3650.000       3492.000       3369.000       3208.000       3071.000
       2977.000       2858.000       2732.000       2613.000       2490.000
       2414.000       2311.000       2185.000       2095.000       2014.000
       1926.000       1851.000       1786.000       1703.000       1631.000
       1542.000       1484.000       1467.000       1410.000       1360.000
       1308.000       1262.000       1248.000       1223.000       1207.000
       1211.000       1218.000       1261.000       1327.000       1379.000
       1456.000       1555.000       1652.000       1735.000       1820.000
       1935.000       2065.000       2212.000       2336.000       2451.000
       2646.000       2856.000       3076.000       3280.000       3463.000
       3737.000       3974.000       4233.000       4522.000       4752.000
       5017.000       5280.000       5543.000       5791.000       6045.000
       6301.000       6521.000       6745.000       6961.000       7163.000
       7363.000       7562.000       7729.000       7893.000       8077.000
       8234.000       8356.000       8472.000       8598.000       8685.000
       8781.000       8887.000       8955.000       9039.000       9140.000
       9241.000       9305.000       9396.000       9486.000       9512.000
       9584.000       9659.000       9684.000       9680.000       9671.000
       9687.000       9678.000       9641.000       9593.000       9515.000
       9471.000       9395.000       9301.000       9233.000       9139.000
       9078.000       8981.000       8880.000       8798.000       8708.000
       8624.000       8514.000       8419.000       8297.000       8190.000
       8086.000       7950.000       7834.000       7693.000       7574.000
       7457.000       7311.000       7189.000       7072.000       6946.000
       6839.000       6740.000       6625.000       6533.000       6454.000
       6360.000       6272.000       6211.000       6132.000       6043.000
       5966.000       5890.000       5813.000       5717.000       5622.000
       5510.000       5402.000       5287.000       5170.000       5051.000
       4890.000       4762.000       4671.000       4540.000       4403.000
       4249.000       4107.000       4036.000       3882.000       3723.000
       3635.000       3533.000       3457.000       3377.000       3328.000
       3274.000       3199.000       3140.000       3091.000       3036.000
       3031.000       3040.000       3004.000       3014.000       2992.000
       2977.000       2984.000       2956.000       2948.000       2933.000
       2888.000       2877.000       2877.000       2835.000       2853.000
       2853.000       2845.000       2866.000       2878.000       2912.000
       2923.000       2993.000       3024.000       3080.000       3174.000
       3179.000       3244.000       3314.000       3406.000       3439.000
       3510.000       3602.000       3614.000       3713.000       3731.000
       3812.000       3925.000       4003.000       4170.000       4281.000
       4414.000       4552.000       4696.000       4885.000       5060.000
       5232.000       5380.000       5555.000       5780.000       6005.000
       6229.000       6465.000       6693.000       6924.000       7181.000
       7426.000       7660.000       7904.000       8124.000       8322.000
       8532.000       8718.000       8877.000       9044.000       9187.000
       9309.000       9415.000       9493.000       9553.000       9607.000
       9640.000       9656.000       9669.000       9678.000       9666.000
       9648.000       9652.000       9628.000       9587.000       9560.000
       9549.000       9526.000       9481.000       9435.000       9399.000
       9379.000       9308.000       9256.000       9194.000       9097.000
       9029.000       8910.000       8765.000       8629.000       8483.000
       8316.000       8192.000       8075.000       7933.000       7833.000
       7711.000       7595.000       7509.000       7423.000       7298.000
       7192.000       7137.000       7072.000       6988.000       6882.000
       6797.000       6700.000       6603.000       6481.000       6333.000
       6221.000       6101.000       5943.000       5792.000       5653.000
       5505.000       5389.000       5229.000       5091.000       4994.000
       4844.000       4750.000       4638.000       4549.000       4473.000
       4358.000       4314.000       4245.000       4144.000       4068.000
       4002.000       3896.000       3781.000       3701.000       3619.000
       3510.000       3394.000       3294.000       3168.000       3047.000
       2941.000       2847.000       2749.000       2652.000       2562.000
       2497.000       2415.000       2325.000       2293.000       2243.000
