     0.02500000      -12345.00      -12345.00   3.262830e+10      -12345.00
   0.0005380000       659.9755      -811.0195      -12345.00      -12345.00
      -12345.00      -12345.00      -12345.00      -12345.00      -12345.00
      -12345.00      -12345.00      -12345.00      -12345.00      -12345.00
      -12345.00      -12345.00      -12345.00      -12345.00      -12345.00
      -12345.00      -12345.00      -12345.00      -12345.00      -12345.00
      -12345.00      -19.20220       17.58380       1260.000       0.000000
       9.831100       126.5297      -12345.00       24.71000      -12345.00
      -12345.00      -12345.00      -12345.00      -12345.00      -12345.00
      -12345.00      -12345.00      -12345.00      -12345.00      -12345.00
       12338.53       253.1835       86.58014       110.9680      -12345.00
      -12345.00      -12345.00       0.000000       0.000000      -12345.00
      -12345.00      -12345.00      -12345.00      -12345.00      -12345.00
      -12345.00      -12345.00      -12345.00      -12345.00      -12345.00
      2019        39        12         8        39
        19         6    -12345    -12345     26400
    -12345    -12345    -12345    -12345    -12345
         1    -12345    -12345    -12345    -12345
    -12345    -12345    -12345    -12345    -12345
    -12345    -12345    -12345    -12345    -12345
    -12345    -12345    -12345    -12345    -12345
         1    -12345    -12345    -12345    -12345
TSUM    Mindanao, Philip
10      -12345  -12345  
-12345  -12345  -12345  
-12345  -12345  -12345  
-12345  -12345  -12345  
-12345  -12345  -12345  
-12345  -12345  BHZ     
IU      -12345  Streckei
[...]
      -17368.00      -17472.00      -17520.00      -17430.00      -17542.00
      -17774.00      -18013.00      -18387.00      -19008.00      -19682.00
      -20146.00      -20570.00      -21101.00      -21408.00      -21400.00
      -21530.00      -21664.00      -21562.00      -21803.00      -22235.00
      -22330.00      -22415.00      -22902.00      -23483.00      -23547.00
      -23444.00      -23581.00      -23580.00      -23253.00      -23172.00
      -23320.00      -23181.00      -23060.00      -22934.00      -22967.00
      -22897.00      -22486.00      -22566.00      -22627.00      -22285.00
      -22147.00      -22181.00      -22014.00      -21680.00      -21493.00
      -21343.00      -21116.00      -21089.00      -21153.00      -20967.00
      -21038.00      -21306.00      -21164.00      -21218.00      -21343.00
      -21150.00      -21214.00      -21321.00      -21277.00      -21271.00
      -21559.00      -22025.00      -21886.00      -22031.00      -22518.00
      -22054.00      -22031.00      -22343.00      -21524.00      -21382.00
      -21928.00      -21631.00      -21522.00      -21570.00      -21375.00
      -21325.00      -20842.00      -20455.00      -20314.00      -19601.00
      -19159.00      -19126.00      -18726.00      -18214.00      -17772.00
      -17472.00      -17320.00      -16896.00      -16442.00      -16306.00
      -16003.00      -15726.00      -15598.00      -15214.00      -14998.00
      -14857.00      -14517.00      -14376.00      -14344.00      -14015.00
      -13927.00      -14218.00      -13963.00      -13842.00      -14191.00
      -13993.00      -13927.00      -14159.00      -13819.00      -13724.00
      -14116.00      -14011.00      -13896.00      -14078.00      -13936.00
      -13948.00      -14158.00      -14018.00      -13883.00      -13870.00
      -13661.00      -13419.00      -13388.00      -13301.00      -13215.00
      -13345.00      -13404.00      -13592.00      -13779.00      -13609.00
      -13585.00      -13565.00      -13345.00      -13201.00      -13085.00
      -13105.00      -13113.00      -13174.00      -13461.00      -13607.00
      -13742.00      -13995.00      -14076.00      -13978.00      -13803.00
      -13783.00      -13858.00      -13649.00      -13557.00      -13769.00
      -13854.00      -13988.00      -14169.00      -14124.00      -14129.00
      -14045.00      -13896.00      -13963.00      -13614.00      -13125.00
      -13074.00      -12860.00      -12609.00      -12543.00      -12341.00
      -12390.00      -12464.00      -12141.00      -11999.00      -11857.00
      -11526.00      -11320.00      -10884.00      -10479.00      -10412.00
      -10355.00      -10267.00      -10045.00      -9934.000      -9947.000
      -9597.000      -9229.000      -9179.000      -8952.000      -8580.000
      -8502.000      -8371.000      -8064.000      -7970.000      -7994.000
      -7802.000      -7601.000      -7634.000      -7581.000      -7379.000
      -7370.000      -7508.000      -7510.000      -7425.000      -7321.000
      -7444.000      -7741.000      -7618.000      -7589.000      -7959.000
      -8032.000      -8062.000      -8265.000      -8513.000      -8768.000
      -8869.000      -9072.000      -9259.000      -9252.000      -9355.000
      -9626.000      -9957.000      -10124.00      -10138.00      -10446.00
      -10925.00      -11024.00      -11124.00      -11563.00      -11860.00
      -12051.00      -12217.00      -12332.00      -12702.00      -12952.00
      -13115.00      -13513.00      -13545.00      -13728.00      -14223.00
      -14239.00      -14455.00      -14819.00      -15065.00      -15436.00
      -15585.00      -15816.00      -16157.00      -16325.00      -16284.00
      -16290.00      -16561.00      -16569.00      -16471.00      -16734.00
      -16741.00      -16511.00      -16676.00      -16780.00      -16494.00
      -16307.00      -16266.00      -15977.00      -15703.00      -15628.00
      -15428.00      -15110.00      -15006.00      -14946.00      -14605.00
      -14455.00      -14318.00      -14033.00      -13910.00      -13711.00
      -13630.00      -13599.00      -13330.00      -13160.00      -13097.00
      -12895.00      -12892.00      -12907.00      -12524.00      -12459.00
      -12540.00      -12299.00      -12333.00      -12193.00      -11919.00
      -12007.00      -11856.00      -11618.00      -11412.00      -11255.00
      -11223.00      -10923.00      -10913.00      -11064.00      -10759.00
      -10651.00      -10582.00      -10328.00      -10338.00      -10178.00
      -9846.000      -9904.000      -9973.000      -9890.000      -10023.00
      -9983.000      -9989.000      -10341.00      -10312.00      -10357.00
      -10524.00      -10539.00      -11155.00      -11485.00      -11454.00
      -11894.00      -12303.00      -12686.00      -12949.00      -13103.00
      -13467.00      -13941.00      -14420.00      -14687.00      -15234.00
      -15938.00      -16124.00      -16546.00      -17167.00      -17403.00
      -17730.00      -18188.00      -18425.00      -18713.00      -19425.00
      -19981.00      -20162.00      -20815.00      -21426.00      -21486.00
      -21856.00      -22315.00      -22488.00      -22865.00      -23327.00
      -23549.00      -23679.00      -23970.00      -24228.00      -24349.00
      -24595.00      -24645.00      -24764.00      -25167.00      -25264.00
      -25493.00      -25860.00      -25957.00      -26295.00      -26498.00
      -26516.00      -26968.00      -26985.00      -26678.00      -27115.00
      -27421.00      -27240.00      -27383.00      -27655.00      -27743.00
      -27885.00      -27946.00      -27748.00      -27854.00      -27966.00
      -27552.00      -27275.00      -27470.00      -27558.00      -27206.00
      -27203.00      -27380.00      -27134.00      -27028.00      -27048.00
      -26996.00      -26783.00      -26605.00      -26832.00      -26843.00
      -26570.00      -26829.00      -27111.00      -26804.00      -26956.00
      -27344.00      -27097.00      -27299.00      -27797.00      -27672.00
      -27644.00      -27826.00      -28045.00      -28200.00      -28211.00
      -28606.00      -28680.00      -28509.00      -28950.00      -29069.00
      -29040.00      -29359.00      -29442.00      -29488.00      -29582.00
      -29615.00      -29597.00      -29643.00      -29612.00      -29513.00
      -29784.00      -29735.00      -29299.00      -29432.00      -29548.00
      -29267.00      -29375.00      -29496.00      -29053.00      -28929.00
      -29334.00      -29052.00      -28802.00      -29101.00      -28722.00
      -28507.00      -28622.00      -28233.00      -28074.00      -27842.00
      -27363.00      -27406.00      -27087.00      -26238.00      -25926.00
      -25562.00      -24907.00      -24301.00      -23393.00      -22701.00
      -22315.00      -21567.00      -20739.00      -20100.00      -19507.00
      -18967.00      -18307.00      -17655.00      -17306.00      -16956.00
      -16331.00      -15732.00      -15502.00      -15080.00      -14322.00
      -14018.00      -13871.00      -13629.00      -13408.00      -13128.00
      -13168.00      -13209.00      -12926.00      -12707.00      -12820.00
      -12998.00      -12826.00      -12698.00      -12942.00      -12928.00
      -12549.00      -12842.00      -13174.00      -12762.00      -12867.00
      -13164.00      -13078.00      -13085.00      -13120.00      -13442.00
      -13611.00      -13489.00      -13746.00      -14063.00      -14244.00
      -14575.00      -14941.00      -15160.00      -15612.00      -16105.00
      -16392.00      -16835.00      -17244.00      -17841.00      -18650.00
      -19370.00      -20219.00      -21139.00      -21944.00      -22703.00
      -23627.00      -24484.00      -25258.00      -26240.00      -27286.00
      -28128.00      -28954.00      -30111.00      -31120.00      -31927.00
      -32784.00      -33564.00      -34518.00      -35378.00      -36122.00
      -37092.00      -37845.00      -38233.00      -38659.00      -39201.00
      -39680.00      -39977.00      -40186.00      -40493.00      -40890.00
      -41243.00      -41364.00      -41575.00      -41862.00      -41718.00
      -41484.00      -41298.00      -41220.00      -41253.00      -40913.00
      -40660.00      -40654.00      -40302.00      -39846.00      -39507.00
      -39085.00      -38648.00      -38206.00      -37844.00      -37555.00
      -37065.00      -36719.00      -36478.00      -35938.00      -35478.00
      -34963.00      -34229.00      -33658.00      -32936.00      -32241.00
      -31858.00      -31184.00      -30441.00      -29887.00      -29347.00
      -28700.00      -27955.00      -27329.00      -26688.00      -26010.00
      -25286.00      -24771.00      -24225.00      -23443.00      -23018.00
      -22360.00      -21474.00      -20993.00      -20356.00      -19512.00
      -19002.00      -18615.00      -17944.00      -17352.00      -17009.00
      -16557.00      -15966.00      -15374.00      -14762.00      -14234.00
      -13925.00      -13469.00      -13036.00      -12871.00      -12423.00
      -12018.00      -11931.00      -11554.00      -10979.00      -10573.00
      -10229.00      -9816.000      -9365.000      -9016.000      -8881.000
      -8764.000      -8446.000      -8118.000      -7959.000      -7856.000
      -7624.000      -7440.000      -7332.000      -7075.000      -6957.000
      -6851.000      -6503.000      -6362.000      -6423.000      -6356.000
      -6302.000      -6284.000      -6148.000      -6123.000      -6130.000
      -5917.000      -5825.000      -5903.000      -5811.000      -5743.000
      -5851.000      -5975.000      -5953.000      -5772.000      -5935.000
      -6178.000      -6020.000      -5929.000      -5951.000      -6041.000
      -6231.000      -6288.000      -6343.000      -6536.000      -6847.000
      -7118.000      -7232.000      -7360.000      -7472.000      -7594.000
      -7955.000      -8216.000      -8254.000      -8661.000      -9139.000
      -9235.000      -9429.000      -9806.000      -10136.00      -10360.00
      -10480.00      -10734.00      -11025.00      -11179.00      -11435.00
      -11810.00      -12102.00      -12401.00      -12884.00      -13290.00
      -13479.00      -14002.00      -14758.00      -15033.00      -15487.00
      -16414.00      -16920.00      -17387.00      -18120.00      -18627.00
      -19062.00      -19636.00      -20274.00      -20916.00      -21330.00
      -21767.00      -22495.00      -22911.00      -23340.00      -23904.00
      -24331.00      -24966.00      -25342.00      -25866.00      -26557.00
      -26899.00      -27580.00      -27974.00      -28152.00      -28915.00
      -29197.00      -29293.00      -29882.00      -30165.00      -30448.00
      -30936.00      -31241.00      -31701.00      -32101.00      -32284.00
      -32629.00      -32945.00      -33240.00      -33528.00      -33643.00
      -33795.00      -33896.00      -33955.00      -34156.00      -34352.00
      -34370.00      -34352.00      -34432.00      -34357.00      -34323.00
      -34423.00      -34217.00      -34074.00      -34096.00      -33902.00
      -33879.00      -33972.00      -33671.00      -33244.00      -32991.00
      -32755.00      -32427.00      -31993.00      -31625.00      -31266.00
      -30823.00      -30500.00      -30231.00      -29998.00      -29795.00
      -29553.00      -29249.00      -28950.00      -28802.00      -28532.00
      -28159.00      -27935.00      -27620.00      -27200.00      -26931.00
      -26697.00      -26302.00      -25982.00      -25599.00      -25063.00
      -24753.00      -24379.00      -23943.00      -23523.00      -22974.00
      -22615.00      -22187.00      -21637.00      -21176.00      -20614.00
      -20026.00      -19494.00      -18944.00      -18474.00      -17977.00
      -17315.00      -16873.00      -16472.00      -15847.00      -15381.00
      -14861.00      -14330.00      -13994.00      -13351.00      -12640.00
      -12072.00      -11545.00      -11162.00      -10467.00      -9837.000
      -9503.000      -8963.000      -8462.000      -7806.000      -7092.000
      -6613.000      -5978.000      -5260.000      -4594.000      -3886.000
      -3195.000      -2702.000      -2186.000      -1572.000      -1035.000
      -487.0000      -91.00000       355.0000       840.0000       1254.000
       1815.000       2205.000       2646.000       3339.000       3935.000
       4450.000       4987.000       5533.000       5843.000       6190.000
       6621.000       6832.000       7186.000       7492.000       7784.000
       8217.000       8402.000       8612.000       8818.000       8868.000
       8957.000       9042.000       9020.000       8898.000       9003.000
       9129.000       8946.000       8813.000       8804.000       8658.000
       8417.000       8296.000       8085.000       7752.000       7477.000
       7171.000       6859.000       6337.000       5851.000       5591.000
       5020.000       4434.000       4047.000       3510.000       2903.000
       2376.000       1829.000       1234.000       675.0000       17.00000
      -609.0000      -1264.000      -2054.000      -2829.000      -3632.000
      -4320.000      -5141.000      -6004.000      -6731.000      -7563.000
      -8374.000      -9335.000      -10305.00      -11119.00      -12040.00
      -12929.00      -13738.00      -14569.00      -15388.00      -16214.00
      -17075.00      -17923.00      -18795.00      -19706.00      -20524.00
      -21365.00      -22237.00      -23038.00      -23880.00      -24673.00
      -25399.00      -26120.00      -26863.00      -27675.00      -28418.00
      -29144.00      -29923.00      -30733.00      -31519.00      -32018.00
      -32568.00      -33330.00      -33794.00      -34158.00      -34603.00
      -34981.00      -35397.00      -35752.00      -36030.00      -36387.00
      -36810.00      -37152.00      -37378.00      -37615.00      -37858.00
      -38015.00      -38055.00      -38132.00      -38317.00      -38377.00
      -38415.00      -38416.00      -38280.00      -38383.00      -38493.00
      -38398.00      -38339.00      -38232.00      -38054.00      -37834.00
      -37702.00      -37445.00      -36864.00      -36326.00      -35904.00
      -35476.00      -34834.00      -34267.00      -33674.00      -32897.00
      -32574.00      -32053.00      -31214.00      -30562.00      -29824.00
      -29168.00      -28388.00      -27517.00      -26776.00      -26069.00
      -25356.00      -24521.00      -23855.00      -23129.00      -22240.00
      -21588.00      -20887.00      -20056.00      -19255.00      -18516.00
      -17954.00      -17251.00      -16385.00      -15693.00      -14931.00
      -13919.00      -13003.00      -12176.00      -11170.00      -10356.00
      -9563.000      -8738.000      -8291.000      -7549.000      -6652.000
      -5990.000      -5262.000      -4451.000      -3543.000      -2986.000
      -2446.000      -1760.000      -1486.000      -1041.000      -593.0000
      -351.0000       7.000000       328.0000       684.0000       899.0000
       1331.000       1717.000       1783.000       2140.000       2295.000
       2427.000       2721.000       2842.000       2944.000       2929.000
       2961.000       2966.000       3005.000       3069.000       3032.000
       3118.000       3076.000       3041.000       3085.000       2944.000
       2864.000       2642.000       2336.000       2143.000       1559.000
       1335.000       1208.000       507.0000       335.0000      -239.0000
      -802.0000      -934.0000      -1746.000      -2150.000      -2820.000
      -3385.000      -3899.000      -5014.000      -5283.000      -6092.000
      -7095.000      -7698.000      -8515.000      -9128.000      -10077.00
      -10863.00      -11545.00      -12174.00      -12869.00      -13833.00
      -14498.00      -15141.00      -15898.00      -16792.00      -17561.00
      -18440.00      -19012.00      -19612.00      -20821.00      -21277.00
      -21879.00      -22660.00      -23199.00      -23985.00      -24322.00
      -24953.00      -25798.00      -26303.00      -26710.00      -27331.00
      -28136.00      -28451.00      -28836.00      -29329.00      -29861.00
      -30562.00      -30855.00      -31261.00      -31759.00      -32121.00
      -32478.00      -32588.00      -32891.00      -33220.00      -33430.00
      -33717.00      -33933.00      -34291.00      -34495.00      -34683.00
      -34953.00      -35018.00      -35187.00      -35227.00      -35247.00
      -35297.00      -35201.00      -35225.00      -35218.00      -35141.00
      -34934.00      -34673.00      -34452.00      -34119.00      -33764.00
      -33498.00      -33412.00      -33274.00      -33141.00      -33137.00
      -33020.00      -33041.00      -33017.00      -32774.00      -32640.00
      -32591.00      -32587.00      -32484.00      -32454.00      -32441.00
      -32337.00      -32416.00      -32346.00      -32185.00      -32056.00
      -31876.00      -31697.00      -31458.00      -31284.00      -31065.00
      -30916.00      -30826.00      -30727.00      -30684.00      -30473.00
      -30273.00      -30100.00      -29878.00      -29669.00      -29414.00
      -29304.00      -29257.00      -29139.00      -28903.00      -28725.00
      -28877.00      -28889.00      -28721.00      -28613.00      -28516.00
      -28470.00      -28394.00      -28379.00      -28213.00      -28006.00
      -28082.00      -28101.00      -28105.00      -28064.00      -27985.00
      -28064.00      -27906.00      -27660.00      -27506.00      -27220.00
      -26991.00      -26825.00      -26478.00      -26115.00      -25990.00
      -25683.00      -25258.00      -24969.00      -24479.00      -24087.00
      -23667.00      -23003.00      -22500.00      -22059.00      -21642.00
      -21152.00      -20666.00      -20447.00      -20078.00      -19475.00
      -18889.00      -18506.00      -18107.00      -17407.00      -16899.00
      -16434.00      -15973.00      -15645.00      -15125.00      -14772.00
      -14561.00      -14176.00      -13782.00      -13596.00      -13464.00
      -13178.00      -12808.00      -12551.00      -12429.00      -12194.00
      -11882.00      -11498.00      -11194.00      -11021.00      -10818.00
