     0.02500000      -12345.00      -12345.00   3.262830e+10      -12345.00
   0.0005380000       659.9755      -831.0195      -12345.00      -12345.00
      -12345.00      -12345.00      -12345.00      -12345.00      -12345.00
      -12345.00      -12345.00      -12345.00      -12345.00      -12345.00
      -12345.00      -12345.00      -12345.00      -12345.00      -12345.00
      -12345.00      -12345.00      -12345.00      -12345.00      -12345.00
      -12345.00       23.68580      -109.9443       825.0000       0.000000
       9.831100       126.5297      -12345.00       24.71000      -12345.00
      -12345.00      -12345.00      -12345.00      -12345.00      -12345.00
      -12345.00      -12345.00      -12345.00      -12345.00      -12345.00
       12847.55       57.89136       294.4156       115.5459      -12345.00
      -12345.00      -12345.00       0.000000       0.000000      -12345.00
      -12345.00      -12345.00      -12345.00      -12345.00      -12345.00
      -12345.00      -12345.00      -12345.00      -12345.00      -12345.00
      2019        39        12         8        59
        19         6    -12345    -12345     26400
    -12345    -12345    -12345    -12345    -12345
         1    -12345    -12345    -12345    -12345
    -12345    -12345    -12345    -12345    -12345
    -12345    -12345    -12345    -12345    -12345
    -12345    -12345    -12345    -12345    -12345
         1    -12345    -12345    -12345    -12345
SLBS    Mindanao, Philip
10      -12345  -12345  
-12345  -12345  -12345  
-12345  -12345  -12345  
-12345  -12345  -12345  
-12345  -12345  -12345  
-12345  -12345  BHZ     
IU      -12345  Streckei
[...]
       3480.000       3340.000       3200.000       2968.000       2726.000
       2554.000       2361.000       2170.000       1982.000       1724.000
       1535.000       1348.000       1184.000       1077.000       1005.000
       1015.000       1020.000       1097.000       1104.000       1104.000
       1242.000       1273.000       1350.000       1496.000       1533.000
       1528.000       1529.000       1540.000       1550.000       1592.000
       1619.000       1637.000       1657.000       1641.000       1650.000
       1687.000       1710.000       1737.000       1793.000       1831.000
       1848.000       1873.000       1931.000       1971.000       2039.000
       2211.000       2325.000       2390.000       2489.000       2593.000
       2700.000       2739.000       2842.000       2964.000       2957.000
       3127.000       3316.000       3357.000       3529.000       3657.000
       3736.000       3866.000       4010.000       4268.000       4485.000
       4763.000       5235.000       5632.000       6137.000       6806.000
       7480.000       8356.000       9277.000       10162.00       11177.00
       12189.00       13180.00       14214.00       15232.00       16314.00
       17377.00       18315.00       19326.00       20259.00       21096.00
       22052.00       22964.00       23893.00       24879.00       25796.00
       26752.00       27585.00       28408.00       29367.00       30187.00
       30989.00       31737.00       32342.00       32963.00       33612.00
       34255.00       34787.00       35302.00       35895.00       36401.00
       36755.00       37028.00       37297.00       37526.00       37644.00
       37791.00       37964.00       37940.00       37886.00       37910.00
       37860.00       37906.00       37914.00       37748.00       37644.00
       37510.00       37318.00       37085.00       36830.00       36554.00
       36289.00       36028.00       35664.00       35333.00       34981.00
       34654.00       34421.00       34264.00       34245.00       34174.00
       34057.00       34052.00       34111.00       34158.00       34297.00
       34435.00       34486.00       34679.00       34864.00       34998.00
       35247.00       35536.00       35919.00       36417.00       36862.00
       37336.00       37963.00       38467.00       38925.00       39531.00
       40156.00       40706.00       41133.00       41494.00       41865.00
       42300.00       42641.00       42870.00       43088.00       43271.00
       43412.00       43454.00       43484.00       43582.00       43632.00
       43654.00       43652.00       43533.00       43369.00       43100.00
       42786.00       42557.00       42202.00       41821.00       41399.00
       40887.00       40444.00       39885.00       39320.00       38751.00
       38115.00       37571.00       36902.00       36221.00       35549.00
       34812.00       34150.00       33317.00       32563.00       31908.00
       31195.00       30616.00       30016.00       29423.00       28911.00
       28478.00       28037.00       27653.00       27335.00       27036.00
       26702.00       26237.00       25863.00       25379.00       24835.00
       24417.00       23929.00       23496.00       22979.00       22455.00
       21979.00       21319.00       20736.00       20119.00       19464.00
       18835.00       18083.00       17393.00       16596.00       15779.00
       15041.00       14203.00       13354.00       12362.00       11294.00
       10287.00       9244.000       8188.000       7183.000       6153.000
       5151.000       4216.000       3273.000       2457.000       1628.000
       892.0000       264.0000      -374.0000      -820.0000      -1391.000
      -1947.000      -2316.000      -2692.000      -2948.000      -3175.000
      -3371.000      -3606.000      -3777.000      -3863.000      -3995.000
      -3919.000      -3826.000      -3660.000      -3450.000      -3296.000
      -2965.000      -2762.000      -2523.000      -2181.000      -1904.000
      -1550.000      -1231.000      -898.0000      -556.0000      -150.0000
       424.0000       987.0000       1590.000       2318.000       2993.000
       3640.000       4376.000       5117.000       5775.000       6427.000
       7085.000       7547.000       7908.000       8227.000       8417.000
       8583.000       8694.000       8740.000       8799.000       8771.000
       8673.000       8627.000       8532.000       8415.000       8328.000
       8198.000       8041.000       7883.000       7710.000       7483.000
       7270.000       7098.000       6865.000       6675.000       6466.000
       6183.000       6020.000       5827.000       5637.000       5488.000
       5264.000       5031.000       4767.000       4555.000       4426.000
       4265.000       4079.000       3963.000       3807.000       3675.000
       3634.000       3548.000       3474.000       3378.000       3289.000
       3184.000       3045.000       2959.000       2818.000       2733.000
       2690.000       2523.000       2397.000       2297.000       2215.000
       2186.000       2140.000       2251.000       2390.000       2513.000
       2735.000       3012.000       3441.000       3845.000       4301.000
       4817.000       5236.000       5730.000       6200.000       6687.000
       7204.000       7637.000       8137.000       8647.000       9033.000
       9406.000       9751.000       10073.00       10484.00       10776.00
       10980.00       11201.00       11292.00       11415.00       11559.00
       11637.00       11758.00       11841.00       11853.00       11884.00
       11921.00       11901.00       11981.00       12078.00       12171.00
       12422.00       12494.00       12562.00       12772.00       12886.00
       13148.00       13450.00       13664.00       13792.00       13961.00
       14226.00       14312.00       14552.00       14852.00       15104.00
       15472.00       15654.00       15908.00       16248.00       16453.00
       16811.00       17285.00       17741.00       18255.00       18746.00
       19229.00       19821.00       20460.00       21210.00       22009.00
       22714.00       23537.00       24323.00       25065.00       25983.00
       26832.00       27743.00       28774.00       29722.00       30723.00
       31750.00       32802.00       33782.00       34740.00       35849.00
       36754.00       37644.00       38481.00       39087.00       39800.00
       40369.00       40811.00       41275.00       41635.00       42034.00
       42395.00       42658.00       42979.00       43243.00       43517.00
       43907.00       44224.00       44568.00       44981.00       45390.00
       45889.00       46412.00       46906.00       47551.00       48255.00
       48869.00       49659.00       50477.00       51146.00       51870.00
       52650.00       53349.00       54071.00       54868.00       55551.00
       56408.00       57290.00       57987.00       58843.00       59704.00
       60483.00       61361.00       62207.00       62928.00       63778.00
       64464.00       64955.00       65718.00       66169.00       66401.00
       66753.00       66759.00       66725.00       66725.00       66539.00
       66266.00       65925.00       65485.00       64881.00       64222.00
       63511.00       62814.00       62178.00       61521.00       60846.00
       60143.00       59466.00       58703.00       57947.00       57260.00
       56587.00       55988.00       55226.00       54466.00       53833.00
       53066.00       52354.00       51693.00       50916.00       50234.00
       49528.00       48673.00       47770.00       46829.00       45834.00
       44785.00       43700.00       42531.00       41349.00       40042.00
       38656.00       37364.00       36058.00       34768.00       33481.00
       32134.00       30861.00       29655.00       28406.00       27209.00
       26086.00       25018.00       23951.00       22886.00       21845.00
       20851.00       19901.00       19007.00       18304.00       17468.00
       16657.00       16010.00       15168.00       14440.00       13821.00
       13151.00       12431.00       11618.00       10811.00       9936.000
       9110.000       8225.000       7286.000       6478.000       5562.000
       4661.000       3739.000       2746.000       1826.000       763.0000
      -199.0000      -1142.000      -2340.000      -3369.000      -4412.000
      -5553.000      -6561.000      -7610.000      -8656.000      -9678.000
      -10662.00      -11630.00      -12542.00      -13410.00      -14299.00
      -15063.00      -15839.00      -16563.00      -17272.00      -18023.00
      -18633.00      -19297.00      -19944.00      -20499.00      -21120.00
      -21680.00      -22129.00      -22616.00      -23113.00      -23471.00
      -23849.00      -24231.00      -24475.00      -24679.00      -24862.00
      -24985.00      -25049.00      -25168.00      -25265.00      -25323.00
      -25417.00      -25452.00      -25408.00      -25382.00      -25322.00
      -25125.00      -24928.00      -24718.00      -24414.00      -24032.00
      -23580.00      -23009.00      -22464.00      -21892.00      -21223.00
      -20651.00      -19849.00      -19039.00      -18381.00      -17590.00
      -16926.00      -16304.00      -15629.00      -14931.00      -14228.00
      -13530.00      -12793.00      -12175.00      -11599.00      -11048.00
      -10506.00      -9886.000      -9251.000      -8560.000      -7957.000
      -7376.000      -6718.000      -6128.000      -5535.000      -4810.000
      -4008.000      -3355.000      -2651.000      -1899.000      -1325.000
      -673.0000       39.00000       747.0000       1474.000       2187.000
       2873.000       3555.000       4224.000       4897.000       5718.000
       6511.000       7308.000       8237.000       9148.000       10031.00
       10985.00       12029.00       13064.00       14181.00       15346.00
       16467.00       17624.00       18677.00       19699.00       20855.00
       22014.00       23083.00       24083.00       25110.00       26110.00
       26974.00       27917.00       28959.00       29880.00       30811.00
       31770.00       32673.00       33611.00       34449.00       35246.00
       36167.00       37046.00       37892.00       38723.00       39504.00
       40311.00       41154.00       41943.00       42686.00       43540.00
       44260.00       44912.00       45744.00       46451.00       47072.00
       47756.00       48378.00       48972.00       49608.00       50155.00
       50694.00       51248.00       51712.00       52164.00       52537.00
       52977.00       53385.00       53773.00       54332.00       54732.00
       55172.00       55725.00       56125.00       56687.00       57258.00
       57674.00       58257.00       58831.00       59288.00       59818.00
       60380.00       60855.00       61381.00       61826.00       62221.00
       62769.00       63092.00       63379.00       63838.00       64237.00
       64642.00       64992.00       65242.00       65458.00       65587.00
       65743.00       65874.00       65965.00       66085.00       65918.00
       65695.00       65477.00       65076.00       64704.00       64261.00
       63764.00       63249.00       62598.00       61908.00       61146.00
       60265.00       59475.00       58688.00       57848.00       57042.00
       56175.00       55301.00       54414.00       53570.00       52770.00
       51913.00       51052.00       50236.00       49406.00       48491.00
       47674.00       46921.00       45941.00       45170.00       44412.00
       43230.00       42292.00       41339.00       40258.00       39309.00
       38374.00       37468.00       36505.00       35603.00       34614.00
       33622.00       32766.00       31920.00       30948.00       29999.00
       29187.00       28174.00       27151.00       26199.00       25228.00
       24300.00       23278.00       22288.00       21368.00       20364.00
       19443.00       18622.00       17727.00       16969.00       16194.00
       15263.00       14478.00       13533.00       12514.00       11658.00
       10609.00       9464.000       8296.000       7047.000       5715.000
       4337.000       2967.000       1549.000       46.00000      -1524.000
      -3149.000      -4853.000      -6496.000      -8235.000      -10046.00
      -11681.00      -13386.00      -15082.00      -16709.00      -18366.00
      -19843.00      -21314.00      -22807.00      -24106.00      -25370.00
      -26582.00      -27688.00      -28731.00      -29740.00      -30810.00
      -31726.00      -32594.00      -33555.00      -34313.00      -35064.00
      -35837.00      -36433.00      -37004.00      -37521.00      -37926.00
      -38243.00      -38452.00      -38536.00      -38551.00      -38516.00
      -38382.00      -38198.00      -38018.00      -37733.00      -37333.00
      -36973.00      -36511.00      -35922.00      -35370.00      -34787.00
      -34210.00      -33516.00      -32760.00      -32148.00      -31398.00
      -30718.00      -30096.00      -29340.00      -28824.00      -28161.00
      -27325.00      -26754.00      -26132.00      -25436.00      -24831.00
      -24120.00      -23370.00      -22651.00      -21907.00      -21218.00
      -20531.00      -19935.00      -19287.00      -18512.00      -17836.00
      -17027.00      -16154.00      -15395.00      -14482.00      -13528.00
      -12550.00      -11317.00      -10035.00      -8755.000      -7367.000
      -5935.000      -4458.000      -2829.000      -1216.000       330.0000
       2089.000       3903.000       5602.000       7274.000       8907.000
       10613.00       12356.00       14082.00       15831.00       17454.00
       19066.00       20738.00       22301.00       23932.00       25573.00
       27061.00       28640.00       30196.00       31662.00       33145.00
       34587.00       36055.00       37508.00       38963.00       40418.00
       41799.00       43158.00       44545.00       45881.00       47202.00
       48563.00       49787.00       50853.00       51880.00       52780.00
       53548.00       54307.00       54917.00       55465.00       55977.00
       56349.00       56783.00       57134.00       57373.00       57769.00
       58131.00       58380.00       58732.00       59106.00       59491.00
       59953.00       60460.00       60989.00       61548.00       62159.00
       62685.00       63167.00       63700.00       64158.00       64558.00
       64959.00       65323.00       65603.00       65839.00       66071.00
       66209.00       66353.00       66444.00       66352.00       66327.00
       66293.00       66196.00       66084.00       65875.00       65719.00
       65541.00       65292.00       65060.00       64764.00       64353.00
       63934.00       63503.00       63028.00       62548.00       62072.00
       61684.00       61250.00       60763.00       60281.00       59782.00
       59305.00       58818.00       58336.00       57909.00       57527.00
       57126.00       56772.00       56405.00       56026.00       55696.00
       55347.00       55061.00       54777.00       54351.00       53902.00
       53459.00       52911.00       52396.00       51846.00       51201.00
       50621.00       49948.00       49211.00       48482.00       47757.00
       47080.00       46293.00       45516.00       44726.00       43882.00
       43012.00       42032.00       41150.00       40246.00       39297.00
       38370.00       37367.00       36332.00       35300.00       34311.00
       33278.00       32327.00       31486.00       30612.00       29710.00
       28778.00       27876.00       27009.00       26193.00       25424.00
       24665.00       23858.00       22972.00       22164.00       21398.00
       20636.00       20020.00       19404.00       18741.00       18205.00
       17594.00       16998.00       16539.00       15996.00       15587.00
       15190.00       14679.00       14150.00       13538.00       12884.00
       12133.00       11423.00       10688.00       9846.000       9005.000
       8078.000       7206.000       6397.000       5562.000       4716.000
       3955.000       3342.000       2579.000       1810.000       1133.000
       354.0000      -372.0000      -1175.000      -2019.000      -2797.000
      -3654.000      -4510.000      -5300.000      -6046.000      -6828.000
      -7569.000      -8242.000      -8848.000      -9356.000      -9840.000
      -10296.00      -10739.00      -11185.00      -11535.00      -11784.00
      -12108.00      -12444.00      -12662.00      -12852.00      -13063.00
      -13188.00      -13238.00      -13262.00      -13108.00      -12934.00
      -12790.00      -12541.00      -12369.00      -12195.00      -12009.00
      -11865.00      -11593.00      -11345.00      -11197.00      -11068.00
      -10976.00      -10922.00      -10878.00      -10803.00      -10757.00
      -10752.00      -10742.00      -10787.00      -10827.00      -10826.00
      -10854.00      -10835.00      -10736.00      -10622.00      -10550.00
      -10506.00      -10393.00      -10138.00      -9810.000      -9454.000
      -9103.000      -8812.000      -8410.000      -7981.000      -7522.000
      -6937.000      -6402.000      -5792.000      -5172.000      -4549.000
      -3853.000      -3207.000      -2425.000      -1621.000      -811.0000
       65.00000       813.0000       1587.000       2370.000       3079.000
       3826.000       4625.000       5346.000       5974.000       6577.000
       7080.000       7678.000       8291.000       8805.000       9466.000
       10017.00       10575.00       11147.00       11575.00       12187.00
       12620.00       13068.00       13689.00       13990.00       14337.00
       14719.00       14900.00       15158.00       15492.00       15706.00
       15904.00       16168.00       16324.00       16529.00       16796.00
       17046.00       17399.00       17673.00       17942.00       18212.00
       18412.00       18721.00       18967.00       19191.00       19529.00
       19827.00       20079.00       20344.00       20655.00       20939.00
       21286.00       21737.00       22165.00       22686.00       23233.00
       23851.00       24517.00       25140.00       25869.00       26574.00
