     0.02500000      -12345.00      -12345.00   2.463400e+09      -12345.00
   0.0005380000       659.9755      -395.0196      -12345.00      -12345.00
      -12345.00      -12345.00      -12345.00      -12345.00      -12345.00
      -12345.00      -12345.00      -12345.00      -12345.00      -12345.00
      -12345.00      -12345.00      -12345.00      -12345.00      -12345.00
      -12345.00      -12345.00      -12345.00      -12345.00      -12345.00
      -12345.00       9.287300       167.5369       0.000000       6.000000
       9.831100       126.5297      -12345.00       24.71000      -12345.00
      -12345.00      -12345.00      -12345.00      -12345.00      -12345.00
      -12345.00      -12345.00      -12345.00      -12345.00      -12345.00
       4494.740       87.20193       274.2630       40.42395      -12345.00
      -12345.00      -12345.00       0.000000       0.000000      -12345.00
      -12345.00      -12345.00      -12345.00      -12345.00      -12345.00
      -12345.00      -12345.00      -12345.00      -12345.00      -12345.00
      2019        39        12         1        43
        19         6    -12345    -12345     26400
    -12345    -12345    -12345    -12345    -12345
         1    -12345    -12345    -12345    -12345
    -12345    -12345    -12345    -12345    -12345
    -12345    -12345    -12345    -12345    -12345
    -12345    -12345    -12345    -12345    -12345
         1    -12345    -12345    -12345    -12345
KWJN    Mindanao, Philip
00      -12345  -12345  
-12345  -12345  -12345  
-12345  -12345  -12345  
-12345  -12345  -12345  
-12345  -12345  -12345  
-12345  -12345  BHZ     
II      -12345  Streckei
[...]
      -379.0000      -4986.000      -1895.000       8477.000       3204.000
       2489.000       8030.000       431.0000      -594.0000       6543.000
       11792.00       12461.00       3267.000       4933.000       10890.00
       5246.000       5594.000       13294.00       16017.00       7797.000
       7946.000       14403.00       7399.000       8558.000       13562.00
       11464.00       5658.000      -3924.000       9132.000       21562.00
       10428.00       8379.000       9761.000       3337.000       4694.000
       9604.000       6556.000       2888.000       6954.000       16930.00
       8001.000      -5300.000       8678.000       12434.00       4050.000
       4619.000       6710.000       11623.00       6329.000      -1694.000
       1402.000       1279.000       6693.000       16133.00       6649.000
      -2176.000       8677.000       12296.00       5939.000       8748.000
       1603.000      -3643.000       5859.000       6737.000       11302.00
       5500.000      -10054.00      -1150.000       7114.000       7791.000
       4301.000       1338.000       12633.00       8525.000      -4440.000
       501.0000       11772.00       7832.000       4036.000       11702.00
       2788.000       2450.000       19715.00       11011.00      -12108.00
      -8884.000       12533.00       18238.00       12314.00       1293.000
      -3646.000       15068.00       16381.00      -714.0000       4221.000
       4245.000       4552.000       14459.00       9341.000       9859.000
       14982.00       15238.00       5048.000      -4562.000       4784.000
       5152.000       5786.000       5141.000      -5855.000       4876.000
       10180.00       1066.000       2544.000      -1388.000      -5021.000
      -8458.000      -10550.00      -3000.000      -2101.000      -3353.000
      -2057.000      -1753.000      -12924.00      -25308.00      -12682.00
      -3320.000      -13631.00      -16203.00      -13508.00      -15697.00
      -13765.00      -10565.00      -12540.00      -19797.00      -18879.00
      -10401.00      -10818.00      -12143.00      -16283.00      -19710.00
      -15718.00      -9063.000      -2653.000      -9163.000      -13908.00
      -7785.000      -3532.000      -8865.000      -15444.00       583.0000
       10840.00      -4506.000      -5354.000      -1150.000      -3840.000
       4915.000       6727.000       1823.000       743.0000       5217.000
       4227.000       349.0000       9932.000       9394.000       6972.000
       12560.00       11182.00       7999.000       5822.000       9551.000
       13411.00       6181.000       8875.000       17281.00       15301.00
       13206.00       7233.000       7520.000       16680.00       22508.00
       16998.00       11682.00       10583.00       11155.00       20522.00
       12484.00       7504.000       17051.00       11407.00       13218.00
       16897.00       5963.000       10141.00       15904.00       11534.00
       6801.000      -3679.000       5803.000       18457.00       9713.000
       4475.000       2594.000      -572.0000       9834.000       19778.00
       4573.000      -2312.000       6633.000       2897.000       6734.000
       13462.00       3255.000       997.0000       12518.00       15658.00
       9307.000       4469.000       4073.000       6231.000       14543.00
       16261.00       6498.000       8094.000       7329.000       6231.000
       16809.00       11182.00       1785.000       6923.000       16744.00
       14249.00       13.00000       5449.000       12857.00       11993.00
       10048.00       1632.000       10521.00       4264.000       95.00000
       21050.00       7353.000      -3654.000      -360.0000      -1195.000
       10985.00       7696.000      -1690.000      -2041.000      -5635.000
      -3628.000       4049.000       5002.000       3759.000       1627.000
      -5144.000      -8396.000      -2099.000       4627.000      -1263.000
      -5923.000      -1572.000      -2791.000      -7907.000       2631.000
       7029.000      -12037.00      -12898.00      -2774.000      -970.0000
      -102.0000      -2142.000      -5052.000      -6873.000       1192.000
       1296.000       1171.000       393.0000      -13150.00      -3070.000
       4733.000      -1142.000       1662.000       2562.000       3816.000
       5112.000       3528.000      -1129.000       548.0000       2196.000
       1945.000       2684.000       115.0000       8877.000       3098.000
      -10496.00       362.0000       6941.000       8461.000       4328.000
      -2375.000       9375.000       5430.000      -10850.00      -6980.000
       3626.000       8207.000       4577.000       1601.000      -2238.000
      -4036.000       3149.000       3180.000       1884.000      -518.0000
      -3713.000       1191.000       3823.000       6682.000       2218.000
      -4128.000      -2193.000       4046.000       12253.00       7972.000
       1013.000      -239.0000       5704.000       12750.00       2778.000
      -1688.000       8586.000       8330.000       2443.000      -467.0000
       1168.000       10000.00       14164.00       11781.00       157.0000
      -8314.000       4408.000       8995.000       6008.000       7972.000
       544.0000       4933.000       7888.000       1449.000       7013.000
       7854.000       4045.000      -2122.000      -2229.000       7564.000
       12104.00       6241.000      -4576.000       1001.000       8125.000
       4632.000       3378.000       3468.000       2552.000       1993.000
       8262.000       5095.000      -5180.000       2144.000       7555.000
       1976.000       2468.000       4499.000       3396.000       1480.000
       7386.000       6974.000      -2477.000       1795.000       5498.000
       11551.00       14254.00       1774.000      -3890.000       3862.000
       18402.00       15582.00      -2620.000      -5103.000       7045.000
       11863.00       9035.000       9321.000       10772.00       14676.00
       7799.000       108.0000       16263.00       25272.00       10062.00
       5873.000       19299.00       20531.00       16473.00       18294.00
       18402.00       20469.00       19650.00       18797.00       22576.00
       24586.00       22902.00       12905.00       7981.000       23626.00
       31181.00       19272.00       10015.00       5041.000       11713.00
       26256.00       20963.00       4530.000       455.0000       6571.000
       8915.000       8506.000       13347.00       7097.000      -1424.000
       3385.000       6308.000       6567.000       553.0000      -7975.000
       960.0000       2767.000      -10396.00      -1002.000       4487.000
      -2878.000      -1654.000      -5476.000      -3349.000      -2367.000
      -4525.000      -9669.000      -9112.000       6757.000      -536.0000
      -11185.00      -5193.000       1717.000      -6127.000      -15848.00
      -3764.000      -6374.000      -11250.00      -3696.000      -2850.000
      -3731.000      -9833.000      -15643.00      -11598.00      -6030.000
      -6515.000      -6251.000      -13066.00      -11173.00      -2112.000
      -14977.00      -13156.00       2647.000      -5512.000      -15910.00
      -15964.00      -5512.000       791.0000      -10968.00      -5423.000
      -6298.000      -21483.00      -5090.000       7164.000      -10430.00
      -14511.00       2019.000       283.0000      -4369.000       5035.000
      -2025.000      -14925.00      -3501.000       3701.000      -7787.000
      -1628.000       10166.00       2608.000      -13118.00      -7669.000
       7191.000      -1594.000       1201.000       10059.00      -5157.000
      -3931.000       4238.000       140.0000       6587.000       6857.000
       4303.000       6822.000      -81.00000      -6914.000       1453.000
       16596.00       15299.00       152.0000      -3086.000       12031.00
       9785.000       6223.000       12033.00       3388.000       18291.00
       18113.00      -4972.000       9742.000       23676.00       13452.00
       8672.000       10802.00       5205.000       15358.00       23786.00
       8994.000       7425.000       3258.000       10365.00       28734.00
       13516.00      -570.0000      -1311.000       9191.000       21143.00
       4689.000      -6512.000       6773.000       9232.000       1509.000
       12353.00       9546.000      -4953.000      -490.0000       2976.000
       6326.000       6186.000       3591.000      -1567.000      -9227.000
       6444.000       12375.00      -544.0000       816.0000      -2707.000
      -9408.000       4659.000       12219.00      -178.0000       1352.000
       873.0000       885.0000       6948.000       3044.000       8054.000
       600.0000      -5332.000       4660.000       9101.000       15204.00
       15525.00       11580.00       2866.000      -1721.000       11471.00
       12884.00       6174.000       15935.00       23518.00       16064.00
       9717.000       10548.00       11048.00       13781.00       16023.00
       16062.00       11756.00       13660.00       20952.00       13937.00
       13695.00       18908.00       17100.00       14798.00       17478.00
       17567.00       3907.000       6597.000       14804.00       15568.00
       20688.00       9685.000       4665.000       16671.00       13778.00
       6543.000       4436.000       7996.000       14955.00       6806.000
       5249.000       5780.000       132.0000       8667.000       6121.000
       1643.000       5527.000      -3766.000      -3174.000      -365.0000
       285.0000       8719.000      -1748.000      -1304.000       1449.000
      -12015.00      -2293.000       2755.000      -1234.000      -1745.000
      -5649.000      -245.0000      -363.0000      -4676.000      -5338.000
      -7149.000      -5561.000      -2694.000      -2785.000      -3186.000
      -7259.000      -10611.00      -285.0000       4129.000      -2951.000
      -7904.000      -13333.00      -9427.000       319.0000      -251.0000
      -4120.000       2.000000       1975.000      -11127.00      -11316.00
       530.0000      -4200.000      -278.0000       9061.000       4208.000
      -4386.000      -3918.000       7378.000       11133.00       8458.000
      -2219.000      -1552.000       14764.00       10168.00       10504.00
       12411.00       3843.000       9671.000       10926.00       13249.00
       15240.00       8594.000       11694.00       13932.00       18928.00
       17324.00       1086.000       2649.000       14871.00       17377.00
       19230.00       17663.00       7040.000       6897.000       10019.00
       12699.00       17551.00       16237.00       15356.00       3770.000
       8280.000       19281.00       13775.00       12909.00       1165.000
       1523.000       18801.00       16354.00       5407.000       8651.000
       12632.00       5748.000       4422.000       6830.000       14467.00
       16934.00       3118.000      -139.0000       6927.000       9419.000
       8603.000       3815.000      -4935.000      -3210.000       5059.000
       6307.000       6175.000      -6579.000      -11597.00       1198.000
       4444.000      -2714.000      -14861.00      -11189.00      -2720.000
      -115.0000       4756.000      -2621.000      -8093.000      -9617.000
      -7417.000      -3737.000      -11772.00      -6569.000       553.0000
      -5974.000       1890.000       7433.000      -3816.000      -12098.00
      -11246.00       3493.000       10379.00      -2656.000      -6149.000
       784.0000       11642.00       13198.00      -1487.000      -1492.000
       3389.000       10867.00       24050.00       12767.00       1958.000
       1729.000       1473.000       17298.00       23740.00       17333.00
       9663.000      -707.0000       10558.00       23952.00       17724.00
       8039.000       6052.000       12272.00       15256.00       13781.00
       17379.00       19657.00       15896.00       20979.00       14613.00
      -1365.000       7293.000       18571.00       20252.00       20071.00
       9858.000       227.0000       10570.00       16524.00       2446.000
       8822.000       19831.00       3344.000      -4465.000       8120.000
       19375.00       16377.00       3074.000      -3730.000       2455.000
       10923.00       2229.000      -10739.00      -4925.000       5871.000
       7131.000      -6341.000      -22498.00      -7895.000      -1419.000
      -19506.00      -14545.00      -14458.00      -16013.00      -17212.00
      -25707.00      -12197.00      -16380.00      -27926.00      -27983.00
      -35228.00      -20870.00      -10203.00      -28354.00      -36553.00
      -31144.00      -26832.00      -27398.00      -35864.00      -32542.00
      -19194.00      -25047.00      -39983.00      -36943.00      -31021.00
      -32959.00      -30732.00      -32714.00      -36033.00      -29880.00
      -17952.00      -18077.00      -28574.00      -24164.00      -21723.00
      -27982.00      -22763.00      -11888.00      -9218.000      -18223.00
      -17370.00      -6877.000      -11416.00      -9275.000       3019.000
       6367.000       1154.000      -10469.00      -2461.000       10119.00
       11810.00       18059.00       9636.000      -2086.000       9850.000
       24589.00       17124.00       6570.000       14460.00       27663.00
       25167.00       18125.00       14103.00       17345.00       33049.00
       19839.00       5838.000       23225.00       31943.00       28188.00
       21113.00       20876.00       20035.00       20420.00       27487.00
       21886.00       14475.00       17400.00       25021.00       17702.00
       10879.00       20308.00       16523.00       14837.00       15971.00
       2347.000       1320.000       11553.00       19815.00       19870.00
       8969.000       351.0000       23.00000       11788.00       10926.00
       1121.000       6972.000       14521.00       14677.00       7799.000
       11194.00       10328.00       1311.000       6452.000       10405.00
       12973.00       10052.00       4512.000       7017.000       10487.00
       5319.000      -2029.000       9182.000       10538.00       7160.000
       12305.00      -96.00000      -1266.000       6286.000       7023.000
       11977.00       5411.000       2709.000       11359.00       5051.000
      -2249.000       6592.000       17667.00       17256.00       12489.00
       9416.000       3812.000       16097.00       27851.00       22054.00
       24563.00       20198.00       12121.00       18924.00       20781.00
       17082.00       25828.00       28182.00       18611.00       21103.00
       22289.00       16413.00       13703.00       13971.00       23563.00
       27189.00       12928.00       5942.000       13740.00       15031.00
       12946.00       17421.00       12951.00       1574.000       3972.000
       11540.00       7925.000       2573.000       6222.000       8540.000
       386.0000      -840.0000       3721.000      -5544.000      -4902.000
       8594.000       1714.000      -9919.000      -9409.000      -6847.000
      -3036.000      -3114.000      -5847.000      -9197.000      -9003.000
      -5007.000      -5310.000      -9822.000      -15977.00      -9304.000
      -2522.000      -9513.000      -7527.000      -2011.000      -7882.000
      -10554.00      -4883.000      -3884.000      -5490.000      -45.00000
      -1675.000      -8371.000      -4726.000      -6888.000      -1061.000
       13437.00       5362.000       146.0000       3784.000       1279.000
       7430.000       13230.00       10118.00       7254.000       11042.00
       15190.00       15055.00       20745.00       16308.00       6687.000
       12891.00       22338.00       18564.00       7274.000       12021.00
       17195.00       17375.00       18095.00       9264.000       9492.000
       17460.00       14229.00       5990.000       6174.000       8168.000
       13921.00       15587.00       5302.000       5404.000       7852.000
       5217.000       3931.000       4668.000       11065.00       11356.00
       427.0000       1764.000       5254.000      -8498.000       1054.000
       13334.00      -9487.000      -10963.00       8555.000       2060.000
      -4460.000      -2811.000      -3947.000       783.0000      -4282.000
      -5866.000      -5726.000      -7758.000       3821.000      -2305.000
      -2910.000       6687.000      -4016.000      -1501.000      -45.00000
      -6072.000      -3198.000      -2678.000       2457.000       2308.000
       3835.000       5119.000      -3701.000      -3307.000      -1728.000
      -837.0000       2543.000      -3631.000      -4553.000       7472.000
       5392.000      -6597.000      -3426.000       5181.000       5708.000
       10229.00       11942.00      -1155.000       2503.000       18908.00
       15200.00       10366.00       13390.00       8484.000       14354.00
       27671.00       22732.00       18405.00       19151.00       13592.00
       15736.00       23704.00       20411.00       20402.00       28971.00
       22027.00       14861.00       15638.00       16157.00       20217.00
       21714.00       21654.00       16546.00       9619.000       14426.00
       22551.00       17299.00       15717.00       19077.00       11135.00
       12568.00       19557.00       15182.00       12480.00       20156.00
       21975.00       12401.00       10677.00       17633.00       21042.00
       11475.00       7555.000       19390.00       17272.00       8811.000
       6650.000       7717.000       13398.00       10667.00       7499.000
       7230.000      -1607.000      -3779.000       3587.000       1280.000
      -5073.000      -5684.000      -4542.000      -4637.000      -10926.00
      -16272.00      -9513.000      -7157.000      -11975.00      -12636.00
      -14719.00      -11645.00      -14698.00      -16487.00      -5845.000
      -7030.000      -9495.000      -12025.00      -12216.00      -3235.000
      -6230.000      -10231.00      -5694.000      -5660.000      -5452.000
      -421.0000       566.0000      -3084.000      -4556.000       2875.000
       7407.000      -4797.000      -4627.000       8516.000       1678.000
      -3561.000       2811.000      -1753.000      -6078.000      -595.0000
