     0.02500000      -12345.00      -12345.00   1.983070e+09      -12345.00
   0.0005380000       659.9755       15.98046      -12345.00      -12345.00
      -12345.00      -12345.00      -12345.00      -12345.00      -12345.00
      -12345.00      -12345.00      -12345.00      -12345.00      -12345.00
      -12345.00      -12345.00      -12345.00      -12345.00      -12345.00
      -12345.00      -12345.00      -12345.00      -12345.00      -12345.00
      -12345.00       7.069700       125.5791       150.0000       1.000000
       9.831100       126.5297      -12345.00       24.71000      -12345.00
      -12345.00      -12345.00      -12345.00      -12345.00      -12345.00
      -12345.00      -12345.00      -12345.00      -12345.00      -12345.00
       322.4923       198.9908       18.85196       2.900372      -12345.00
      -12345.00      -12345.00       0.000000       0.000000      -12345.00
      -12345.00      -12345.00      -12345.00      -12345.00      -12345.00
      -12345.00      -12345.00      -12345.00      -12345.00      -12345.00
      2019        39        11        54        52
        19         6    -12345    -12345     26400
    -12345    -12345    -12345    -12345    -12345
         1    -12345    -12345    -12345    -12345
    -12345    -12345    -12345    -12345    -12345
    -12345    -12345    -12345    -12345    -12345
    -12345    -12345    -12345    -12345    -12345
         1    -12345    -12345    -12345    -12345
DAV     Mindanao, Philip
10      -12345  -12345  
-12345  -12345  -12345  
-12345  -12345  -12345  
-12345  -12345  -12345  
-12345  -12345  -12345  
-12345  -12345  BHZ     
IU      -12345  Trillium
[...]
      -235824.0      -220218.0      -194288.0      -169034.0      -141650.0
      -109724.0      -72098.00      -18441.00       52498.00       140959.0
       249996.0       372917.0       501369.0       627652.0       745914.0
       858583.0       966736.0       1061355.       1137059.       1189732.
       1212945.       1210592.       1184909.       1135207.       1067109.
       993281.0       926808.0       858793.0       783939.0       709869.0
       634100.0       560520.0       487953.0       409835.0       331202.0
       255284.0       183102.0       118395.0       64192.00       25441.00
       1727.000      -19272.00      -41648.00      -68391.00      -110815.0
      -173458.0      -253684.0      -339433.0      -423400.0      -503019.0
      -569944.0      -627001.0      -669194.0      -685909.0      -684138.0
      -663820.0      -621416.0      -564508.0      -507855.0      -464347.0
      -428200.0      -386904.0      -334843.0      -270477.0      -200822.0
      -134269.0      -77697.00      -36704.00      -5858.000       23361.00
       65079.00       127881.0       202383.0       281552.0       361081.0
       438546.0       513264.0       583982.0       653970.0       724725.0
       797832.0       872465.0       937843.0       991763.0       1041969.
       1090508.       1139371.       1184229.       1216305.       1236711.
       1241593.       1224094.       1182553.       1117981.       1045103.
       974339.0       906246.0       848557.0       799954.0       746003.0
       677052.0       585285.0       465495.0       321757.0       162602.0
      -1611.000      -166704.0      -328081.0      -476214.0      -603700.0
      -707459.0      -790117.0      -848096.0      -876640.0      -883376.0
      -876321.0      -853186.0      -813374.0      -763010.0      -703346.0
      -634654.0      -563966.0      -499315.0      -442378.0      -388659.0
      -334480.0      -272985.0      -198021.0      -114955.0      -28141.00
       62997.00       153839.0       236880.0       308320.0       366813.0
       407684.0       426414.0       422770.0       402337.0       371924.0
       327924.0       271284.0       206151.0       127659.0       39084.00
      -49187.00      -129157.0      -200824.0      -264707.0      -313226.0
      -341267.0      -350600.0      -351568.0      -349935.0      -344648.0
      -342980.0      -344909.0      -340929.0      -330515.0      -314660.0
      -297002.0      -291338.0      -299088.0      -309009.0      -319184.0
      -329824.0      -338829.0      -344010.0      -345152.0      -340633.0
      -319525.0      -277905.0      -222390.0      -157125.0      -82153.00
      -81.00000       82558.00       159008.0       221310.0       265647.0
       292286.0       303735.0       306893.0       307543.0       302846.0
       285130.0       256171.0       223987.0       196363.0       181152.0
       178831.0       185502.0       197763.0       212653.0       231316.0
       259856.0       302692.0       363424.0       442331.0       529680.0
       615837.0       688741.0       734042.0       745146.0       727902.0
       698867.0       673274.0       657754.0       646713.0       631560.0
       609955.0       578920.0       533855.0       483744.0       443212.0
       412395.0       388153.0       370959.0       358074.0       344315.0
       324815.0       297962.0       271936.0       253399.0       242537.0
       242905.0       249984.0       257762.0       267054.0       269538.0
       257567.0       237400.0       215919.0       196314.0       179655.0
       156896.0       120459.0       75924.00       28973.00      -14660.00
      -45970.00      -61548.00      -59475.00      -33898.00       15275.00
       82812.00       160868.0       237665.0       304466.0       355168.0
       392526.0       428379.0       472214.0       525883.0       585850.0
       648401.0       707942.0       761377.0       806403.0       833738.0
       841671.0       837931.0       825592.0       809144.0       787622.0
       757890.0       726056.0       687887.0       638817.0       585527.0
       528409.0       467665.0       403360.0       334242.0       260310.0
       177991.0       89753.00      -2235.000      -93410.00      -181357.0
      -276747.0      -386676.0      -511565.0      -643651.0      -774731.0
      -899276.0      -1011981.      -1116118.      -1212722.      -1302486.
      -1384433.      -1452456.      -1508247.      -1550633.      -1576561.
      -1583816.      -1566061.      -1524251.      -1466742.      -1402219.
      -1333996.      -1259058.      -1178755.      -1101714.      -1029823.
      -962067.0      -895317.0      -825729.0      -761593.0      -704625.0
      -647352.0      -586815.0      -519753.0      -442859.0      -361007.0
      -281576.0      -200435.0      -115431.0      -29726.00       60603.00
       157966.0       262954.0       368000.0       463670.0       550940.0
       617772.0       652406.0       660500.0       644158.0       609268.0
       572290.0       549631.0       553482.0       591462.0       668236.0
       775811.0       904478.0       1046308.       1186676.       1321715.
       1455206.       1589501.       1720778.       1843121.       1959129.
       2066489.       2159444.       2234152.       2283893.       2307092.
       2301890.       2265380.       2197786.       2099417.       1978827.
       1850388.       1722573.       1600235.       1486424.       1370247.
       1239634.       1092695.       930232.0       757382.0       580134.0
       402648.0       220760.0       30261.00      -165336.0      -362452.0
      -553712.0      -733141.0      -899996.0      -1057501.      -1217826.
      -1393490.      -1589179.      -1804891.      -2030923.      -2252570.
      -2462655.      -2650376.      -2805669.      -2931505.      -3031221.
      -3110013.      -3175577.      -3229980.      -3270779.      -3292151.
      -3289023.      -3257278.      -3193307.      -3097545.      -2973073.
      -2828118.      -2671652.      -2507151.      -2344201.      -2190531.
      -2046861.      -1919576.      -1807878.      -1703412.      -1606911.
      -1522448.      -1450580.      -1390174.      -1340325.      -1299140.
      -1264293.      -1233730.      -1196955.      -1143254.      -1068835.
      -970812.0      -858088.0      -746471.0      -641327.0      -546095.0
      -467784.0      -412469.0      -382948.0      -369173.0      -356517.0
      -334034.0      -288417.0      -213122.0      -107090.0       31815.00
       201500.0       393604.0       598968.0       817440.0       1044185.
       1270892.       1498207.       1717560.       1920051.       2101795.
       2256221.       2381656.       2474657.       2532982.       2554475.
       2533907.       2475236.       2384030.       2264151.       2123882.
       1966919.       1798801.       1628637.       1461979.       1306032.
       1156411.       1006604.       867469.0       741802.0       623418.0
       518802.0       431088.0       353252.0       286396.0       235373.0
       200411.0       182139.0       181195.0       193325.0       215453.0
       254377.0       310282.0       383028.0       475466.0       568177.0
       647378.0       716482.0       770142.0       801907.0       808771.0
       792314.0       764246.0       730110.0       686820.0       636901.0
       580716.0       511868.0       428732.0       334326.0       233267.0
       135162.0       45642.00      -37920.00      -117886.0      -192312.0
      -256056.0      -308696.0      -352836.0      -387795.0      -414489.0
      -431214.0      -433273.0      -425067.0      -413785.0      -399207.0
      -381979.0      -366284.0      -352853.0      -341675.0      -332824.0
      -327410.0      -329128.0      -337936.0      -350439.0      -361436.0
      -370701.0      -386246.0      -412218.0      -447645.0      -490628.0
      -533284.0      -570326.0      -604646.0      -636603.0      -671194.0
      -718335.0      -779062.0      -852360.0      -940103.0      -1039855.
      -1151335.      -1273622.      -1397580.      -1519121.      -1631728.
      -1725247.      -1804646.      -1871273.      -1920382.      -1955585.
      -1973805.      -1974420.      -1963627.      -1942383.      -1914002.
      -1880654.      -1838714.      -1782540.      -1701700.      -1583159.
      -1420380.      -1208435.      -944384.0      -644148.0      -330033.0
      -19183.00       267201.0       517040.0       731413.0       919609.0
       1091697.       1243872.       1371083.       1471002.       1542874.
       1594962.       1629977.       1644813.       1645902.       1645056.
       1648239.       1652562.       1654576.       1651439.       1635449.
       1603287.       1560987.       1514717.       1466638.       1420575.
       1382254.       1353595.       1336632.       1336987.       1360576.
       1407333.       1466038.       1527076.       1586361.       1640307.
       1691280.       1740301.       1785629.       1824517.       1851059.
       1863481.       1855648.       1820623.       1759837.       1671305.
       1560840.       1444619.       1335741.       1242330.       1168477.
       1116720.       1080674.       1053478.       1027247.       982384.0
       907558.0       803128.0       673797.0       525722.0       358689.0
       174671.0      -20911.00      -222410.0      -423139.0      -619263.0
      -803847.0      -970016.0      -1117488.      -1243223.      -1343345.
      -1420076.      -1473970.      -1502456.      -1500460.      -1463529.
      -1395339.      -1301265.      -1186522.      -1065291.      -952682.0
      -856064.0      -783367.0      -735880.0      -712768.0      -717390.0
      -741378.0      -773577.0      -805582.0      -828726.0      -838720.0
      -828711.0      -794150.0      -738063.0      -665695.0      -589312.0
      -520221.0      -459191.0      -406862.0      -364646.0      -331855.0
      -311461.0      -303050.0      -302568.0      -316472.0      -346368.0
      -386631.0      -440214.0      -501313.0      -556318.0      -600304.0
      -634399.0      -659946.0      -679495.0      -699394.0      -723133.0
      -753750.0      -792591.0      -840354.0      -904179.0      -984415.0
      -1075642.      -1168168.      -1248248.      -1305049.      -1322521.
      -1292114.      -1222075.      -1122982.      -1000381.      -862793.0
      -721934.0      -577023.0      -427262.0      -275566.0      -118676.0
       37634.00       182963.0       315185.0       436341.0       545770.0
       643533.0       732014.0       810929.0       877752.0       926199.0
       950501.0       948698.0       921289.0       869764.0       797137.0
       707461.0       600636.0       475176.0       331087.0       170206.0
       2371.000      -160552.0      -310819.0      -443993.0      -563575.0
      -675929.0      -788464.0      -909723.0      -1044021.      -1188733.
      -1333874.      -1466439.      -1579593.      -1669542.      -1731961.
      -1765547.      -1767161.      -1739791.      -1681917.      -1589807.
      -1468774.      -1316489.      -1138841.      -941927.0      -730358.0
      -521463.0      -324269.0      -151324.0      -14354.00       82690.00
       132101.0       133546.0       87732.00      -3287.000      -135807.0
      -306278.0      -500847.0      -707328.0      -918094.0      -1122752.
      -1314523.      -1491699.      -1650322.      -1788350.      -1910757.
      -2013470.      -2088490.      -2133848.      -2142620.      -2111890.
      -2046841.      -1951606.      -1838373.      -1722535.      -1608958.
      -1505862.      -1415905.      -1325079.      -1221920.      -1097445.
      -944596.0      -764710.0      -570669.0      -380715.0      -208675.0
      -64539.00       46656.00       123352.0       170529.0       195103.0
       199351.0       186197.0       153894.0       97282.00       16648.00
      -82864.00      -199298.0      -335094.0      -484002.0      -640657.0
      -807268.0      -984177.0      -1167917.      -1356884.      -1557718.
      -1767742.      -1981345.      -2194312.      -2389969.      -2556316.
      -2681302.      -2749336.      -2759794.      -2716536.      -2625389.
      -2502151.      -2361562.      -2217943.      -2085324.      -1966513.
      -1857338.      -1751727.      -1637421.      -1504078.      -1346033.
      -1157006.      -933826.0      -675780.0      -389703.0      -86948.00
       222384.0       526426.0       825302.0       1126391.       1427862.
       1724239.       2012237.       2293780.       2571443.       2844637.
       3113722.       3374056.       3614091.       3830511.       4029845.
       4217894.       4398911.       4575171.       4744880.       4902258.
       5041903.       5154716.       5228866.       5258978.       5240214.
       5170422.       5054683.       4899878.       4712630.       4496253.
       4251717.       3984985.       3709392.       3435434.       3171829.
       2929417.       2710157.       2516508.       2351282.       2213404.
       2102656.       2014851.       1946876.       1891421.       1842327.
       1799175.       1763324.       1741836.       1735962.       1737416.
       1739537.       1737615.       1723739.       1698200.       1665801.
       1626456.       1582872.       1542564.       1514714.       1501414.
       1502048.       1512206.       1525954.       1539535.       1542214.
       1528329.       1497122.       1446979.       1377162.       1291499.
       1195664.       1092127.       987288.0       884137.0       778117.0
       663292.0       539796.0       410710.0       279168.0       154323.0
       43575.00      -46873.00      -107815.0      -136615.0      -135767.0
      -106226.0      -58115.00      -7901.000       32357.00       54652.00
       58882.00       50583.00       40306.00       41640.00       66401.00
       119238.0       195556.0       287527.0       386553.0       483476.0
       566895.0       629337.0       670579.0       688900.0       683093.0
       658838.0       620054.0       568848.0       511360.0       453157.0
       395489.0       337674.0       278124.0       217197.0       161624.0
       116933.0       89119.00       80049.00       87172.00       112633.0
       151506.0       194225.0       234410.0       268182.0       289661.0
       290056.0       267342.0       223867.0       160550.0       76946.00
      -20422.00      -129362.0      -253226.0      -383350.0      -516539.0
      -654186.0      -794636.0      -938249.0      -1083876.      -1230038.
      -1376028.      -1520539.      -1660844.      -1793632.      -1916800.
      -2028710.      -2122242.      -2195729.      -2253961.      -2299463.
      -2336246.      -2369042.      -2399094.      -2419208.      -2428753.
      -2427213.      -2402447.      -2353777.      -2282103.      -2185226.
      -2073944.      -1961090.      -1852499.      -1754483.      -1674321.
      -1611126.      -1569097.      -1558895.      -1585118.      -1653377.
      -1767534.      -1922244.      -2109871.      -2323174.      -2547665.
      -2770085.      -2978754.      -3160032.      -3309475.      -3422896.
      -3494224.      -3525525.      -3519208.      -3474700.      -3397853.
      -3294880.      -3166941.      -3018516.      -2851796.      -2667181.
      -2465091.      -2245847.      -2018667.      -1790753.      -1571782.
      -1375310.      -1202046.      -1050207.      -919258.0      -806905.0
      -707317.0      -613670.0      -524346.0      -435979.0      -349298.0
      -269050.0      -195748.0      -128865.0      -69581.00      -24403.00
       61.00000      -494.0000      -30712.00      -93467.00      -185804.0
      -302122.0      -437406.0      -580455.0      -720048.0      -849663.0
      -967337.0      -1072315.      -1160069.      -1225440.      -1266925.
      -1287916.      -1287079.      -1259989.      -1208514.      -1134251.
      -1036670.      -919477.0      -787734.0      -643898.0      -492866.0
      -343270.0      -200222.0      -69027.00       48017.00       152345.0
       241212.0       316954.0       384958.0       453652.0       532761.0
       626304.0       737711.0       864820.0       1002958.       1147838.
       1293766.       1438578.       1580459.       1716322.       1840860.
       1949238.       2039087.       2104780.       2141401.       2144830.
       2112743.       2045311.       1940651.       1806225.       1652850.
       1485950.       1315547.       1147864.       979103.0       812750.0
       662087.0       535195.0       435100.0       364683.0       326869.0
       321676.0       345962.0       395953.0       463566.0       543251.0
       628926.0       705291.0       763937.0       802621.0       819873.0
       819161.0       801323.0       771457.0       733600.0       684504.0
       629556.0       574395.0       520488.0       471187.0       432476.0
       409038.0       399846.0       409264.0       439258.0       483732.0
       539744.0       606379.0       680357.0       757115.0       835597.0
       918666.0       1006607.       1100437.       1201243.       1301710.
       1399708.       1495001.       1583118.       1662025.       1724046.
       1765267.       1790963.       1805162.       1815902.       1841568.
       1894360.       1972862.       2074673.       2198065.       2336887.
       2483222.       2630054.       2764528.       2877528.       2968771.
       3030500.       3058970.       3057372.       3026489.       2978307.
       2920802.       2854010.       2786148.       2717952.       2650071.
       2592331.       2547428.       2517871.       2504546.       2505092.
       2515990.       2526684.       2532966.       2532452.       2524339.
       2510942.       2491428.       2465903.       2432074.       2386101.
       2318366.       2219253.       2084540.       1911504.       1707605.
       1480377.       1228552.       954643.0       663261.0       356560.0
       36412.00      -291523.0      -618200.0      -939496.0      -1248322.
      -1542224.      -1832143.      -2121648.      -2411157.      -2699901.
      -2982585.      -3255233.      -3507262.      -3729752.      -3917638.
      -4065547.      -4168870.      -4227317.      -4248077.      -4234245.
