     0.02500000      -12345.00      -12345.00   2.447790e+09      -12345.00
   0.0005380000       659.9755       15.98046      -12345.00      -12345.00
      -12345.00      -12345.00      -12345.00      -12345.00      -12345.00
      -12345.00      -12345.00      -12345.00      -12345.00      -12345.00
      -12345.00      -12345.00      -12345.00      -12345.00      -12345.00
      -12345.00      -12345.00      -12345.00      -12345.00      -12345.00
      -12345.00       7.069700       125.5791       150.0000       1.000000
       9.831100       126.5297      -12345.00       24.71000      -12345.00
      -12345.00      -12345.00      -12345.00      -12345.00      -12345.00
      -12345.00      -12345.00      -12345.00      -12345.00      -12345.00
       322.4923       198.9908       18.85196       2.900372      -12345.00
      -12345.00      -12345.00       0.000000       0.000000      -12345.00
      -12345.00      -12345.00      -12345.00      -12345.00      -12345.00
      -12345.00      -12345.00      -12345.00      -12345.00      -12345.00
      2019        39        11        54        52
        19         6    -12345    -12345     26400
    -12345    -12345    -12345    -12345    -12345
         1    -12345    -12345    -12345    -12345
    -12345    -12345    -12345    -12345    -12345
    -12345    -12345    -12345    -12345    -12345
    -12345    -12345    -12345    -12345    -12345
         1    -12345    -12345    -12345    -12345
DAV     Mindanao, Philip
00      -12345  -12345  
-12345  -12345  -12345  
-12345  -12345  -12345  
-12345  -12345  -12345  
-12345  -12345  -12345  
-12345  -12345  BHZ     
IU      -12345  Streckei
[...]
      -281924.0      -270374.0      -241466.0      -210197.0      -177284.0
      -138980.0      -94065.00      -31089.00       53434.00       158770.0
       288982.0       439156.0       599349.0       759248.0       910407.0
       1053213.       1189876.       1312360.       1412886.       1486295.
       1524853.       1530438.       1506806.       1452986.       1373254.
       1281546.       1195499.       1110395.       1016832.       921403.0
       824112.0       728609.0       635868.0       537240.0       435999.0
       337766.0       244256.0       160350.0       89900.00       38233.00
       7281.000      -16055.00      -40047.00      -67700.00      -111631.0
      -181117.0      -274989.0      -380241.0      -486302.0      -588213.0
      -676174.0      -750840.0      -808282.0      -835522.0      -836711.0
      -814544.0      -764550.0      -692525.0      -616002.0      -553066.0
      -502744.0      -450592.0      -386170.0      -305934.0      -216318.0
      -128467.0      -51699.00       6149.000       48488.00       85498.00
       133372.0       206095.0       296134.0       392573.0       489618.0
       583110.0       672640.0       757520.0       840672.0       924924.0
       1011770.       1101474.       1183095.       1250442.       1311477.
       1370984.       1431420.       1489171.       1532930.       1560761.
       1570043.       1552691.       1505468.       1428862.       1337537.
       1246492.       1158725.       1082496.       1019541.       954402.0
       873319.0       766395.0       625142.0       451466.0       254862.0
       48398.00      -160264.0      -366529.0      -559806.0      -729057.0
      -869084.0      -982365.0      -1065759.      -1113190.      -1131204.
      -1130027.      -1109402.      -1066899.      -1008806.      -938028.0
      -853984.0      -763791.0      -677638.0      -600911.0      -529714.0
      -458516.0      -380083.0      -285215.0      -178050.0      -66052.00
       51109.00       169396.0       279222.0       374667.0       453792.0
       512010.0       544051.0       548257.0       529583.0       497423.0
       449128.0       382745.0       303833.0       208116.0       96603.00
      -19257.00      -127655.0      -224779.0      -312456.0      -383636.0
      -430017.0      -451673.0      -459180.0      -461365.0      -457990.0
      -455857.0      -457875.0      -454147.0      -441758.0      -422213.0
      -398974.0      -387729.0      -395076.0      -409949.0      -426530.0
      -443666.0      -458916.0      -468573.0      -471463.0      -466999.0
      -443625.0      -393909.0      -323111.0      -237923.0      -140562.0
      -33270.00       75586.00       176662.0       261118.0       323332.0
       363193.0       383912.0       392364.0       396084.0       393999.0
       375622.0       339787.0       296266.0       255090.0       227060.0
       215746.0       217420.0       227428.0       241674.0       260181.0
       288556.0       333659.0       400884.0       491475.0       596141.0
       702675.0       796025.0       858420.0       879740.0       863244.0
       827274.0       792367.0       769035.0       753663.0       736086.0
       711398.0       676684.0       626255.0       566509.0       514967.0
       476487.0       447498.0       427313.0       413522.0       400165.0
       380316.0       350440.0       319298.0       296961.0       284967.0
       287111.0       299810.0       314951.0       331922.0       342593.0
       335702.0       314778.0       289284.0       264561.0       243346.0
       217421.0       175152.0       120104.0       59985.00       1104.000
      -45865.00      -74227.00      -80981.00      -59152.00      -6215.000
       72548.00       168214.0       266021.0       352168.0       417514.0
       463320.0       502983.0       550796.0       612329.0       684194.0
       761825.0       837621.0       905435.0       962987.0       1000669.
       1013999.       1011370.       998031.0       978730.0       953762.0
       918602.0       878558.0       831623.0       770930.0       702801.0
       630258.0       553609.0       473635.0       388471.0       297933.0
       198042.0       89801.00      -24182.00      -139711.0      -252118.0
      -370704.0      -505628.0      -659713.0      -825379.0      -991660.0
      -1151178.      -1296661.      -1430320.      -1555401.      -1673185.
      -1784098.      -1880961.      -1963173.      -2030331.      -2077608.
      -2101484.      -2093385.      -2051348.      -1984131.      -1902997.
      -1814724.      -1717139.      -1610672.      -1505161.      -1405473.
      -1311245.      -1219209.      -1123713.      -1032122.      -949547.0
      -868241.0      -783812.0      -692986.0      -590896.0      -481356.0
      -373805.0      -267204.0      -157138.0      -45972.00       68685.00
       191093.0       322223.0       454926.0       577186.0       687764.0
       776047.0       825910.0       840932.0       826038.0       787338.0
       742539.0       711760.0       711801.0       752285.0       839779.0
       968610.0       1126123.       1302138.       1479219.       1648925.
       1814745.       1980582.       2144110.       2298158.       2443553.
       2578898.       2697576.       2794450.       2861345.       2895043.
       2894044.       2854005.       2774373.       2655246.       2503744.
       2337077.       2168216.       2004035.       1850392.       1697489.
       1529775.       1342723.       1136034.       915276.0       688104.0
       460831.0       231218.0      -6553.000      -250333.0      -496269.0
      -736434.0      -962700.0      -1173017.      -1370385.      -1567821.
      -1782223.      -2021923.      -2288087.      -2571760.      -2854153.
      -3123203.      -3366617.      -3570401.      -3734803.      -3863788.
      -3963132.      -4042457.      -4106896.      -4155637.      -4181992.
      -4179381.      -4141556.      -4062758.      -3942384.      -3783302.
      -3595000.      -3390229.      -3175480.      -2960892.      -2757862.
      -2569130.      -2400115.      -2252737.      -2117839.      -1992540.
      -1881800.      -1787094.      -1707832.      -1643571.      -1592391.
      -1551593.      -1517704.      -1479122.      -1421188.      -1337095.
      -1223324.      -1087235.      -947565.0      -814539.0      -692707.0
      -590191.0      -515412.0      -472946.0      -453858.0      -440476.0
      -417524.0      -368888.0      -283829.0      -159466.0       7724.000
       217764.0       461826.0       727971.0       1012701.       1310786.
       1611408.       1912888.       2206360.       2478885.       2724403.
       2935264.       3109029.       3242275.       3331250.       3374139.
       3364218.       3303457.       3198689.       3053891.       2879022.
       2681202.       2467485.       2248796.       2032384.       1827643.
       1632302.       1437543.       1253229.       1086190.       930727.0
       791483.0       674210.0       572342.0       484426.0       415975.0
       367899.0       340242.0       332766.0       340872.0       359848.0
       395743.0       452821.0       531429.0       635714.0       747228.0
       845037.0       929758.0       996850.0       1038393.       1049765.
       1030582.       993865.0       949154.0       894368.0       831205.0
       760848.0       675492.0       570476.0       449010.0       316663.0
       184966.0       62873.00      -50878.00      -159169.0      -261287.0
      -351452.0      -427338.0      -491676.0      -544151.0      -585991.0
      -616811.0      -630964.0      -631356.0      -627081.0      -619871.0
      -609408.0      -598789.0      -588901.0      -579480.0      -570606.0
      -563348.0      -562346.0      -569086.0      -579774.0      -587771.0
      -590627.0      -596498.0      -612848.0      -640768.0      -678654.0
      -718180.0      -751632.0      -780953.0      -807554.0      -836102.0
      -878374.0      -938506.0      -1015708.      -1111952.      -1225951.
      -1356813.      -1503941.      -1658149.      -1812427.      -1960169.
      -2088616.      -2198597.      -2293488.      -2367856.      -2424103.
      -2460424.      -2474119.      -2471326.      -2453732.      -2423862.
      -2384916.      -2334089.      -2265664.      -2168703.      -2027471.
      -1831848.      -1575536.      -1253753.      -881766.0      -487244.0
      -92279.00       277701.0       604275.0       885372.0       1130073.
       1352402.       1552094.       1722348.       1859746.       1961152.
       2033297.       2081057.       2100630.       2097213.       2086004.
       2078329.       2073656.       2067958.       2058038.       2035449.
       1994322.       1938897.       1877470.       1814456.       1753178.
       1700460.       1659945.       1633251.       1626436.       1646806.
       1697114.       1767218.       1843440.       1919576.       1991002.
       2058356.       2123569.       2185136.       2239799.       2280467.
       2303589.       2302369.       2267521.       2199025.       2094157.
       1956908.       1805457.       1657329.       1525209.       1416971.
       1338373.       1284394.       1246308.       1215060.       1166835.
       1083204.       961815.0       807768.0       629284.0       427559.0
       203433.0      -38176.00      -290835.0      -545759.0      -797757.0
      -1038220.      -1256010.      -1448645.      -1612984.      -1743911.
      -1843075.      -1912190.      -1949730.      -1950100.      -1906827.
      -1822790.      -1704752.      -1558925.      -1400961.      -1250799.
      -1119270.      -1015843.      -944702.0      -904479.0      -898576.0
      -920099.0      -955081.0      -992832.0      -1022381.      -1036596.
      -1027153.      -986242.0      -915764.0      -822389.0      -719565.0
      -623021.0      -537016.0      -462681.0      -402903.0      -357305.0
      -328630.0      -317202.0      -316947.0      -332079.0      -366078.0
      -412742.0      -473819.0      -546556.0      -616605.0      -675115.0
      -721828.0      -758630.0      -787941.0      -816885.0      -851141.0
      -894161.0      -947646.0      -1010987.      -1090968.      -1190399.
      -1304030.      -1421770.      -1528258.      -1610033.      -1648027.
      -1628326.      -1556267.      -1444462.      -1301566.      -1136539.
      -962753.0      -782534.0      -594409.0      -401873.0      -202083.0
       457.0000       192671.0       369078.0       530639.0       676760.0
       806929.0       923180.0       1026089.       1114157.       1181074.
       1219339.       1225619.       1199835.       1143170.       1059133.
       952880.0       825702.0       676168.0       503484.0       309238.0
       102776.0      -101939.0      -293357.0      -464229.0      -617115.0
      -759703.0      -900948.0      -1051673.      -1218376.      -1399542.
      -1584583.      -1757173.      -1906999.      -2028556.      -2115881.
      -2166229.      -2174279.      -2142620.      -2071975.      -1957437.
      -1805805.      -1615640.      -1391672.      -1142881.      -872628.0
      -600858.0      -342598.0      -113610.0       69436.00       200956.0
       271277.0       278904.0       225190.0       112277.0      -54161.00
      -270775.0      -522476.0      -793206.0      -1072610.      -1347770.
      -1608590.      -1849861.      -2065835.      -2251446.      -2411475.
      -2544424.      -2640666.      -2697951.      -2709087.      -2669165.
      -2584129.      -2458577.      -2305834.      -2146348.      -1989283.
      -1844511.      -1717712.      -1594429.      -1457739.      -1294922.
      -1096965.      -863366.0      -607571.0      -352536.0      -118023.0
       80912.00       236141.0       344693.0       411485.0       445947.0
       452651.0       435467.0       393586.0       321044.0       216449.0
       85126.00      -69355.00      -249346.0      -449302.0      -661469.0
      -886424.0      -1125060.      -1374291.      -1630011.      -1897060.
      -2174588.      -2454489.      -2731650.      -2988856.      -3209457.
      -3380064.      -3481166.      -3507832.      -3464831.      -3358735.
      -3207621.      -3031148.      -2847923.      -2675728.      -2521374.
      -2381508.      -2248025.      -2106006.      -1940664.      -1743619.
      -1507263.      -1227040.      -901439.0      -537434.0      -149157.0
       250788.0       646434.0       1033347.       1419553.       1805328.
       2185341.       2554778.       2915032.       3270546.       3621349.
       3967300.       4304188.       4618331.       4902159.       5161327.
       5403391.       5634688.       5859206.       6076319.       6279930.
       6462981.       6615023.       6720074.       6768667.       6754637.
       6674008.       6531987.       6337383.       6098733.       5820887.
       5504954.       5157590.       4794421.       4430185.       4077424.
       3750520.       3454840.       3193317.       2969401.       2782049.
       2630784.       2510655.       2417475.       2343775.       2280882.
       2226911.       2182219.       2153856.       2145640.       2149049.
       2154957.       2157784.       2148109.       2123679.       2090390.
       2049674.       2003620.       1959400.       1927896.       1913577.
       1916454.       1932294.       1953668.       1976449.       1988983.
       1982354.       1953706.       1899722.       1818993.       1714154.
       1592024.       1456743.       1315165.       1173571.       1029163.
       874470.0       708653.0       536144.0       361236.0       194777.0
       46754.00      -75549.00      -161348.0      -205862.0      -212113.0
      -181960.0      -125544.0      -63113.00      -11462.00       17846.00
       22233.00       7554.000      -13892.00      -25416.00      -10954.00
       38511.00       119552.0       222616.0       336983.0       450879.0
       550217.0       624825.0       672863.0       692860.0       683330.0
       649638.0       598011.0       531561.0       456467.0       380301.0
       305135.0       229972.0       153561.0       74903.00       676.0000
      -61228.00      -103714.0      -122492.0      -119641.0      -93450.00
      -46939.00       9032.000       64947.00       114989.0       151926.0
       164532.0       147755.0       102839.0       31951.00      -64836.00
      -180879.0      -310719.0      -457877.0      -614381.0      -774017.0
      -937928.0      -1104494.      -1274104.      -1445775.      -1617501.
      -1789259.      -1960236.      -2127260.      -2286872.      -2435912.
      -2572078.      -2687773.      -2778030.      -2847124.      -2898754.
      -2936865.      -2967395.      -2993457.      -3008531.      -3009956.
      -2998039.      -2960659.      -2893657.      -2798410.      -2672420.
      -2525706.      -2374905.      -2230430.      -2100374.      -1994104.
      -1913297.      -1860434.      -1846561.      -1879374.      -1964746.
      -2108146.      -2305779.      -2547572.      -2824043.      -3118264.
      -3411881.      -3689514.      -3933927.      -4137188.      -4295072.
      -4400863.      -4455276.      -4461974.      -4420891.      -4337161.
      -4218759.      -4067948.      -3889432.      -3687273.      -3462718.
      -3217990.      -2953697.      -2678395.      -2401890.      -2134318.
      -1891884.      -1678957.      -1492617.      -1331679.      -1193583.
      -1071737.      -957351.0      -847100.0      -737125.0      -626507.0
      -520748.0      -421742.0      -329234.0      -245491.0      -178000.0
      -135063.0      -122436.0      -145642.0      -208614.0      -309370.0
      -441235.0      -598254.0      -768768.0      -938197.0      -1096836.
      -1241582.      -1371922.      -1483236.      -1569240.      -1626293.
      -1657039.      -1660888.      -1631903.      -1570652.      -1479280.
      -1357771.      -1209940.      -1041951.      -857910.0      -662916.0
      -467320.0      -278743.0      -103290.0       54996.00       198311.0
       324789.0       435356.0       536384.0       637632.0       751400.0
       883769.0       1038259.       1212752.       1400805.       1596862.
       1793982.       1988520.       2178548.       2360336.       2527902.
       2675285.       2799523.       2894769.       2954489.       2973753.
       2948631.       2878688.       2762038.       2604624.       2419649.
       2215398.       2003210.       1793122.       1583171.       1374914.
       1182935.       1019333.       888599.0       793974.0       739399.0
       725494.0       748449.0       804099.0       883041.0       976731.0
       1078310.       1170421.       1239761.       1282468.       1296568.
       1285381.       1251205.       1199399.       1135967.       1058677.
       972322.0       884856.0       799899.0       721582.0       656547.0
       611694.0       586386.0       584121.0       608697.0       653626.0
       713525.0       786514.0       868785.0       954547.0       1041950.
       1134206.       1232497.       1338175.       1453409.       1571010.
       1685983.       1797763.       1902057.       1995582.       2070554.
       2121107.       2151090.       2166095.       2174695.       2197434.
       2252678.       2342053.       2462123.       2610678.       2781403.
       2964565.       3151162.       3326166.       3475647.       3596931.
       3682062.       3723686.       3724520.       3686668.       3622098.
       3543540.       3453477.       3360735.       3269824.       3180743.
       3103327.       3043363.       3003199.       2983760.       2982515.
       2995778.       3011449.       3022400.       3025955.       3020102.
       3007408.       2988337.       2963406.       2931054.       2887112.
       2820372.       2717364.       2570664.       2375474.       2137563.
       1867538.       1566811.       1237107.       884909.0       513623.0
       125170.0      -274077.0      -673189.0      -1065584.      -1444720.
      -1806238.      -2161201.      -2517180.      -2874942.      -3234653.
      -3590854.      -3938633.      -4266433.      -4561558.      -4816337.
      -5023316.      -5175902.      -5271673.      -5317749.      -5319239.
