     0.05000000      -12345.00      -12345.00   3.362750e+09      -12345.00
   0.0005380000       659.9506      -161.0195      -12345.00      -12345.00
      -12345.00      -12345.00      -12345.00      -12345.00      -12345.00
      -12345.00      -12345.00      -12345.00      -12345.00      -12345.00
      -12345.00      -12345.00      -12345.00      -12345.00      -12345.00
      -12345.00      -12345.00      -12345.00      -12345.00      -12345.00
      -12345.00       24.97350       121.4971       77.10000       82.90000
       9.831100       126.5297      -12345.00       24.71000      -12345.00
      -12345.00      -12345.00      -12345.00      -12345.00      -12345.00
      -12345.00      -12345.00      -12345.00      -12345.00      -12345.00
       1757.075       343.0008       161.4906       15.80245      -12345.00
      -12345.00      -12345.00       0.000000       0.000000      -12345.00
      -12345.00      -12345.00      -12345.00      -12345.00      -12345.00
      -12345.00      -12345.00      -12345.00      -12345.00      -12345.00
      2019        39        11        57        49
        19         6    -12345    -12345     13200
    -12345    -12345    -12345    -12345    -12345
         1    -12345    -12345    -12345    -12345
    -12345    -12345    -12345    -12345    -12345
    -12345    -12345    -12345    -12345    -12345
    -12345    -12345    -12345    -12345    -12345
         1    -12345    -12345    -12345    -12345
TATO    Mindanao, Philip
00      -12345  -12345  
-12345  -12345  -12345  
-12345  -12345  -12345  
-12345  -12345  -12345  
-12345  -12345  -12345  
-12345  -12345  BHZ     
IU      -12345  Geotech 
[...]
      -337109.0      -338228.0      -338992.0      -339390.0      -339677.0
      -339872.0      -339793.0      -339180.0      -338435.0      -337987.0
      -337458.0      -336780.0      -335802.0      -334604.0      -333620.0
      -332798.0      -332088.0      -331374.0      -330791.0      -330395.0
      -329945.0      -329556.0      -329380.0      -329259.0      -329119.0
      -329261.0      -329717.0      -330248.0      -330768.0      -331272.0
      -331687.0      -332107.0      -332588.0      -333051.0      -333629.0
      -334092.0      -334284.0      -334326.0      -334331.0      -334371.0
      -334181.0      -333793.0      -333252.0      -332656.0      -332222.0
      -331610.0      -330788.0      -329927.0      -328914.0      -327759.0
      -326703.0      -325889.0      -325051.0      -323981.0      -322918.0
      -322083.0      -321365.0      -320751.0      -320060.0      -319216.0
      -318647.0      -318427.0      -318417.0      -318601.0      -318947.0
      -319412.0      -320063.0      -320897.0      -321750.0      -322651.0
      -323720.0      -325023.0      -326388.0      -327722.0      -329082.0
      -330271.0      -331301.0      -332360.0      -333398.0      -334284.0
      -335008.0      -335654.0      -336107.0      -336170.0      -335891.0
      -335392.0      -334706.0      -333923.0      -333164.0      -332281.0
      -331165.0      -329955.0      -328723.0      -327361.0      -325918.0
      -324679.0      -323534.0      -322442.0      -321595.0      -320929.0
      -320474.0      -320195.0      -320001.0      -320011.0      -320264.0
      -320581.0      -320985.0      -321605.0      -322398.0      -323325.0
      -324344.0      -325527.0      -326702.0      -327720.0      -328917.0
      -330298.0      -331636.0      -332877.0      -333968.0      -334757.0
      -335371.0      -335945.0      -336297.0      -336482.0      -336620.0
      -336834.0      -337021.0      -337058.0      -337039.0      -337038.0
      -337121.0      -337164.0      -337127.0      -337109.0      -337221.0
      -337463.0      -337775.0      -337899.0      -337789.0      -337592.0
      -337163.0      -336615.0      -335936.0      -335125.0      -334255.0
      -333141.0      -331788.0      -330183.0      -328436.0      -326805.0
      -325128.0      -323213.0      -321363.0      -319662.0      -318112.0
      -316744.0      -315336.0      -314066.0      -313066.0      -312399.0
      -312218.0      -312249.0      -312410.0      -312798.0      -313470.0
      -314475.0      -315587.0      -316836.0      -318219.0      -319409.0
      -320346.0      -321251.0      -322142.0      -322944.0      -323818.0
      -324659.0      -325302.0      -325708.0      -325876.0      -325995.0
      -326245.0      -326643.0      -327000.0      -327245.0      -327576.0
      -327880.0      -328065.0      -328345.0      -328689.0      -329144.0
      -329779.0      -330439.0      -331091.0      -331920.0      -332899.0
      -333852.0      -334865.0      -335831.0      -336726.0      -337680.0
      -338526.0      -339230.0      -339834.0      -340510.0      -341197.0
      -341661.0      -342076.0      -342490.0      -342810.0      -342931.0
      -342766.0      -342393.0      -342154.0      -342018.0      -341726.0
      -341220.0      -340302.0      -339305.0      -338442.0      -337532.0
      -336667.0      -335712.0      -334640.0      -333665.0      -332619.0
      -331455.0      -330489.0      -329680.0      -328939.0      -328309.0
      -327461.0      -326365.0      -325372.0      -324608.0      -323980.0
      -323152.0      -322226.0      -321453.0      -320761.0      -320119.0
      -319312.0      -318398.0      -317748.0      -317446.0      -317238.0
      -316940.0      -316560.0      -316265.0      -316376.0      -316853.0
      -317300.0      -317590.0      -317905.0      -318417.0      -319244.0
      -320258.0      -321166.0      -321951.0      -322644.0      -323269.0
      -323920.0      -324376.0      -324713.0      -325135.0      -325578.0
      -326056.0      -326369.0      -326370.0      -326177.0      -326189.0
      -326449.0      -326619.0      -326668.0      -326628.0      -326724.0
      -327061.0      -327556.0      -328088.0      -328608.0      -329275.0
      -329989.0      -330701.0      -331423.0      -332132.0      -332912.0
      -333784.0      -334657.0      -335275.0      -335500.0      -335531.0
      -335510.0      -335283.0      -334988.0      -334789.0      -334541.0
      -334254.0      -333928.0      -333578.0      -333241.0      -333019.0
      -332910.0      -332834.0      -332808.0      -332591.0      -332386.0
      -332544.0      -332931.0      -333321.0      -333573.0      -333735.0
      -333892.0      -334216.0      -334625.0      -334860.0      -334854.0
      -334767.0      -334800.0      -334759.0      -334531.0      -334166.0
      -333549.0      -332752.0      -331892.0      -330963.0      -330056.0
      -328987.0      -327781.0      -326722.0      -325686.0      -324740.0
      -323849.0      -322951.0      -322162.0      -321388.0      -320600.0
      -319750.0      -318927.0      -318245.0      -317576.0      -317002.0
      -316580.0      -316018.0      -315469.0      -315161.0      -314982.0
      -314993.0      -315025.0      -315121.0      -315528.0      -316131.0
      -316525.0      -316618.0      -317077.0      -317960.0      -318959.0
      -320086.0      -321359.0      -322887.0      -324529.0      -326068.0
      -327453.0      -328778.0      -330105.0      -331469.0      -332910.0
      -334421.0      -335813.0      -336937.0      -338026.0      -339129.0
      -340089.0      -340711.0      -341115.0      -341552.0      -341794.0
      -341725.0      -341499.0      -341195.0      -340863.0      -340591.0
      -340156.0      -339451.0      -338694.0      -337919.0      -337131.0
      -336246.0      -335362.0      -334563.0      -333670.0      -332673.0
      -331693.0      -331055.0      -330673.0      -330325.0      -330040.0
      -329690.0      -329529.0      -329319.0      -329153.0      -329504.0
      -329621.0      -329406.0      -329235.0      -329129.0      -329186.0
      -329169.0      -329090.0      -329031.0      -329029.0      -329048.0
      -329020.0      -329078.0      -328902.0      -328691.0      -328783.0
      -328955.0      -329086.0      -328983.0      -328929.0      -328940.0
      -328860.0      -328796.0      -328522.0      -328076.0      -327528.0
      -326912.0      -326268.0      -325623.0      -324956.0      -324217.0
      -323361.0      -322268.0      -321158.0      -320218.0      -319371.0
      -318421.0      -317238.0      -316066.0      -315054.0      -314171.0
      -313367.0      -312586.0      -312165.0      -312146.0      -312230.0
      -312434.0      -312882.0      -313634.0      -314624.0      -315915.0
      -317416.0      -319064.0      -321015.0      -323044.0      -325064.0
      -327132.0      -329221.0      -331333.0      -333335.0      -335141.0
      -336747.0      -338465.0      -340288.0      -341870.0      -343273.0
      -344329.0      -345108.0      -346020.0      -346829.0      -347316.0
      -347625.0      -347629.0      -347422.0      -347132.0      -346583.0
      -345643.0      -344330.0      -343036.0      -341785.0      -340682.0
      -339494.0      -337979.0      -336695.0      -335396.0      -334020.0
      -332754.0      -331408.0      -329979.0      -328563.0      -327279.0
      -325957.0      -324537.0      -323184.0      -321859.0      -320492.0
      -319194.0      -318048.0      -317183.0      -316648.0      -316377.0
      -316066.0      -315599.0      -315579.0      -315855.0      -316144.0
      -316628.0      -317177.0      -317842.0      -318541.0      -319219.0
      -319700.0      -320152.0      -320741.0      -321202.0      -321721.0
      -322168.0      -322514.0      -322824.0      -323055.0      -323251.0
      -323423.0      -323641.0      -323679.0      -323634.0      -323746.0
      -323973.0      -324333.0      -324794.0      -325311.0      -325845.0
      -326343.0      -326948.0      -327610.0      -328332.0      -329273.0
      -330198.0      -331224.0      -332392.0      -333392.0      -334269.0
      -335193.0      -336106.0      -336878.0      -337589.0      -338202.0
      -338727.0      -339208.0      -339524.0      -339682.0      -339769.0
      -339783.0      -339688.0      -339521.0      -339189.0      -338765.0
      -338371.0      -337989.0      -337656.0      -337224.0      -336594.0
      -335849.0      -335184.0      -334609.0      -334010.0      -333314.0
      -332586.0      -331949.0      -331212.0      -330514.0      -329813.0
      -328997.0      -328051.0      -326993.0      -326069.0      -325027.0
      -324001.0      -323085.0      -322096.0      -321145.0      -320123.0
      -319126.0      -318165.0      -317128.0      -316148.0      -315242.0
      -314481.0      -313734.0      -313081.0      -312763.0      -312493.0
      -312439.0      -312673.0      -312991.0      -313498.0      -314096.0
      -314841.0      -315592.0      -316607.0      -318239.0      -319972.0
      -321702.0      -323348.0      -324979.0      -326884.0      -328843.0
      -330854.0      -332923.0      -334842.0      -336676.0      -338688.0
      -340797.0      -342763.0      -344404.0      -345739.0      -347029.0
      -348261.0      -349199.0      -349680.0      -349644.0      -349346.0
      -348995.0      -348355.0      -347306.0      -345804.0      -344016.0
      -342110.0      -340023.0      -337759.0      -335105.0      -332081.0
      -328852.0      -325572.0      -322526.0      -319691.0      -317162.0
      -314749.0      -312131.0      -309746.0      -307805.0      -306303.0
      -305380.0      -304882.0      -304779.0      -305114.0      -305946.0
      -307346.0      -309254.0      -311605.0      -314082.0      -316761.0
      -319764.0      -322744.0      -325805.0      -329011.0      -332209.0
      -335379.0      -338314.0      -340915.0      -343041.0      -344616.0
      -345681.0      -346105.0      -346117.0      -345716.0      -344816.0
      -343737.0      -342589.0      -341374.0      -339870.0      -338068.0
      -336111.0      -333800.0      -331265.0      -328947.0      -326814.0
      -324823.0      -323242.0      -321964.0      -321011.0      -320483.0
      -320331.0      -320657.0      -321195.0      -321643.0      -322051.0
      -322252.0      -322112.0      -321659.0      -320789.0      -320037.0
      -319589.0      -319022.0      -318385.0      -317408.0      -316200.0
      -315241.0      -314643.0      -314182.0      -313555.0      -312914.0
      -312257.0      -311560.0      -310736.0      -309940.0      -309585.0
      -309624.0      -310095.0      -310911.0      -312037.0      -313659.0
      -315758.0      -318072.0      -320225.0      -322389.0      -324743.0
      -327318.0      -330274.0      -333188.0      -335713.0      -337984.0
      -340298.0      -342716.0      -344984.0      -347193.0      -349420.0
      -351718.0      -353765.0      -355094.0      -355599.0      -355067.0
      -353906.0      -352676.0      -351400.0      -349805.0      -347756.0
      -345454.0      -343126.0      -340963.0      -338938.0      -336953.0
      -334891.0      -333117.0      -331823.0      -330882.0      -330264.0
      -329491.0      -328758.0      -328689.0      -329399.0      -330615.0
      -332105.0      -333546.0      -334721.0      -335886.0      -336956.0
      -337991.0      -339138.0      -340503.0      -341712.0      -342142.0
      -342185.0      -342329.0      -342874.0      -343506.0      -343576.0
      -342873.0      -341287.0      -338972.0      -336121.0      -332861.0
      -329639.0      -327023.0      -325170.0      -323690.0      -321693.0
      -319032.0      -316610.0      -314954.0      -313970.0      -312993.0
      -311226.0      -308699.0      -306153.0      -303806.0      -301341.0
      -298977.0      -297453.0      -297297.0      -298124.0      -299420.0
      -300994.0      -302604.0      -304254.0      -305551.0      -305744.0
      -304782.0      -303232.0      -301884.0      -301421.0      -301722.0
      -302105.0      -301817.0      -300702.0      -299523.0      -298793.0
      -298755.0      -299594.0      -301164.0      -303214.0      -305119.0
      -306091.0      -305734.0      -304261.0      -302643.0      -301868.0
      -302138.0      -303234.0      -305005.0      -307060.0      -309170.0
      -311705.0      -314772.0      -318370.0      -322283.0      -325727.0
      -328181.0      -329686.0      -330907.0      -332828.0      -336076.0
      -340336.0      -344817.0      -349628.0      -355515.0      -362400.0
      -369196.0      -375167.0      -379811.0      -382675.0      -384202.0
      -384796.0      -384557.0      -383683.0      -382567.0      -381418.0
      -379876.0      -378066.0      -376309.0      -374542.0      -372969.0
      -371843.0      -370908.0      -369398.0      -366577.0      -362572.0
      -358107.0      -353750.0      -349623.0      -345498.0      -341851.0
      -339469.0      -338171.0      -337366.0      -336618.0      -336193.0
      -336618.0      -337792.0      -339148.0      -340034.0      -340672.0
      -341627.0      -342872.0      -344265.0      -345784.0      -347232.0
      -348517.0      -349959.0      -351286.0      -352148.0      -352740.0
      -352651.0      -351495.0      -349632.0      -347549.0      -345570.0
      -343593.0      -341183.0      -337976.0      -334456.0      -331331.0
      -328499.0      -325755.0      -322834.0      -319812.0      -317348.0
      -315720.0      -314608.0      -313574.0      -312820.0      -312946.0
      -314394.0      -316922.0      -319612.0      -322085.0      -323861.0
      -324340.0      -323939.0      -323207.0      -322225.0      -321177.0
      -320790.0      -321517.0      -322721.0      -323336.0      -323118.0
      -322879.0      -323157.0      -323782.0      -324706.0      -325992.0
      -327592.0      -329298.0      -330549.0      -331116.0      -331543.0
      -332408.0      -333716.0      -334941.0      -335735.0      -336251.0
      -336806.0      -337620.0      -338215.0      -337597.0      -335653.0
      -333252.0      -330715.0      -327971.0      -325280.0      -322270.0
      -318755.0      -315389.0      -312669.0      -311144.0      -311285.0
      -312882.0      -315287.0      -318017.0      -320823.0      -323437.0
      -325826.0      -327789.0      -328808.0      -329151.0      -329239.0
      -329231.0      -329352.0      -329577.0      -329993.0      -330727.0
      -331584.0      -332153.0      -332471.0      -332721.0      -332774.0
      -332395.0      -331160.0      -328756.0      -325731.0      -322797.0
      -319515.0      -315832.0      -312377.0      -309532.0      -307335.0
      -305297.0      -303028.0      -299986.0      -296441.0      -293433.0
      -290977.0      -288404.0      -285490.0      -282792.0      -280904.0
      -280229.0      -280694.0      -281579.0      -282517.0      -283817.0
      -285695.0      -288178.0      -291794.0      -297090.0      -303473.0
      -309848.0      -315568.0      -320682.0      -325626.0      -330132.0
      -333965.0      -337130.0      -339567.0      -341740.0      -344071.0
      -346477.0      -348590.0      -350342.0      -351891.0      -353164.0
      -353950.0      -354152.0      -353724.0      -352716.0      -351532.0
      -350660.0      -350466.0      -350789.0      -351508.0      -352755.0
      -354117.0      -355351.0      -356200.0      -356167.0      -355324.0
      -353935.0      -352151.0      -350060.0      -347898.0      -345906.0
      -344331.0      -343655.0      -343600.0      -343664.0      -343584.0
      -342758.0      -341185.0      -339224.0      -336981.0      -334878.0
      -333514.0      -332736.0      -331989.0      -330709.0      -328385.0
      -325486.0      -322707.0      -320139.0      -317593.0      -315012.0
      -312567.0      -310291.0      -308277.0      -306633.0      -305219.0
      -303856.0      -302801.0      -302012.0      -301046.0      -300285.0
      -299962.0      -300018.0      -300683.0      -301517.0      -302503.0
      -304130.0      -306117.0      -308287.0      -310536.0      -312824.0
      -315561.0      -319186.0      -323631.0      -328230.0      -333104.0
      -338248.0      -342848.0      -346896.0      -350353.0      -353125.0
      -355759.0      -358387.0      -360455.0      -361406.0      -361554.0
      -361157.0      -359626.0      -356654.0      -352537.0      -348016.0
      -343851.0      -340177.0      -336841.0      -334029.0      -331735.0
      -329531.0      -327151.0      -324906.0      -323265.0      -322119.0
      -321115.0      -319522.0      -317269.0      -315094.0      -313163.0
      -311671.0      -310152.0      -308014.0      -305394.0      -302256.0
      -298759.0      -295590.0      -293406.0      -291902.0      -290759.0
      -289891.0      -289197.0      -289556.0      -291638.0      -295048.0
      -298947.0      -302980.0      -307182.0      -311565.0      -316491.0
      -321261.0      -325001.0      -327800.0      -330107.0      -332798.0
      -336305.0      -340489.0      -344650.0      -348370.0      -352011.0
      -355629.0      -358380.0      -359708.0      -359804.0      -358691.0
      -356463.0      -353074.0      -348815.0      -344485.0      -340848.0
      -338378.0      -336913.0      -336131.0      -335620.0      -334968.0
      -333786.0      -331761.0      -329027.0      -325971.0      -322922.0
      -319821.0      -316803.0      -314601.0      -313604.0      -313666.0
      -314668.0      -316477.0      -319016.0      -322433.0      -326414.0
      -330177.0      -333377.0      -335998.0      -337873.0      -339126.0
      -339975.0      -340215.0      -339843.0      -339137.0      -338402.0
      -337619.0      -336551.0      -335446.0      -334517.0      -333922.0
      -333862.0      -333833.0      -333428.0      -333143.0      -333426.0
      -334200.0      -335354.0      -337056.0      -339382.0      -342173.0
      -345108.0      -347622.0      -349585.0      -351095.0      -351982.0
      -352118.0      -351485.0      -350620.0      -350160.0      -350051.0
      -349834.0      -349321.0      -348920.0      -348893.0      -349011.0
