     0.05000000      -12345.00      -12345.00   3.804020e+09      -12345.00
   0.0005380000       659.9506      -743.0195      -12345.00      -12345.00
      -12345.00      -12345.00      -12345.00      -12345.00      -12345.00
      -12345.00      -12345.00      -12345.00      -12345.00      -12345.00
      -12345.00      -12345.00      -12345.00      -12345.00      -12345.00
      -12345.00      -12345.00      -12345.00      -12345.00      -12345.00
      -12345.00     -0.6019000       30.73820       1390.000       100.0000
       9.831100       126.5297      -12345.00       24.71000      -12345.00
      -12345.00      -12345.00      -12345.00      -12345.00      -12345.00
      -12345.00      -12345.00      -12345.00      -12345.00      -12345.00
       10652.99       270.3936       80.24371       95.80891      -12345.00
      -12345.00      -12345.00       0.000000       0.000000      -12345.00
      -12345.00      -12345.00      -12345.00      -12345.00      -12345.00
      -12345.00      -12345.00      -12345.00      -12345.00      -12345.00
      2019        39        12         7        31
        19         6    -12345    -12345     13200
    -12345    -12345    -12345    -12345    -12345
         1    -12345    -12345    -12345    -12345
    -12345    -12345    -12345    -12345    -12345
    -12345    -12345    -12345    -12345    -12345
    -12345    -12345    -12345    -12345    -12345
         1    -12345    -12345    -12345    -12345
MBAR    Mindanao, Philip
00      -12345  -12345  
-12345  -12345  -12345  
-12345  -12345  -12345  
-12345  -12345  -12345  
-12345  -12345  -12345  
-12345  -12345  BHZ     
II      -12345  Geotech 
[...]
      -764974.0      -765032.0      -765061.0      -765053.0      -765039.0
      -765060.0      -765083.0      -765075.0      -765086.0      -765120.0
      -765147.0      -765151.0      -765140.0      -765138.0      -765165.0
      -765185.0      -765183.0      -765186.0      -765185.0      -765181.0
      -765164.0      -765177.0      -765201.0      -765174.0      -765167.0
      -765191.0      -765191.0      -765178.0      -765157.0      -765143.0
      -765158.0      -765165.0      -765159.0      -765169.0      -765171.0
      -765133.0      -765114.0      -765120.0      -765110.0      -765115.0
      -765126.0      -765106.0      -765088.0      -765089.0      -765084.0
      -765081.0      -765057.0      -765024.0      -765009.0      -765011.0
      -765005.0      -764992.0      -765017.0      -765007.0      -764951.0
      -764912.0      -764890.0      -764890.0      -764884.0      -764865.0
      -764848.0      -764845.0      -764864.0      -764852.0      -764828.0
      -764812.0      -764802.0      -764830.0      -764851.0      -764856.0
      -764868.0      -764878.0      -764875.0      -764868.0      -764870.0
      -764861.0      -764870.0      -764896.0      -764900.0      -764894.0
      -764897.0      -764910.0      -764915.0      -764905.0      -764905.0
      -764918.0      -764916.0      -764911.0      -764901.0      -764882.0
      -764890.0      -764909.0      -764916.0      -764923.0      -764932.0
      -764935.0      -764924.0      -764933.0      -764960.0      -764965.0
      -764973.0      -764968.0      -764967.0      -764994.0      -765009.0
      -765028.0      -765058.0      -765078.0      -765061.0      -765036.0
      -765035.0      -765044.0      -765064.0      -765086.0      -765105.0
      -765103.0      -765098.0      -765113.0      -765128.0      -765125.0
      -765128.0      -765146.0      -765158.0      -765161.0      -765170.0
      -765190.0      -765201.0      -765195.0      -765178.0      -765175.0
      -765194.0      -765216.0      -765233.0      -765250.0      -765257.0
      -765255.0      -765252.0      -765248.0      -765268.0      -765277.0
      -765268.0      -765258.0      -765250.0      -765257.0      -765252.0
      -765233.0      -765206.0      -765196.0      -765203.0      -765192.0
      -765165.0      -765145.0      -765129.0      -765101.0      -765088.0
      -765061.0      -765014.0      -764979.0      -764948.0      -764941.0
      -764930.0      -764892.0      -764854.0      -764809.0      -764783.0
      -764773.0      -764753.0      -764742.0      -764734.0      -764731.0
      -764729.0      -764706.0      -764703.0      -764701.0      -764697.0
      -764713.0      -764713.0      -764714.0      -764733.0      -764754.0
      -764776.0      -764803.0      -764818.0      -764825.0      -764851.0
      -764872.0      -764891.0      -764924.0      -764940.0      -764950.0
      -764965.0      -764989.0      -765019.0      -765039.0      -765063.0
      -765084.0      -765102.0      -765119.0      -765107.0      -765123.0
      -765176.0      -765194.0      -765194.0      -765204.0      -765222.0
      -765236.0      -765253.0      -765275.0      -765299.0      -765303.0
      -765293.0      -765292.0      -765290.0      -765307.0      -765321.0
      -765323.0      -765338.0      -765325.0      -765311.0      -765319.0
      -765318.0      -765311.0      -765298.0      -765303.0      -765305.0
      -765285.0      -765250.0      -765222.0      -765199.0      -765153.0
      -765143.0      -765163.0      -765152.0      -765135.0      -765114.0
      -765065.0      -765023.0      -764992.0      -764941.0      -764906.0
      -764890.0      -764869.0      -764843.0      -764806.0      -764757.0
      -764689.0      -764625.0      -764612.0      -764605.0      -764563.0
      -764535.0      -764517.0      -764486.0      -764471.0      -764472.0
      -764443.0      -764406.0      -764414.0      -764437.0      -764454.0
      -764458.0      -764447.0      -764443.0      -764452.0      -764468.0
      -764491.0      -764499.0      -764500.0      -764523.0      -764549.0
      -764568.0      -764603.0      -764654.0      -764682.0      -764692.0
      -764710.0      -764732.0      -764752.0      -764787.0      -764822.0
      -764849.0      -764892.0      -764934.0      -764965.0      -764990.0
      -765032.0      -765083.0      -765137.0      -765178.0      -765210.0
      -765247.0      -765263.0      -765312.0      -765354.0      -765386.0
      -765420.0      -765440.0      -765482.0      -765488.0      -765482.0
      -765493.0      -765511.0      -765528.0      -765540.0      -765548.0
      -765534.0      -765510.0      -765486.0      -765484.0      -765488.0
      -765472.0      -765443.0      -765423.0      -765402.0      -765369.0
      -765321.0      -765255.0      -765220.0      -765204.0      -765174.0
      -765133.0      -765088.0      -765056.0      -765026.0      -764988.0
      -764948.0      -764919.0      -764889.0      -764874.0      -764852.0
      -764816.0      -764808.0      -764803.0      -764771.0      -764726.0
      -764704.0      -764701.0      -764690.0      -764671.0      -764652.0
      -764638.0      -764632.0      -764624.0      -764617.0      -764620.0
      -764636.0      -764652.0      -764660.0      -764685.0      -764708.0
      -764732.0      -764773.0      -764792.0      -764815.0      -764868.0
      -764919.0      -764955.0      -764981.0      -765017.0      -765033.0
      -765045.0      -765089.0      -765106.0      -765129.0      -765168.0
      -765205.0      -765241.0      -765255.0      -765284.0      -765292.0
      -765277.0      -765288.0      -765324.0      -765378.0      -765410.0
      -765424.0      -765430.0      -765416.0      -765421.0      -765445.0
      -765444.0      -765427.0      -765421.0      -765427.0      -765424.0
      -765405.0      -765404.0      -765411.0      -765398.0      -765377.0
      -765360.0      -765360.0      -765348.0      -765316.0      -765293.0
      -765280.0      -765280.0      -765278.0      -765249.0      -765201.0
      -765159.0      -765140.0      -765133.0      -765107.0      -765066.0
      -765053.0      -765053.0      -765017.0      -764956.0      -764922.0
      -764912.0      -764875.0      -764832.0      -764821.0      -764803.0
      -764779.0      -764763.0      -764740.0      -764722.0      -764708.0
      -764689.0      -764669.0      -764684.0      -764707.0      -764680.0
      -764661.0      -764676.0      -764679.0      -764676.0      -764679.0
      -764689.0      -764708.0      -764723.0      -764741.0      -764744.0
      -764722.0      -764740.0      -764762.0      -764772.0      -764811.0
      -764855.0      -764883.0      -764886.0      -764898.0      -764905.0
      -764910.0      -764945.0      -764975.0      -764994.0      -765008.0
      -765021.0      -765025.0      -765032.0      -765065.0      -765097.0
      -765115.0      -765112.0      -765104.0      -765108.0      -765115.0
      -765128.0      -765136.0      -765148.0      -765171.0      -765170.0
      -765146.0      -765144.0      -765127.0      -765095.0      -765107.0
      -765109.0      -765086.0      -765070.0      -765058.0      -765047.0
      -765028.0      -765007.0      -764991.0      -764978.0      -764959.0
      -764955.0      -764955.0      -764940.0      -764947.0      -764956.0
      -764951.0      -764943.0      -764931.0      -764941.0      -764966.0
      -764982.0      -764987.0      -764995.0      -765003.0      -765026.0
      -765059.0      -765072.0      -765085.0      -765093.0      -765100.0
      -765124.0      -765154.0      -765183.0      -765200.0      -765216.0
      -765250.0      -765272.0      -765274.0      -765293.0      -765321.0
      -765325.0      -765333.0      -765356.0      -765333.0      -765324.0
      -765350.0      -765356.0      -765360.0      -765340.0      -765319.0
      -765321.0      -765333.0      -765327.0      -765292.0      -765284.0
      -765277.0      -765253.0      -765249.0      -765250.0      -765239.0
      -765228.0      -765219.0      -765206.0      -765197.0      -765198.0
      -765173.0      -765137.0      -765123.0      -765106.0      -765080.0
      -765068.0      -765044.0      -765009.0      -765001.0      -764978.0
      -764922.0      -764901.0      -764896.0      -764867.0      -764831.0
      -764792.0      -764769.0      -764749.0      -764726.0      -764701.0
      -764664.0      -764648.0      -764639.0      -764632.0      -764621.0
      -764590.0      -764555.0      -764534.0      -764530.0      -764529.0
      -764517.0      -764486.0      -764482.0      -764487.0      -764483.0
      -764486.0      -764504.0      -764516.0      -764495.0      -764514.0
      -764547.0      -764561.0      -764578.0      -764601.0      -764638.0
      -764640.0      -764642.0      -764675.0      -764694.0      -764707.0
      -764733.0      -764765.0      -764779.0      -764792.0      -764823.0
      -764855.0      -764882.0      -764904.0      -764925.0      -764935.0
      -764947.0      -764976.0      -764997.0      -765006.0      -765016.0
      -765046.0      -765075.0      -765095.0      -765126.0      -765154.0
      -765169.0      -765182.0      -765208.0      -765234.0      -765261.0
      -765305.0      -765327.0      -765340.0      -765378.0      -765397.0
      -765403.0      -765433.0      -765451.0      -765444.0      -765454.0
      -765481.0      -765483.0      -765474.0      -765486.0      -765486.0
      -765491.0      -765506.0      -765494.0      -765477.0      -765456.0
      -765432.0      -765429.0      -765433.0      -765409.0      -765391.0
      -765378.0      -765337.0      -765317.0      -765307.0      -765278.0
      -765239.0      -765203.0      -765168.0      -765124.0      -765092.0
      -765059.0      -765029.0      -764992.0      -764945.0      -764915.0
      -764886.0      -764866.0      -764857.0      -764820.0      -764776.0
      -764766.0      -764761.0      -764752.0      -764743.0      -764716.0
      -764691.0      -764689.0      -764684.0      -764670.0      -764665.0
      -764667.0      -764668.0      -764658.0      -764662.0      -764672.0
      -764663.0      -764687.0      -764714.0      -764731.0      -764746.0
      -764738.0      -764752.0      -764769.0      -764784.0      -764809.0
      -764853.0      -764872.0      -764866.0      -764900.0      -764930.0
      -764956.0      -764984.0      -764992.0      -765015.0      -765025.0
      -765047.0      -765112.0      -765146.0      -765151.0      -765159.0
      -765179.0      -765214.0      -765231.0      -765249.0      -765283.0
      -765314.0      -765331.0      -765324.0      -765312.0      -765317.0
      -765314.0      -765311.0      -765334.0      -765351.0      -765354.0
      -765366.0      -765346.0      -765303.0      -765288.0      -765278.0
      -765269.0      -765267.0      -765269.0      -765263.0      -765254.0
      -765267.0      -765253.0      -765220.0      -765212.0      -765209.0
      -765217.0      -765232.0      -765224.0      -765204.0      -765200.0
      -765215.0      -765214.0      -765208.0      -765204.0      -765187.0
      -765192.0      -765205.0      -765208.0      -765203.0      -765192.0
      -765178.0      -765164.0      -765150.0      -765128.0      -765107.0
      -765090.0      -765066.0      -765038.0      -765015.0      -764975.0
      -764945.0      -764924.0      -764888.0      -764866.0      -764833.0
      -764806.0      -764782.0      -764757.0      -764747.0      -764714.0
      -764690.0      -764693.0      -764704.0      -764706.0      -764702.0
      -764708.0      -764689.0      -764679.0      -764693.0      -764687.0
      -764694.0      -764696.0      -764672.0      -764670.0      -764678.0
      -764655.0      -764626.0      -764622.0      -764640.0      -764674.0
      -764689.0      -764694.0      -764712.0      -764730.0      -764760.0
      -764781.0      -764797.0      -764823.0      -764838.0      -764858.0
      -764909.0      -764987.0      -765054.0      -765130.0      -765227.0
      -765342.0      -765459.0      -765535.0      -765640.0      -765729.0
      -765745.0      -765757.0      -765733.0      -765703.0      -765699.0
      -765655.0      -765591.0      -765540.0      -765503.0      -765490.0
      -765474.0      -765454.0      -765446.0      -765438.0      -765434.0
      -765449.0      -765463.0      -765451.0      -765418.0      -765366.0
      -765310.0      -765259.0      -765217.0      -765219.0      -765248.0
      -765281.0      -765313.0      -765335.0      -765359.0      -765404.0
      -765460.0      -765542.0      -765651.0      -765757.0      -765924.0
      -766132.0      -766336.0      -766581.0      -766834.0      -767069.0
      -767297.0      -767491.0      -767619.0      -767666.0      -767616.0
      -767506.0      -767369.0      -767182.0      -766978.0      -766790.0
      -766608.0      -766457.0      -766336.0      -766206.0      -766060.0
      -765880.0      -765645.0      -765399.0      -765156.0      -764913.0
      -764697.0      -764487.0      -764311.0      -764173.0      -764040.0
      -763958.0      -763935.0      -763941.0      -763967.0      -763997.0
      -764027.0      -764044.0      -764028.0      -763989.0      -763937.0
      -763914.0      -763948.0      -764006.0      -764090.0      -764186.0
      -764240.0      -764259.0      -764243.0      -764182.0      -764087.0
      -763991.0      -763902.0      -763808.0      -763734.0      -763711.0
      -763755.0      -763838.0      -763944.0      -764094.0      -764240.0
      -764353.0      -764442.0      -764471.0      -764457.0      -764401.0
      -764320.0      -764250.0      -764166.0      -764097.0      -764071.0
      -764050.0      -764032.0      -764020.0      -763995.0      -763942.0
      -763876.0      -763872.0      -763908.0      -763961.0      -764048.0
      -764167.0      -764314.0      -764416.0      -764494.0      -764545.0
      -764537.0      -764490.0      -764425.0      -764375.0      -764334.0
      -764332.0      -764360.0      -764412.0      -764517.0      -764655.0
      -764793.0      -764935.0      -765110.0      -765281.0      -765398.0
      -765458.0      -765487.0      -765471.0      -765372.0      -765233.0
      -765081.0      -764909.0      -764693.0      -764463.0      -764264.0
      -764085.0      -763930.0      -763818.0      -763779.0      -763800.0
      -763841.0      -763879.0      -763916.0      -763953.0      -763964.0
      -763954.0      -763933.0      -763881.0      -763804.0      -763731.0
      -763658.0      -763571.0      -763513.0      -763492.0      -763504.0
      -763588.0      -763728.0      -763907.0      -764099.0      -764301.0
      -764523.0      -764742.0      -764951.0      -765114.0      -765228.0
      -765297.0      -765305.0      -765267.0      -765219.0      -765185.0
      -765154.0      -765132.0      -765112.0      -765104.0      -765111.0
      -765122.0      -765168.0      -765223.0      -765277.0      -765341.0
      -765418.0      -765498.0      -765538.0      -765560.0      -765553.0
      -765508.0      -765469.0      -765427.0      -765351.0      -765257.0
      -765164.0      -765069.0      -764975.0      -764891.0      -764840.0
      -764810.0      -764774.0      -764767.0      -764803.0      -764826.0
      -764831.0      -764838.0      -764829.0      -764824.0      -764830.0
      -764843.0      -764905.0      -764982.0      -765066.0      -765191.0
      -765333.0      -765464.0      -765580.0      -765680.0      -765750.0
      -765795.0      -765814.0      -765800.0      -765786.0      -765777.0
      -765752.0      -765715.0      -765688.0      -765635.0      -765553.0
      -765506.0      -765485.0      -765456.0      -765432.0      -765432.0
      -765447.0      -765453.0      -765448.0      -765438.0      -765409.0
      -765371.0      -765303.0      -765187.0      -765052.0      -764901.0
      -764714.0      -764502.0      -764309.0      -764137.0      -763971.0
      -763830.0      -763729.0      -763645.0      -763572.0      -763542.0
      -763571.0      -763648.0      -763765.0      -763902.0      -764057.0
      -764236.0      -764411.0      -764562.0      -764677.0      -764763.0
      -764817.0      -764844.0      -764863.0      -764867.0      -764860.0
      -764850.0      -764835.0      -764810.0      -764798.0      -764790.0
      -764796.0      -764856.0      -764938.0      -765030.0      -765154.0
      -765280.0      -765394.0      -765499.0      -765580.0      -765655.0
      -765739.0      -765832.0      -765919.0      -765991.0      -766052.0
      -766109.0      -766153.0      -766173.0      -766204.0      -766243.0
      -766277.0      -766314.0      -766365.0      -766435.0      -766476.0
      -766486.0      -766510.0      -766524.0      -766483.0      -766421.0
      -766361.0      -766291.0      -766221.0      -766146.0      -766074.0
      -766032.0      -766008.0      -765986.0      -765988.0      -766035.0
      -766086.0      -766141.0      -766210.0      -766264.0      -766307.0
      -766308.0      -766297.0      -766287.0      -766246.0      -766185.0
      -766119.0      -766043.0      -765923.0      -765802.0      -765690.0
      -765582.0      -765481.0      -765381.0      -765321.0      -765262.0
      -765206.0      -765197.0      -765195.0      -765200.0      -765202.0
      -765187.0      -765195.0      -765189.0      -765134.0      -765083.0
      -765032.0      -764967.0      -764893.0      -764801.0      -764753.0
      -764754.0      -764745.0      -764758.0      -764790.0      -764805.0
      -764815.0      -764848.0      -764930.0      -765015.0      -765078.0
      -765140.0      -765208.0      -765286.0      -765335.0      -765359.0
      -765388.0      -765396.0      -765384.0      -765355.0      -765319.0
      -765311.0      -765305.0      -765270.0      -765237.0      -765225.0
      -765203.0      -765169.0      -765132.0      -765109.0      -765095.0
      -765080.0      -765080.0      -765082.0      -765092.0      -765121.0
      -765128.0      -765128.0      -765149.0      -765168.0      -765180.0
      -765191.0      -765207.0      -765207.0      -765195.0      -765177.0
      -765151.0      -765143.0      -765137.0      -765146.0      -765179.0
