     0.02500000      -12345.00      -12345.00   3.371710e+10      -12345.00
   0.0005380000       659.9755      -161.0195      -12345.00      -12345.00
      -12345.00      -12345.00      -12345.00      -12345.00      -12345.00
      -12345.00      -12345.00      -12345.00      -12345.00      -12345.00
      -12345.00      -12345.00      -12345.00      -12345.00      -12345.00
      -12345.00      -12345.00      -12345.00      -12345.00      -12345.00
      -12345.00       24.97350       121.4971       159.7000      0.3000000
       9.831100       126.5297      -12345.00       24.71000      -12345.00
      -12345.00      -12345.00      -12345.00      -12345.00      -12345.00
      -12345.00      -12345.00      -12345.00      -12345.00      -12345.00
       1757.075       343.0008       161.4906       15.80245      -12345.00
      -12345.00      -12345.00       0.000000       0.000000      -12345.00
      -12345.00      -12345.00      -12345.00      -12345.00      -12345.00
      -12345.00      -12345.00      -12345.00      -12345.00      -12345.00
      2019        39        11        57        49
        19         6    -12345    -12345     26400
    -12345    -12345    -12345    -12345    -12345
         1    -12345    -12345    -12345    -12345
    -12345    -12345    -12345    -12345    -12345
    -12345    -12345    -12345    -12345    -12345
    -12345    -12345    -12345    -12345    -12345
         1    -12345    -12345    -12345    -12345
TATO    Mindanao, Philip
10      -12345  -12345  
-12345  -12345  -12345  
-12345  -12345  -12345  
-12345  -12345  -12345  
-12345  -12345  -12345  
-12345  -12345  BHZ     
IU      -12345  Streckei
[...]
       84967.00       82510.00       87813.00       96011.00       91367.00
       79595.00       97521.00       95948.00       89135.00       95745.00
       100031.0       107608.0       98478.00       105559.0       113331.0
       106987.0       121290.0       121079.0       112037.0       119415.0
       130857.0       136743.0       131842.0       133660.0       142954.0
       148990.0       150193.0       157523.0       167716.0       162187.0
       161595.0       179227.0       174197.0       170359.0       197534.0
       184863.0       190990.0       212371.0       195499.0       217727.0
       208011.0       210282.0       238771.0       210995.0       229253.0
       238156.0       218302.0       243161.0       239085.0       218883.0
       235793.0       235244.0       219633.0       235675.0       236453.0
       207279.0       227079.0       231727.0       191428.0       216752.0
       211078.0       183457.0       196825.0       183637.0       177426.0
       168797.0       157710.0       150481.0       137606.0       135066.0
       123722.0       113821.0       107727.0       91599.00       91612.00
       82612.00       60338.00       60121.00       54496.00       41880.00
       32208.00       19631.00       22339.00       26142.00      -6419.000
      -13296.00       9597.000      -24900.00      -37889.00      -11784.00
      -39238.00      -54808.00      -39657.00      -58125.00      -58170.00
      -45801.00      -64171.00      -69663.00      -73729.00      -69234.00
      -69246.00      -84448.00      -71257.00      -82346.00      -88255.00
      -67686.00      -78154.00      -79030.00      -69149.00      -75079.00
      -77776.00      -66895.00      -59971.00      -67309.00      -61436.00
      -41270.00      -45966.00      -41701.00      -20851.00      -38943.00
      -26071.00       3018.000      -18466.00      -29130.00       5160.000
       32732.00      -651.0000      -5787.000       43321.00       40510.00
       11672.00       40377.00       68978.00       42395.00       41560.00
       71132.00       75588.00       76884.00       76028.00       89075.00
       105133.0       85652.00       99192.00       127496.0       113135.0
       115284.0       134662.0       136744.0       140466.0       143711.0
       154334.0       162117.0       156830.0       172088.0       175111.0
       176595.0       187843.0       183500.0       191471.0       194927.0
       189150.0       192236.0       200061.0       190260.0       185401.0
       216603.0       204709.0       184473.0       207322.0       194249.0
       190984.0       210403.0       189066.0       181975.0       199102.0
       187666.0       179722.0       188529.0       179482.0       169286.0
       174486.0       178815.0       169477.0       160996.0       165071.0
       167525.0       166450.0       155520.0       148097.0       160387.0
       160959.0       147085.0       139263.0       149680.0       157776.0
       140905.0       139139.0       146514.0       134925.0       141261.0
       144375.0       124022.0       144186.0       153437.0       124542.0
       128073.0       135451.0       142507.0       137956.0       121129.0
       136342.0       141217.0       132092.0       129277.0       126223.0
       127815.0       127952.0       121239.0       114840.0       127503.0
       112820.0       109171.0       122897.0       88943.00       119629.0
       115527.0       62925.00       123762.0       101346.0       57794.00
       115505.0       85324.00       54242.00       82800.00       75791.00
       63388.00       58031.00       47318.00       52806.00       48567.00
       39856.00       41426.00       25429.00       28311.00       31407.00
       19275.00       16569.00       18907.00       1858.000       3365.000
       16830.00      -7451.000       714.0000       127.0000      -10410.00
      -8206.000      -16046.00      -737.0000      -13803.00      -21683.00
      -4528.000      -13033.00      -20395.00      -20757.00      -6493.000
      -6401.000      -20407.00      -14324.00      -12984.00      -1477.000
      -8159.000      -9857.000       2885.000      -11469.00       5700.000
       7204.000      -4628.000       4693.000       2110.000       13683.00
       14419.00       10194.00       20293.00       21273.00       23763.00
       31056.00       29143.00       30622.00       37284.00       35921.00
       39919.00       49898.00       46568.00       48819.00       66341.00
       54037.00       52872.00       73886.00       65380.00       74741.00
       81492.00       69802.00       84621.00       97823.00       96222.00
       72093.00       92958.00       143296.0       96632.00       82010.00
       142639.0       136153.0       108102.0       123519.0       154173.0
       147159.0       126676.0       149710.0       156850.0       159717.0
       163260.0       155691.0       179019.0       173814.0       172658.0
       192913.0       179519.0       196475.0       201928.0       183175.0
       213162.0       205523.0       204297.0       232123.0       203712.0
       210917.0       233826.0       221664.0       224697.0       232045.0
       223925.0       222627.0       235150.0       230578.0       228551.0
       223793.0       220805.0       236708.0       219330.0       205730.0
       225427.0       215878.0       207893.0       208973.0       194746.0
       198305.0       197061.0       196604.0       183392.0       167477.0
       170499.0       155610.0       159950.0       149467.0       128639.0
       133760.0       124977.0       119701.0       111463.0       100093.0
       88448.00       81271.00       82908.00       62818.00       54079.00
       49842.00       37335.00       38188.00       19417.00       10437.00
       8946.000       3815.000      -13254.00      -26418.00      -11879.00
      -53419.00      -47795.00      -38601.00      -62108.00      -46788.00
      -92084.00      -68085.00      -62286.00      -103578.0      -76189.00
      -99727.00      -91306.00      -86464.00      -116100.0      -84975.00
      -88655.00      -102915.0      -76531.00      -90272.00      -99535.00
      -72951.00      -77912.00      -85376.00      -59715.00      -52214.00
      -60556.00      -48351.00      -36458.00      -22323.00      -17622.00
      -15498.00       2340.000       4533.000       21190.00       38184.00
       36405.00       58696.00       71227.00       87438.00       109852.0
       107230.0       130727.0       143159.0       144922.0       173498.0
       173656.0       184617.0       198182.0       200535.0       227830.0
       224241.0       241863.0       262539.0       245903.0       275121.0
       272138.0       276752.0       306103.0       266051.0       293473.0
       303826.0       280767.0       312836.0       271478.0       296396.0
       304359.0       257434.0       300017.0       258856.0       259867.0
       275127.0       223136.0       247664.0       222515.0       197805.0
       212821.0       193537.0       176801.0       159602.0       151600.0
       136344.0       125430.0       118244.0       96266.00       85832.00
       66930.00       53605.00       51389.00       28021.00       7244.000
       1841.000      -2862.000      -21817.00      -29135.00      -35729.00
      -50486.00      -45781.00      -59262.00      -63396.00      -56226.00
      -67461.00      -62570.00      -60420.00      -68450.00      -58847.00
      -56160.00      -57353.00      -38420.00      -44760.00      -45875.00
      -22951.00      -28162.00      -28226.00      -15427.00      -6374.000
      -1558.000       3526.000       21823.00       18830.00       31167.00
       51618.00       44179.00       73232.00       80538.00       80248.00
       102241.0       96514.00       119043.0       128338.0       119702.0
       142348.0       144003.0       143061.0       159781.0       150761.0
       149492.0       173592.0       168064.0       145133.0       155806.0
       172690.0       149559.0       137189.0       164070.0       152256.0
       122948.0       157918.0       155780.0       121819.0       146842.0
       145113.0       141898.0       156769.0       139291.0       154702.0
       175666.0       154297.0       156411.0       178237.0       170650.0
       154249.0       181541.0       184857.0       152897.0       190506.0
       206716.0       181766.0       190524.0       216713.0       217980.0
       180976.0       211508.0       237820.0       192215.0       207718.0
       243943.0       216326.0       203635.0       244985.0       237725.0
       211230.0       246743.0       247958.0       239767.0       258958.0
       243787.0       251767.0       257161.0       238288.0       260982.0
       253440.0       233831.0       238349.0       223520.0       243969.0
       225410.0       204487.0       222625.0       186667.0       186789.0
       171558.0       169572.0       177438.0       124619.0       148085.0
       143594.0       107236.0       105834.0       96603.00       106888.0
       55171.00       47872.00       74621.00       17606.00       24695.00
       14333.00       18.00000       16899.00      -32373.00      -23192.00
      -14507.00      -59865.00      -56030.00      -54276.00      -89732.00
      -74651.00      -83523.00      -121730.0      -97214.00      -119182.0
      -144831.0      -127222.0      -139923.0      -155655.0      -142682.0
      -138845.0      -156087.0      -130382.0      -118877.0      -139233.0
      -108229.0      -118368.0      -115365.0      -81923.00      -116346.0
      -88668.00      -68864.00      -73176.00      -58383.00      -49480.00
      -28750.00      -35327.00      -16904.00      -6386.000      -3435.000
       1701.000       24664.00       26944.00       19337.00       58701.00
       47309.00       52818.00       69092.00       60187.00       69129.00
       76466.00       79473.00       64680.00       76818.00       100276.0
       81204.00       86362.00       99846.00       78471.00       78454.00
       82977.00       64501.00       59525.00       63443.00       40834.00
       37193.00       38823.00       31973.00       39008.00       16922.00
       15504.00       10587.00       14518.00       13680.00      -16963.00
       13718.00      -5831.000      -38175.00      -21103.00      -22034.00
      -31430.00      -49358.00      -31278.00      -22860.00      -33945.00
      -35420.00      -34067.00      -36631.00      -51026.00      -42445.00
      -49445.00      -50835.00      -39618.00      -45274.00      -33804.00
      -24057.00      -10279.00      -2990.000       2948.000       29980.00
       39322.00       47880.00       68843.00       82360.00       89149.00
       102587.0       119274.0       114603.0       116070.0       128922.0
       131827.0       140706.0       154330.0       169816.0       183648.0
       195521.0       204643.0       199567.0       213753.0       219213.0
       205739.0       223966.0       219970.0       230002.0       253441.0
       253709.0       278420.0       276957.0       290395.0       312009.0
       310300.0       329396.0       331671.0       346428.0       363710.0
       359552.0       357095.0       357798.0       360784.0       347256.0
       346051.0       341854.0       331402.0       330807.0       315468.0
       317098.0       308029.0       300396.0       299781.0       274986.0
       288869.0       289713.0       284629.0       305423.0       297634.0
       311277.0       321896.0       318129.0       332694.0       331018.0
       328198.0       323894.0       317318.0       322167.0       318696.0
       315871.0       320489.0       328718.0       351631.0       341662.0
       333968.0       361525.0       351814.0       346169.0       343287.0
       339285.0       342345.0       318555.0       316816.0       309294.0
       297323.0       299580.0       276135.0       277191.0       286668.0
       281048.0       294061.0       297031.0       304533.0       317319.0
       314265.0       322463.0       318675.0       311031.0       317953.0
       301428.0       294133.0       296701.0       279220.0       269609.0
       265664.0       259029.0       248899.0       239709.0       223407.0
       209855.0       206176.0       172104.0       155814.0       146910.0
       124477.0       117119.0       87400.00       93332.00       94374.00
       72492.00       83522.00       70955.00       66120.00       62084.00
       34756.00       30142.00       18839.00      -23514.00      -40107.00
      -43152.00      -73685.00      -92269.00      -107430.0      -142166.0
      -171268.0      -203966.0      -243526.0      -263012.0      -289065.0
      -326625.0      -347689.0      -363595.0      -385768.0      -396413.0
      -386370.0      -396136.0      -407093.0      -411449.0      -421072.0
      -400600.0      -403631.0      -399772.0      -374579.0      -400890.0
      -389105.0      -366546.0      -379661.0      -364816.0      -355926.0
      -345530.0      -342057.0      -343935.0      -324367.0      -316160.0
      -311763.0      -301564.0      -295120.0      -292747.0      -288794.0
      -286650.0      -281369.0      -271316.0      -266282.0      -256155.0
      -232136.0      -211353.0      -193367.0      -166933.0      -157206.0
      -133237.0      -109553.0      -102651.0      -76425.00      -63723.00
      -41761.00      -24197.00      -14800.00       2588.000      -5366.000
       5972.000       10248.00       7403.000       20353.00       11843.00
       26011.00       30285.00       9662.000       21496.00       21305.00
       7288.000       6030.000      -9184.000      -14829.00      -8704.000
      -12966.00      -13830.00      -19191.00      -15601.00      -20394.00
      -42075.00      -31559.00      -36005.00      -56401.00      -52167.00
      -67466.00      -78088.00      -75262.00      -80354.00      -86604.00
      -102932.0      -107996.0      -116225.0      -118366.0      -119421.0
      -132260.0      -118548.0      -128981.0      -137634.0      -123826.0
      -122852.0      -103995.0      -98679.00      -91661.00      -77279.00
      -77380.00      -61629.00      -54410.00      -51924.00      -38542.00
      -25157.00      -15081.00      -2142.000       23120.00       33641.00
       49586.00       68416.00       66147.00       84069.00       98151.00
       101852.0       121210.0       124878.0       147254.0       171273.0
       161045.0       184086.0       198971.0       191818.0       207994.0
       200385.0       203035.0       229615.0       215708.0       218301.0
       238107.0       223781.0       218728.0       217361.0       205375.0
       184013.0       169538.0       169849.0       158963.0       141556.0
       127447.0       125350.0       121887.0       122707.0       129367.0
       131726.0       136867.0       134840.0       137950.0       149676.0
       153714.0       153097.0       161050.0       160960.0       161591.0
       157572.0       137500.0       141669.0       132501.0       128466.0
       145490.0       131172.0       133596.0       148791.0       138725.0
       128215.0       134077.0       130832.0       119728.0       123876.0
       107137.0       103013.0       107159.0       86998.00       85764.00
       76888.00       70807.00       70200.00       66854.00       69724.00
       60967.00       68024.00       62344.00       52469.00       57235.00
       46746.00       37398.00       27137.00       26543.00       25395.00
       21585.00       16133.00       10474.00       26682.00       11420.00
      -326.0000       11415.00      -4019.000      -3667.000       4512.000
       13232.00       30919.00       33742.00       49544.00       61245.00
       57876.00       86457.00       109200.0       107342.0       115597.0
       126656.0       146988.0       158921.0       166886.0       198100.0
       206363.0       211172.0       240260.0       239358.0       235052.0
       250513.0       249770.0       231396.0       217464.0       223014.0
       205253.0       176080.0       183359.0       171406.0       141775.0
       138309.0       131500.0       119248.0       101541.0       95055.00
       100173.0       69714.00       68746.00       94872.00       75702.00
       65069.00       78463.00       83973.00       76184.00       76192.00
       76874.00       69562.00       75657.00       68106.00       69581.00
       68730.00       57063.00       66428.00       52843.00       52149.00
       55668.00       43274.00       58623.00       55614.00       46262.00
       49898.00       51610.00       53656.00       53308.00       61434.00
       65475.00       78102.00       97491.00       106819.0       121673.0
       137462.0       146091.0       154885.0       170655.0       194083.0
       216032.0       223442.0       234730.0       260081.0       268644.0
       270057.0       286049.0       294990.0       297801.0       310121.0
       317955.0       323626.0       347064.0       370840.0       378976.0
       393962.0       410453.0       415090.0       424251.0       433198.0
       442446.0       458928.0       467632.0       476916.0       495071.0
       502633.0       502539.0       508705.0       506663.0       507336.0
       505172.0       482085.0       488964.0       493745.0       475195.0
       478357.0       471676.0       464764.0       452350.0       437413.0
       442757.0       423068.0       399685.0       382356.0       359331.0
       335150.0       293454.0       268083.0       250937.0       214918.0
       188429.0       177364.0       150487.0       123036.0       112001.0
       82263.00       68923.00       56198.00       28833.00       24806.00
       7239.000       161.0000      -7670.000      -26670.00      -27813.00
      -38824.00      -46803.00      -63955.00      -72498.00      -71680.00
      -93097.00      -101164.0      -99629.00      -104413.0      -124925.0
      -127356.0      -123646.0      -141306.0      -132582.0      -138555.0
      -141370.0      -119744.0      -136877.0      -138534.0      -111407.0
      -110356.0      -104442.0      -102353.0      -111799.0      -88970.00
      -90892.00      -117649.0      -103873.0      -98756.00      -115973.0
      -117072.0      -123237.0      -133584.0      -130909.0      -144671.0
