     0.02500000      -12345.00      -12345.00   2.447790e+09      -12345.00
   0.0005380000       659.9755      -719.0195      -12345.00      -12345.00
      -12345.00      -12345.00      -12345.00      -12345.00      -12345.00
      -12345.00      -12345.00      -12345.00      -12345.00      -12345.00
      -12345.00      -12345.00      -12345.00      -12345.00      -12345.00
      -12345.00      -12345.00      -12345.00      -12345.00      -12345.00
      -12345.00      -77.84920       166.7572       48.00000       2.000000
       9.831100       126.5297      -12345.00       24.71000      -12345.00
      -12345.00      -12345.00      -12345.00      -12345.00      -12345.00
      -12345.00      -12345.00      -12345.00      -12345.00      -12345.00
       10047.82       172.1364       320.4704       90.36618      -12345.00
      -12345.00      -12345.00       0.000000       0.000000      -12345.00
      -12345.00      -12345.00      -12345.00      -12345.00      -12345.00
      -12345.00      -12345.00      -12345.00      -12345.00      -12345.00
      2019        39        12         7         7
        19         6    -12345    -12345     26400
    -12345    -12345    -12345    -12345    -12345
         1    -12345    -12345    -12345    -12345
    -12345    -12345    -12345    -12345    -12345
    -12345    -12345    -12345    -12345    -12345
    -12345    -12345    -12345    -12345    -12345
         1    -12345    -12345    -12345    -12345
SBA     Mindanao, Philip
10      -12345  -12345  
-12345  -12345  -12345  
-12345  -12345  -12345  
-12345  -12345  -12345  
-12345  -12345  -12345  
-12345  -12345  BHZ     
IU      -12345  Streckei
[...]
       1788.000       1863.000       1800.000       1770.000       1782.000
       2045.000       2032.000       1926.000       1918.000       2153.000
       2085.000       1768.000       2190.000       2652.000       2236.000
       2155.000       2701.000       2290.000       2449.000       2734.000
       2446.000       2851.000       2724.000       3283.000       3175.000
       2424.000       3359.000       3131.000       2839.000       3745.000
       3734.000       3005.000       3104.000       3876.000       3579.000
       3077.000       3579.000       4119.000       3643.000       3163.000
       3944.000       3839.000       3181.000       3905.000       3704.000
       3359.000       3780.000       3541.000       3590.000       3492.000
       3088.000       3313.000       3621.000       3154.000       3084.000
       3454.000       2690.000       2892.000       3248.000       2401.000
       2922.000       2860.000       2298.000       2687.000       2507.000
       2560.000       2633.000       2358.000       2305.000       2482.000
       2439.000       2323.000       2531.000       2326.000       2313.000
       2475.000       2399.000       2730.000       2630.000       2407.000
       2831.000       2735.000       2668.000       3071.000       2736.000
       2764.000       3049.000       2725.000       3147.000       3304.000
       3109.000       3240.000       3103.000       3296.000       3231.000
       3395.000       3339.000       3131.000       3631.000       3220.000
       3317.000       3465.000       3224.000       3591.000       3142.000
       3123.000       3839.000       3361.000       2838.000       3559.000
       3329.000       2672.000       3229.000       3439.000       3190.000
       2929.000       2793.000       3186.000       3001.000       2603.000
       2876.000       3009.000       2799.000       2417.000       2811.000
       2684.000       1929.000       2405.000       2441.000       2336.000
       2411.000       2118.000       2142.000       2089.000       1763.000
       1727.000       2149.000       1788.000       1882.000       2258.000
       1440.000       1658.000       2457.000       1795.000       1656.000
       2607.000       2259.000       2074.000       2026.000       1999.000
       2768.000       1888.000       2153.000       3494.000       2425.000
       2394.000       3305.000       2481.000       2672.000       3269.000
       2527.000       3235.000       3905.000       2765.000       3231.000
       3914.000       2869.000       3550.000       4004.000       3369.000
       4063.000       3447.000       3220.000       4199.000       3389.000
       3466.000       4237.000       3389.000       3638.000       3912.000
       2938.000       3494.000       3653.000       2462.000       3386.000
       4112.000       2346.000       2918.000       3415.000       2023.000
       2924.000       2756.000       2116.000       3056.000       2224.000
       1686.000       2654.000       1833.000       1562.000       2579.000
       1525.000       1529.000       2261.000       948.0000       1080.000
       1989.000       892.0000       730.0000       1551.000       682.0000
       798.0000       1010.000       50.00000       1032.000       519.0000
      -793.0000       980.0000       609.0000      -862.0000       570.0000
       137.0000      -691.0000       410.0000      -224.0000      -119.0000
       349.0000      -447.0000       173.0000       151.0000      -382.0000
      -120.0000       17.00000       368.0000       181.0000       7.000000
       226.0000       688.0000       482.0000      -246.0000       1130.000
       1090.000       171.0000       1529.000       1083.000       837.0000
       1694.000       1326.000       1431.000       2027.000       2221.000
       1591.000       2041.000       2742.000       2310.000       2534.000
       2507.000       2885.000       3348.000       2590.000       3207.000
       3716.000       2707.000       2938.000       3316.000       3642.000
       3988.000       3188.000       3576.000       3816.000       3176.000
       3815.000       4109.000       3739.000       3499.000       3802.000
       4100.000       3604.000       3869.000       4026.000       3737.000
       3410.000       3586.000       4235.000       3144.000       3255.000
       3528.000       2022.000       2356.000       3350.000       2191.000
       767.0000       1680.000       1310.000       118.0000       384.0000
      -306.0000      -712.0000      -1174.000      -1654.000      -1493.000
      -2137.000      -2531.000      -3134.000      -3485.000      -2907.000
      -3780.000      -4081.000      -3316.000      -4422.000      -4787.000
      -4069.000      -4695.000      -4907.000      -4406.000      -4574.000
      -5025.000      -4642.000      -4205.000      -4908.000      -4744.000
      -4352.000      -4391.000      -3875.000      -4046.000      -3542.000
      -3534.000      -3756.000      -2836.000      -2739.000      -1922.000
      -1709.000      -2092.000      -786.0000      -662.0000      -906.0000
       551.0000       648.0000       627.0000       1604.000       1597.000
       2051.000       2735.000       2960.000       3047.000       3631.000
       3620.000       3863.000       4962.000       4321.000       5079.000
       5711.000       4979.000       6357.000       6459.000       6240.000
       7417.000       7231.000       7632.000       7861.000       7837.000
       8813.000       8506.000       8851.000       9383.000       9148.000
       9319.000       9085.000       9837.000       9720.000       8825.000
       9862.000       9612.000       9233.000       9436.000       8864.000
       9720.000       8994.000       8441.000       9470.000       8627.000
       8411.000       8529.000       8255.000       7989.000       7820.000
       8141.000       7286.000       7360.000       7648.000       6356.000
       6900.000       6985.000       6236.000       6480.000       6226.000
       6448.000       5697.000       5790.000       6614.000       5406.000
       5436.000       6212.000       5848.000       5509.000       5761.000
       5784.000       5467.000       5627.000       5795.000       5374.000
       5603.000       5475.000       4639.000       5642.000       5215.000
       4341.000       5279.000       4605.000       4378.000       4776.000
       4153.000       4059.000       4582.000       4083.000       3528.000
       4766.000       4426.000       3265.000       4222.000       4326.000
       3747.000       3989.000       3802.000       4291.000       4429.000
       3323.000       3776.000       4363.000       3917.000       3625.000
       3866.000       3920.000       3526.000       3565.000       3693.000
       4243.000       3424.000       2850.000       4426.000       3705.000
       2944.000       3970.000       3274.000       3332.000       3548.000
       2988.000       3479.000       2728.000       2702.000       2968.000
       2406.000       2348.000       1869.000       2202.000       1619.000
       1095.000       1358.000       727.0000       1313.000       962.0000
       96.00000       609.0000       90.00000       261.0000       256.0000
      -244.0000       542.0000      -340.0000      -310.0000       425.0000
      -560.0000      -601.0000      -204.0000       51.00000      -445.0000
      -466.0000       77.00000      -445.0000      -276.0000      -297.0000
      -122.0000       118.0000      -756.0000       630.0000       565.0000
      -1138.000       915.0000       646.0000      -825.0000       1160.000
       870.0000      -208.0000       1232.000       1327.000       248.0000
       1135.000       1586.000       748.0000       1646.000       1865.000
       1258.000       1900.000       1940.000       1843.000       1722.000
       2315.000       2878.000       2114.000       3033.000       3432.000
       2633.000       3536.000       3937.000       3675.000       4158.000
       4477.000       4359.000       4456.000       4925.000       4814.000
       4904.000       5392.000       4740.000       4950.000       5499.000
       4784.000       4901.000       4771.000       4641.000       4939.000
       4357.000       4733.000       4589.000       3822.000       4760.000
       4215.000       3330.000       4383.000       4045.000       3397.000
       3966.000       3783.000       3105.000       3381.000       3623.000
       3115.000       2994.000       3031.000       2816.000       2559.000
       2518.000       2161.000       1674.000       1738.000       1827.000
       1605.000       1145.000       1059.000       725.0000       403.0000
       634.0000       443.0000       103.0000       358.0000       347.0000
      -79.00000       161.0000      -479.0000      -213.0000       1376.000
      -68.00000      -681.0000       907.0000       168.0000      -388.0000
       276.0000       263.0000       157.0000       515.0000       848.0000
       381.0000       265.0000       108.0000       381.0000       940.0000
       336.0000       1316.000       1407.000       750.0000       1924.000
       1063.000       1762.000       2735.000       1121.000       2783.000
       3113.000       1990.000       3594.000       3348.000       3165.000
       3785.000       3529.000       4254.000       4154.000       3926.000
       3860.000       3542.000       4330.000       3766.000       3799.000
       4235.000       3276.000       3632.000       3774.000       3372.000
       2951.000       3067.000       3614.000       2413.000       2728.000
       4125.000       2698.000       2649.000       3322.000       2432.000
       2934.000       3178.000       2778.000       2247.000       2489.000
       3247.000       2260.000       2589.000       2615.000       1215.000
       2601.000       2720.000       1596.000       2246.000       1987.000
       2092.000       2034.000       1829.000       1912.000       1425.000
       1971.000       1445.000       1329.000       2291.000       847.0000
       602.0000       1703.000       1187.000       694.0000       1451.000
       2460.000       725.0000       568.0000       1752.000       763.0000
       2568.000       2383.000       912.0000       2532.000       2031.000
       2216.000       3108.000       2102.000       2312.000       3091.000
       3550.000       3550.000       3317.000       3318.000       2929.000
       3761.000       4175.000       3554.000       3900.000       3830.000
       3887.000       3563.000       3422.000       4186.000       3719.000
       3863.000       3786.000       3255.000       3845.000       3170.000
       3469.000       3418.000       2186.000       3543.000       3320.000
       2625.000       3141.000       2164.000       1912.000       2205.000
       2566.000       2402.000       1612.000       1712.000       1580.000
       1458.000       1859.000       1342.000       1002.000       1636.000
       1519.000       1316.000       1200.000       1307.000       1552.000
       1324.000       1369.000       1153.000       1509.000       1338.000
       835.0000       1506.000       901.0000       722.0000       1457.000
       868.0000       1058.000       1077.000       561.0000       1466.000
       866.0000       586.0000       1696.000       775.0000       1142.000
       1860.000       1012.000       1719.000       2005.000       1902.000
       2399.000       2658.000       3126.000       2598.000       3377.000
       4424.000       3543.000       4186.000       4794.000       5070.000
       5502.000       5110.000       5832.000       6234.000       6232.000
       6123.000       6416.000       7661.000       6150.000       6068.000
       8232.000       6399.000       6155.000       8003.000       6604.000
       6379.000       7165.000       6449.000       6454.000       6734.000
       6670.000       6112.000       6198.000       6640.000       5450.000
       5558.000       6360.000       5430.000       4976.000       5348.000
       5082.000       4388.000       4446.000       4434.000       3989.000
       3970.000       3571.000       3153.000       3458.000       2943.000
       2209.000       2656.000       2364.000       1616.000       1809.000
       1695.000       966.0000       534.0000       880.0000       496.0000
      -467.0000      -14.00000      -195.0000      -1329.000      -904.0000
      -785.0000      -2059.000      -1995.000      -1649.000      -2590.000
      -2727.000      -2363.000      -3036.000      -3576.000      -2953.000
      -3387.000      -4117.000      -3424.000      -3648.000      -4038.000
      -4168.000      -4381.000      -4050.000      -4437.000      -4714.000
      -4542.000      -4563.000      -4715.000      -5050.000      -4670.000
      -4633.000      -5234.000      -4845.000      -4535.000      -5005.000
      -4801.000      -4178.000      -4425.000      -4432.000      -3861.000
      -3724.000      -3674.000      -3472.000      -3020.000      -2777.000
      -2693.000      -2419.000      -2343.000      -2060.000      -1630.000
      -1512.000      -1447.000      -1235.000      -994.0000      -932.0000
      -986.0000      -727.0000      -227.0000      -285.0000      -472.0000
       501.0000       857.0000       14.00000       722.0000       1872.000
       1541.000       1141.000       2053.000       2650.000       2136.000
       2501.000       2519.000       2577.000       3343.000       2334.000
       2760.000       4082.000       2463.000       2266.000       3568.000
       3199.000       2545.000       2705.000       3280.000       3148.000
       2752.000       2575.000       2941.000       3255.000       2607.000
       2876.000       3013.000       2559.000       2982.000       2522.000
       2543.000       2728.000       2018.000       2881.000       2649.000
       1863.000       2620.000       2416.000       2113.000       2227.000
       2368.000       2510.000       2268.000       2281.000       2827.000
       2908.000       2116.000       2674.000       3576.000       2844.000
       2708.000       3406.000       3621.000       3507.000       2990.000
       3653.000       4619.000       3411.000       3686.000       5010.000
       3970.000       3966.000       5009.000       4773.000       4844.000
       4888.000       4829.000       5809.000       5854.000       4895.000
       5611.000       6548.000       5803.000       5893.000       6413.000
       6239.000       6589.000       6233.000       6363.000       7205.000
       6674.000       6504.000       7253.000       7236.000       6913.000
       7485.000       7843.000       7532.000       7353.000       7800.000
       8651.000       7992.000       7566.000       8841.000       8530.000
       7870.000       8753.000       8627.000       8355.000       8714.000
       8414.000       8358.000       8551.000       8366.000       7841.000
       7874.000       8024.000       7436.000       7306.000       7177.000
       7090.000       6558.000       5895.000       6886.000       6219.000
       5035.000       6083.000       5601.000       4905.000       5173.000
       4587.000       4573.000       4301.000       3921.000       4164.000
       3652.000       3211.000       3374.000       3260.000       2740.000
       2723.000       3018.000       2458.000       2068.000       2528.000
       2613.000       2126.000       1778.000       2552.000       2688.000
       1488.000       2432.000       3142.000       1819.000       2012.000
       2641.000       2416.000       2446.000       2462.000       2190.000
       2411.000       2816.000       2077.000       2191.000       3007.000
       1964.000       1663.000       2492.000       2250.000       1701.000
       1284.000       1511.000       1685.000       919.0000       707.0000
       770.0000       576.0000       292.0000      -428.0000      -160.0000
       98.00000      -972.0000      -1301.000      -639.0000      -634.0000
      -1351.000      -1030.000      -824.0000      -1281.000      -1167.000
      -1298.000      -455.0000      -240.0000      -1421.000      -653.0000
      -23.00000      -733.0000      -611.0000      -255.0000      -279.0000
      -565.0000      -770.0000      -458.0000      -603.0000      -1210.000
      -1100.000      -1135.000      -1582.000      -1416.000      -1426.000
      -2017.000      -2254.000      -1895.000      -2338.000      -2632.000
      -2418.000      -2594.000      -2160.000      -3344.000      -3177.000
      -1578.000      -3467.000      -3285.000      -1820.000      -2860.000
      -2871.000      -2707.000      -2675.000      -2176.000      -2401.000
      -2581.000      -1927.000      -1329.000      -2131.000      -2126.000
      -958.0000      -1329.000      -1541.000      -810.0000      -508.0000
      -670.0000      -866.0000      -53.00000       532.0000      -160.0000
       303.0000       1039.000       845.0000       1329.000       1253.000
       1351.000       1823.000       1608.000       1955.000       2258.000
       2540.000       2558.000       2589.000       2979.000       2828.000
       3317.000       3893.000       3654.000       3811.000       4243.000
       4157.000       4652.000       5499.000       5253.000       5192.000
       5749.000       6398.000       6353.000       6173.000       7082.000
       6767.000       6612.000       7424.000       7135.000       7556.000
       7679.000       7265.000       7517.000       7560.000       7551.000
       7357.000       7750.000       7420.000       6576.000       7412.000
       7523.000       6432.000       6609.000       7137.000       6204.000
       5706.000       6276.000       6090.000       5347.000       5105.000
       5401.000       5164.000       4732.000       4668.000       4415.000
       4180.000       3838.000       3867.000       4036.000       3298.000
       2950.000       2976.000       3010.000       2964.000       2639.000
       3040.000       2538.000       2067.000       3267.000       2710.000
       2175.000       3637.000       2673.000       2515.000       4144.000
       3139.000       3093.000       4165.000       4057.000       3444.000
       3917.000       5091.000       4300.000       4275.000       4975.000
       4768.000       5110.000       5056.000       5640.000       5946.000
