     0.02500000      -12345.00      -12345.00   2.045800e+09      -12345.00
   0.0005380000       659.9755      -764.0195      -12345.00      -12345.00
      -12345.00      -12345.00      -12345.00      -12345.00      -12345.00
      -12345.00      -12345.00      -12345.00      -12345.00      -12345.00
      -12345.00      -12345.00      -12345.00      -12345.00      -12345.00
      -12345.00      -12345.00      -12345.00      -12345.00      -12345.00
      -12345.00       48.33010       8.329600       589.0000       0.000000
       9.831100       126.5297      -12345.00       24.71000      -12345.00
      -12345.00      -12345.00      -12345.00      -12345.00      -12345.00
      -12345.00      -12345.00      -12345.00      -12345.00      -12345.00
       11188.87       323.2458       62.09081       100.6284      -12345.00
      -12345.00      -12345.00       0.000000       0.000000      -12345.00
      -12345.00      -12345.00      -12345.00      -12345.00      -12345.00
      -12345.00      -12345.00      -12345.00      -12345.00      -12345.00
      2019        39        12         7        52
        19         6    -12345    -12345     26400
    -12345    -12345    -12345    -12345    -12345
         1    -12345    -12345    -12345    -12345
    -12345    -12345    -12345    -12345    -12345
    -12345    -12345    -12345    -12345    -12345
    -12345    -12345    -12345    -12345    -12345
         1    -12345    -12345    -12345    -12345
BFO     Mindanao, Philip
50      -12345  -12345  
-12345  -12345  -12345  
-12345  -12345  -12345  
-12345  -12345  -12345  
-12345  -12345  -12345  
-12345  -12345  BHZ     
II      -12345  Streckei
[...]
      -960.0000      -1000.000      -1032.000      -1059.000      -1085.000
      -1104.000      -1135.000      -1152.000      -1159.000      -1175.000
      -1183.000      -1192.000      -1198.000      -1215.000      -1243.000
      -1261.000      -1278.000      -1279.000      -1277.000      -1288.000
      -1291.000      -1293.000      -1311.000      -1323.000      -1327.000
      -1351.000      -1384.000      -1412.000      -1430.000      -1432.000
      -1435.000      -1446.000      -1453.000      -1446.000      -1444.000
      -1449.000      -1431.000      -1409.000      -1384.000      -1347.000
      -1324.000      -1291.000      -1243.000      -1207.000      -1162.000
      -1119.000      -1084.000      -1038.000      -991.0000      -944.0000
      -894.0000      -849.0000      -804.0000      -760.0000      -709.0000
      -655.0000      -606.0000      -554.0000      -507.0000      -457.0000
      -392.0000      -331.0000      -274.0000      -228.0000      -191.0000
      -146.0000      -105.0000      -78.00000      -58.00000      -26.00000
       22.00000       48.00000       65.00000       87.00000       109.0000
       148.0000       190.0000       227.0000       255.0000       282.0000
       325.0000       375.0000       438.0000       498.0000       539.0000
       581.0000       627.0000       676.0000       732.0000       779.0000
       811.0000       841.0000       873.0000       913.0000       968.0000
       1023.000       1061.000       1097.000       1148.000       1197.000
       1244.000       1287.000       1318.000       1353.000       1387.000
       1424.000       1466.000       1496.000       1534.000       1585.000
       1636.000       1681.000       1721.000       1768.000       1816.000
       1857.000       1892.000       1932.000       1984.000       2027.000
       2066.000       2113.000       2153.000       2184.000       2215.000
       2244.000       2272.000       2306.000       2339.000       2360.000
       2377.000       2388.000       2404.000       2420.000       2428.000
       2432.000       2426.000       2417.000       2407.000       2393.000
       2389.000       2385.000       2363.000       2348.000       2341.000
       2323.000       2298.000       2271.000       2242.000       2215.000
       2194.000       2170.000       2149.000       2135.000       2115.000
       2094.000       2076.000       2056.000       2039.000       2012.000
       1982.000       1965.000       1930.000       1897.000       1870.000
       1836.000       1807.000       1773.000       1745.000       1708.000
       1667.000       1634.000       1589.000       1544.000       1501.000
       1459.000       1428.000       1394.000       1358.000       1322.000
       1271.000       1228.000       1190.000       1138.000       1088.000
       1039.000       985.0000       912.0000       834.0000       760.0000
       680.0000       598.0000       512.0000       430.0000       348.0000
       268.0000       190.0000       108.0000       32.00000      -42.00000
      -124.0000      -201.0000      -271.0000      -339.0000      -408.0000
      -488.0000      -562.0000      -623.0000      -688.0000      -748.0000
      -797.0000      -844.0000      -899.0000      -958.0000      -1018.000
      -1089.000      -1148.000      -1194.000      -1254.000      -1322.000
      -1377.000      -1420.000      -1469.000      -1528.000      -1583.000
      -1635.000      -1679.000      -1716.000      -1756.000      -1799.000
      -1840.000      -1874.000      -1897.000      -1907.000      -1917.000
      -1943.000      -1965.000      -1985.000      -2005.000      -2021.000
      -2036.000      -2047.000      -2068.000      -2089.000      -2097.000
      -2109.000      -2132.000      -2158.000      -2174.000      -2186.000
      -2195.000      -2200.000      -2216.000      -2228.000      -2225.000
      -2223.000      -2229.000      -2235.000      -2234.000      -2231.000
      -2209.000      -2182.000      -2169.000      -2141.000      -2108.000
      -2081.000      -2054.000      -2023.000      -1974.000      -1921.000
      -1866.000      -1811.000      -1762.000      -1697.000      -1629.000
      -1561.000      -1482.000      -1410.000      -1344.000      -1263.000
      -1173.000      -1088.000      -1006.000      -921.0000      -833.0000
      -744.0000      -659.0000      -563.0000      -467.0000      -390.0000
      -321.0000      -255.0000      -181.0000      -108.0000      -43.00000
       25.00000       85.00000       153.0000       221.0000       285.0000
       363.0000       434.0000       495.0000       560.0000       630.0000
       690.0000       746.0000       805.0000       863.0000       928.0000
       974.0000       1010.000       1075.000       1138.000       1198.000
       1261.000       1308.000       1353.000       1398.000       1449.000
       1501.000       1557.000       1609.000       1640.000       1678.000
       1726.000       1764.000       1782.000       1795.000       1822.000
       1853.000       1877.000       1891.000       1894.000       1901.000
       1911.000       1919.000       1935.000       1957.000       1977.000
       1996.000       2013.000       2027.000       2034.000       2037.000
       2047.000       2058.000       2069.000       2082.000       2090.000
       2084.000       2077.000       2082.000       2084.000       2076.000
       2075.000       2066.000       2035.000       2008.000       1986.000
       1957.000       1929.000       1906.000       1872.000       1834.000
       1796.000       1755.000       1716.000       1679.000       1647.000
       1608.000       1564.000       1516.000       1473.000       1441.000
       1396.000       1348.000       1307.000       1259.000       1218.000
       1185.000       1153.000       1121.000       1087.000       1044.000
       1002.000       980.0000       954.0000       918.0000       876.0000
       838.0000       810.0000       777.0000       750.0000       725.0000
       704.0000       687.0000       661.0000       640.0000       623.0000
       601.0000       573.0000       551.0000       539.0000       524.0000
       506.0000       496.0000       480.0000       461.0000       451.0000
       444.0000       436.0000       429.0000       418.0000       403.0000
       390.0000       375.0000       361.0000       355.0000       354.0000
       358.0000       364.0000       361.0000       360.0000       355.0000
       340.0000       328.0000       312.0000       300.0000       291.0000
       266.0000       244.0000       216.0000       185.0000       181.0000
       177.0000       158.0000       129.0000       101.0000       84.00000
       66.00000       42.00000       22.00000       1.000000      -25.00000
      -47.00000      -61.00000      -79.00000      -101.0000      -116.0000
      -126.0000      -145.0000      -163.0000      -175.0000      -192.0000
      -219.0000      -250.0000      -277.0000      -305.0000      -334.0000
      -368.0000      -394.0000      -411.0000      -430.0000      -437.0000
      -435.0000      -440.0000      -449.0000      -458.0000      -466.0000
      -469.0000      -464.0000      -458.0000      -458.0000      -452.0000
      -440.0000      -419.0000      -384.0000      -355.0000      -330.0000
      -304.0000      -285.0000      -265.0000      -243.0000      -219.0000
      -188.0000      -154.0000      -128.0000      -105.0000      -79.00000
      -62.00000      -43.00000      -3.000000       29.00000       46.00000
       65.00000       84.00000       91.00000       92.00000       96.00000
       109.0000       121.0000       115.0000       112.0000       122.0000
       130.0000       126.0000       114.0000       100.0000       87.00000
       80.00000       72.00000       64.00000       63.00000       62.00000
       71.00000       82.00000       84.00000       96.00000       108.0000
       118.0000       127.0000       123.0000       128.0000       142.0000
       158.0000       176.0000       178.0000       167.0000       169.0000
       174.0000       158.0000       145.0000       146.0000       158.0000
       178.0000       197.0000       220.0000       228.0000       225.0000
       229.0000       237.0000       242.0000       234.0000       225.0000
       220.0000       205.0000       199.0000       193.0000       181.0000
       173.0000       166.0000       173.0000       164.0000       146.0000
       137.0000       121.0000       111.0000       105.0000       103.0000
       119.0000       137.0000       153.0000       158.0000       157.0000
       164.0000       160.0000       144.0000       137.0000       131.0000
       122.0000       102.0000       66.00000       39.00000       15.00000
      -11.00000      -36.00000      -71.00000      -104.0000      -144.0000
      -179.0000      -204.0000      -240.0000      -272.0000      -295.0000
      -318.0000      -346.0000      -373.0000      -395.0000      -424.0000
      -446.0000      -465.0000      -496.0000      -520.0000      -534.0000
      -558.0000      -590.0000      -622.0000      -645.0000      -670.0000
      -699.0000      -727.0000      -754.0000      -779.0000      -810.0000
      -841.0000      -871.0000      -909.0000      -939.0000      -956.0000
      -976.0000      -1010.000      -1030.000      -1035.000      -1048.000
      -1051.000      -1051.000      -1056.000      -1063.000      -1067.000
      -1074.000      -1089.000      -1096.000      -1093.000      -1100.000
      -1108.000      -1099.000      -1092.000      -1087.000      -1082.000
      -1073.000      -1051.000      -1026.000      -978.0000      -934.0000
      -914.0000      -877.0000      -834.0000      -793.0000      -749.0000
      -701.0000      -650.0000      -605.0000      -561.0000      -513.0000
      -448.0000      -384.0000      -330.0000      -271.0000      -212.0000
      -158.0000      -100.0000      -34.00000       30.00000       88.00000
       146.0000       207.0000       268.0000       328.0000       391.0000
       454.0000       517.0000       593.0000       674.0000       749.0000
       823.0000       897.0000       984.0000       1057.000       1111.000
       1185.000       1271.000       1342.000       1411.000       1481.000
       1549.000       1617.000       1662.000       1704.000       1762.000
       1800.000       1835.000       1872.000       1894.000       1925.000
       1954.000       1982.000       2007.000       2025.000       2040.000
       2053.000       2070.000       2090.000       2111.000       2127.000
       2142.000       2156.000       2169.000       2188.000       2197.000
       2207.000       2210.000       2200.000       2191.000       2183.000
       2178.000       2164.000       2147.000       2127.000       2100.000
       2081.000       2062.000       2041.000       2023.000       2010.000
       2003.000       1990.000       1984.000       1989.000       1977.000
       1966.000       1958.000       1946.000       1941.000       1945.000
       1958.000       1958.000       1959.000       1976.000       1993.000
       2004.000       2000.000       1994.000       1994.000       1995.000
       1979.000       1949.000       1925.000       1890.000       1858.000
       1840.000       1812.000       1779.000       1747.000       1706.000
       1667.000       1638.000       1621.000       1595.000       1553.000
       1512.000       1471.000       1429.000       1401.000       1370.000
       1322.000       1266.000       1211.000       1173.000       1145.000
       1103.000       1044.000       983.0000       937.0000       892.0000
       848.0000       810.0000       763.0000       711.0000       656.0000
       607.0000       557.0000       512.0000       485.0000       441.0000
       380.0000       331.0000       289.0000       240.0000       185.0000
       131.0000       86.00000       49.00000       3.000000      -44.00000
      -82.00000      -128.0000      -167.0000      -195.0000      -225.0000
      -264.0000      -318.0000      -373.0000      -421.0000      -474.0000
      -528.0000      -574.0000      -617.0000      -667.0000      -725.0000
      -786.0000      -845.0000      -902.0000      -970.0000      -1044.000
      -1113.000      -1181.000      -1258.000      -1335.000      -1406.000
      -1484.000      -1557.000      -1628.000      -1712.000      -1789.000
      -1863.000      -1938.000      -2018.000      -2102.000      -2182.000
      -2247.000      -2286.000      -2333.000      -2397.000      -2462.000
      -2530.000      -2583.000      -2633.000      -2691.000      -2735.000
      -2775.000      -2819.000      -2857.000      -2892.000      -2924.000
      -2950.000      -2978.000      -2987.000      -2982.000      -2991.000
      -3002.000      -3020.000      -3027.000      -3025.000      -3026.000
      -3007.000      -2985.000      -2963.000      -2942.000      -2919.000
      -2891.000      -2871.000      -2846.000      -2826.000      -2795.000
      -2750.000      -2730.000      -2705.000      -2673.000      -2645.000
      -2610.000      -2583.000      -2541.000      -2488.000      -2449.000
      -2407.000      -2369.000      -2320.000      -2257.000      -2181.000
      -2097.000      -2018.000      -1938.000      -1851.000      -1751.000
      -1646.000      -1545.000      -1430.000      -1312.000      -1192.000
      -1064.000      -931.0000      -799.0000      -675.0000      -544.0000
      -410.0000      -283.0000      -161.0000      -48.00000       63.00000
       176.0000       288.0000       396.0000       507.0000       627.0000
       739.0000       839.0000       943.0000       1038.000       1125.000
       1215.000       1303.000       1393.000       1483.000       1567.000
       1653.000       1741.000       1821.000       1898.000       1978.000
       2054.000       2137.000       2217.000       2294.000       2373.000
       2441.000       2510.000       2586.000       2652.000       2722.000
       2797.000       2853.000       2903.000       2963.000       3009.000
       3052.000       3105.000       3155.000       3202.000       3238.000
       3268.000       3289.000       3302.000       3312.000       3325.000
       3345.000       3352.000       3351.000       3351.000       3351.000
       3347.000       3332.000       3330.000       3332.000       3317.000
       3298.000       3277.000       3262.000       3248.000       3225.000
       3207.000       3181.000       3150.000       3133.000       3117.000
       3089.000       3051.000       3019.000       2999.000       2971.000
       2942.000       2914.000       2876.000       2842.000       2808.000
       2767.000       2729.000       2687.000       2637.000       2589.000
       2545.000       2501.000       2443.000       2374.000       2313.000
       2264.000       2212.000       2147.000       2083.000       2048.000
       2023.000       1981.000       1935.000       1891.000       1831.000
       1770.000       1714.000       1655.000       1590.000       1507.000
       1425.000       1358.000       1288.000       1221.000       1154.000
       1079.000       1014.000       939.0000       855.0000       786.0000
       713.0000       652.0000       593.0000       519.0000       448.0000
       387.0000       342.0000       293.0000       235.0000       184.0000
       138.0000       94.00000       55.00000       27.00000      -13.00000
      -66.00000      -122.0000      -174.0000      -212.0000      -263.0000
      -316.0000      -365.0000      -417.0000      -462.0000      -522.0000
      -581.0000      -630.0000      -678.0000      -730.0000      -783.0000
      -834.0000      -901.0000      -969.0000      -1023.000      -1063.000
      -1098.000      -1140.000      -1174.000      -1214.000      -1262.000
      -1298.000      -1323.000      -1342.000      -1362.000      -1385.000
      -1408.000      -1447.000      -1485.000      -1501.000      -1516.000
      -1531.000      -1542.000      -1560.000      -1580.000      -1586.000
      -1585.000      -1594.000      -1610.000      -1620.000      -1614.000
      -1604.000      -1600.000      -1595.000      -1605.000      -1619.000
      -1631.000      -1645.000      -1637.000      -1635.000      -1640.000
      -1652.000      -1669.000      -1665.000      -1659.000      -1657.000
      -1653.000      -1653.000      -1651.000      -1647.000      -1644.000
      -1641.000      -1641.000      -1640.000      -1629.000      -1607.000
      -1586.000      -1567.000      -1544.000      -1531.000      -1513.000
      -1469.000      -1429.000      -1397.000      -1349.000      -1303.000
      -1273.000      -1244.000      -1211.000      -1173.000      -1132.000
      -1095.000      -1078.000      -1060.000      -1033.000      -1008.000
      -985.0000      -965.0000      -943.0000      -915.0000      -891.0000
      -869.0000      -849.0000      -834.0000      -822.0000      -802.0000
      -769.0000      -731.0000      -710.0000      -693.0000      -660.0000
      -622.0000      -585.0000      -552.0000      -524.0000      -503.0000
      -477.0000      -447.0000      -423.0000      -384.0000      -348.0000
      -318.0000      -274.0000      -232.0000      -186.0000      -135.0000
      -103.0000      -72.00000      -24.00000       30.00000       85.00000
       139.0000       195.0000       248.0000       293.0000       332.0000
       372.0000       419.0000       459.0000       494.0000       535.0000
       579.0000       615.0000       651.0000       687.0000       709.0000
       746.0000       793.0000       828.0000       852.0000       867.0000
       895.0000       925.0000       941.0000       964.0000       1003.000
       1034.000       1054.000       1077.000       1104.000       1131.000
       1154.000       1176.000       1207.000       1239.000       1265.000
       1287.000       1306.000       1330.000       1351.000       1351.000
       1358.000       1378.000       1392.000       1400.000       1396.000
       1390.000       1392.000       1394.000       1401.000       1409.000
       1413.000       1416.000       1416.000       1425.000       1428.000
       1421.000       1417.000       1405.000       1397.000       1392.000
       1380.000       1358.000       1325.000       1295.000       1270.000
