     0.05000000      -12345.00      -12345.00   3.658320e+09      -12345.00
   0.0005380000       659.9506      -435.0196      -12345.00      -12345.00
      -12345.00      -12345.00      -12345.00      -12345.00      -12345.00
      -12345.00      -12345.00      -12345.00      -12345.00      -12345.00
      -12345.00      -12345.00      -12345.00      -12345.00      -12345.00
      -12345.00      -12345.00      -12345.00      -12345.00      -12345.00
      -12345.00       7.272800       80.70220       460.0000       90.00000
       9.831100       126.5297      -12345.00       24.71000      -12345.00
      -12345.00      -12345.00      -12345.00      -12345.00      -12345.00
      -12345.00      -12345.00      -12345.00      -12345.00      -12345.00
       5043.999       270.5371       83.38878       45.36378      -12345.00
      -12345.00      -12345.00       0.000000       0.000000      -12345.00
      -12345.00      -12345.00      -12345.00      -12345.00      -12345.00
      -12345.00      -12345.00      -12345.00      -12345.00      -12345.00
      2019        39        12         2        23
        19         6    -12345    -12345     13200
    -12345    -12345    -12345    -12345    -12345
         1    -12345    -12345    -12345    -12345
    -12345    -12345    -12345    -12345    -12345
    -12345    -12345    -12345    -12345    -12345
    -12345    -12345    -12345    -12345    -12345
         1    -12345    -12345    -12345    -12345
PALK    Mindanao, Philip
00      -12345  -12345  
-12345  -12345  -12345  
-12345  -12345  -12345  
-12345  -12345  -12345  
-12345  -12345  -12345  
-12345  -12345  BHZ     
II      -12345  Geotech 
[...]
      -1073676.      -1073617.      -1073501.      -1073420.      -1073378.
      -1073321.      -1073250.      -1073197.      -1073128.      -1073015.
      -1072889.      -1072822.      -1072770.      -1072689.      -1072582.
      -1072491.      -1072455.      -1072490.      -1072523.      -1072498.
      -1072503.      -1072435.      -1072322.      -1072293.      -1072300.
      -1072346.      -1072388.      -1072420.      -1072441.      -1072446.
      -1072466.      -1072513.      -1072616.      -1072688.      -1072729.
      -1072804.      -1072828.      -1072893.      -1073022.      -1073111.
      -1073194.      -1073288.      -1073383.      -1073440.      -1073525.
      -1073654.      -1073727.      -1073775.      -1073798.      -1073820.
      -1073843.      -1073896.      -1073992.      -1073997.      -1074019.
      -1074075.      -1074098.      -1074156.      -1074207.      -1074274.
      -1074357.      -1074481.      -1074615.      -1074708.      -1074810.
      -1074880.      -1074886.      -1074904.      -1074962.      -1074974.
      -1074974.      -1074953.      -1074914.      -1074877.      -1074789.
      -1074680.      -1074590.      -1074473.      -1074304.      -1074187.
      -1074045.      -1073849.      -1073720.      -1073580.      -1073446.
      -1073335.      -1073210.      -1073135.      -1073075.      -1073025.
      -1073040.      -1073076.      -1073076.      -1073063.      -1073084.
      -1073135.      -1073197.      -1073232.      -1073203.      -1073189.
      -1073168.      -1073139.      -1073154.      -1073142.      -1073089.
      -1073045.      -1073028.      -1073029.      -1073002.      -1072919.
      -1072858.      -1072838.      -1072844.      -1072836.      -1072840.
      -1072877.      -1072893.      -1072882.      -1072850.      -1072855.
      -1072877.      -1072896.      -1072930.      -1072918.      -1072892.
      -1072905.      -1072925.      -1072940.      -1073000.      -1073059.
      -1073036.      -1073057.      -1073203.      -1073301.      -1073317.
      -1073325.      -1073364.      -1073463.      -1073543.      -1073605.
      -1073715.      -1073803.      -1073844.      -1073929.      -1074003.
      -1073977.      -1073987.      -1074052.      -1074050.      -1074016.
      -1073979.      -1073932.      -1073861.      -1073761.      -1073697.
      -1073690.      -1073614.      -1073453.      -1073409.      -1073480.
      -1073499.      -1073491.      -1073481.      -1073453.      -1073445.
      -1073436.      -1073464.      -1073535.      -1073542.      -1073553.
      -1073584.      -1073575.      -1073564.      -1073563.      -1073567.
      -1073600.      -1073654.      -1073657.      -1073628.      -1073614.
      -1073653.      -1073667.      -1073604.      -1073559.      -1073589.
      -1073681.      -1073662.      -1073602.      -1073556.      -1073508.
      -1073544.      -1073519.      -1073487.      -1073487.      -1073454.
      -1073460.      -1073465.      -1073489.      -1073534.      -1073557.
      -1073574.      -1073603.      -1073640.      -1073641.      -1073652.
      -1073671.      -1073657.      -1073662.      -1073673.      -1073679.
      -1073670.      -1073673.      -1073714.      -1073668.      -1073611.
      -1073614.      -1073584.      -1073548.      -1073494.      -1073428.
      -1073363.      -1073309.      -1073312.      -1073272.      -1073187.
      -1073150.      -1073144.      -1073147.      -1073173.      -1073232.
      -1073267.      -1073275.      -1073264.      -1073268.      -1073355.
      -1073417.      -1073410.      -1073424.      -1073452.      -1073456.
      -1073424.      -1073381.      -1073387.      -1073412.      -1073396.
      -1073373.      -1073389.      -1073378.      -1073278.      -1073245.
      -1073304.      -1073347.      -1073375.      -1073399.      -1073431.
      -1073470.      -1073504.      -1073548.      -1073641.      -1073707.
      -1073730.      -1073737.      -1073776.      -1073842.      -1073818.
      -1073823.      -1073859.      -1073853.      -1073858.      -1073827.
      -1073790.      -1073786.      -1073756.      -1073704.      -1073699.
      -1073668.      -1073600.      -1073585.      -1073578.      -1073527.
      -1073431.      -1073382.      -1073389.      -1073346.      -1073327.
      -1073311.      -1073236.      -1073182.      -1073159.      -1073128.
      -1073057.      -1073002.      -1072971.      -1072968.      -1072979.
      -1072964.      -1072982.      -1073015.      -1073073.      -1073114.
      -1073131.      -1073166.      -1073195.      -1073280.      -1073374.
      -1073461.      -1073533.      -1073573.      -1073641.      -1073694.
      -1073738.      -1073853.      -1073950.      -1073939.      -1073965.
      -1074018.      -1074038.      -1074114.      -1074149.      -1074115.
      -1074088.      -1074044.      -1074034.      -1074003.      -1073888.
      -1073789.      -1073691.      -1073614.      -1073569.      -1073528.
      -1073487.      -1073428.      -1073419.      -1073403.      -1073384.
      -1073406.      -1073442.      -1073521.      -1073558.      -1073586.
      -1073634.      -1073679.      -1073758.      -1073809.      -1073858.
      -1073893.      -1073879.      -1073886.      -1073904.      -1073877.
      -1073819.      -1073748.      -1073674.      -1073563.      -1073442.
      -1073321.      -1073160.      -1073071.      -1073042.      -1072988.
      -1072932.      -1072904.      -1072918.      -1072929.      -1072922.
      -1072926.      -1073023.      -1073120.      -1073165.      -1073233.
      -1073281.      -1073347.      -1073415.      -1073447.      -1073505.
      -1073543.      -1073576.      -1073643.      -1073700.      -1073720.
      -1073708.      -1073739.      -1073771.      -1073769.      -1073743.
      -1073701.      -1073693.      -1073717.      -1073728.      -1073668.
      -1073624.      -1073638.      -1073653.      -1073671.      -1073656.
      -1073608.      -1073600.      -1073590.      -1073507.      -1073472.
      -1073481.      -1073439.      -1073368.      -1073283.      -1073234.
      -1073202.      -1073197.      -1073202.      -1073148.      -1073130.
      -1073162.      -1073189.      -1073215.      -1073255.      -1073321.
      -1073404.      -1073452.      -1073432.      -1073466.      -1073552.
      -1073627.      -1073705.      -1073758.      -1073767.      -1073768.
      -1073794.      -1073774.      -1073772.      -1073782.      -1073741.
      -1073739.      -1073711.      -1073652.      -1073655.      -1073676.
      -1073673.      -1073669.      -1073662.      -1073633.      -1073607.
      -1073631.      -1073690.      -1073734.      -1073754.      -1073756.
      -1073754.      -1073753.      -1073747.      -1073719.      -1073714.
      -1073707.      -1073693.      -1073701.      -1073665.      -1073639.
      -1073618.      -1073578.      -1073544.      -1073450.      -1073383.
      -1073340.      -1073294.      -1073303.      -1073258.      -1073206.
      -1073193.      -1073166.      -1073114.      -1073046.      -1073081.
      -1073117.      -1073093.      -1073108.      -1073114.      -1073137.
      -1073179.      -1073199.      -1073249.      -1073336.      -1073379.
      -1073389.      -1073415.      -1073440.      -1073503.      -1073543.
      -1073555.      -1073631.      -1073688.      -1073715.      -1073771.
      -1073774.      -1073744.      -1073765.      -1073769.      -1073727.
      -1073736.      -1073731.      -1073642.      -1073595.      -1073561.
      -1073501.      -1073451.      -1073404.      -1073354.      -1073317.
      -1073296.      -1073239.      -1073209.      -1073190.      -1073155.
      -1073139.      -1073159.      -1073225.      -1073228.      -1073243.
      -1073290.      -1073322.      -1073405.      -1073432.      -1073482.
      -1073580.      -1073591.      -1073575.      -1073560.      -1073565.
      -1073561.      -1073543.      -1073517.      -1073456.      -1073443.
      -1073409.      -1073336.      -1073311.      -1073293.      -1073257.
      -1073217.      -1073217.      -1073216.      -1073200.      -1073266.
      -1073347.      -1073410.      -1073470.      -1073525.      -1073623.
      -1073727.      -1073802.      -1073856.      -1073917.      -1073930.
      -1073889.      -1073879.      -1073877.      -1073933.      -1073996.
      -1073985.      -1073966.      -1074012.      -1074098.      -1074070.
      -1074032.      -1074025.      -1073944.      -1073884.      -1073845.
      -1073782.      -1073715.      -1073637.      -1073518.      -1073454.
      -1073407.      -1073328.      -1073307.      -1073259.      -1073232.
      -1073223.      -1073184.      -1073181.      -1073206.      -1073244.
      -1073271.      -1073287.      -1073303.      -1073337.      -1073348.
      -1073353.      -1073383.      -1073408.      -1073430.      -1073434.
      -1073435.      -1073427.      -1073443.      -1073471.      -1073455.
      -1073437.      -1073409.      -1073368.      -1073314.      -1073285.
      -1073294.      -1073223.      -1073128.      -1073061.      -1072898.
      -1072764.      -1072746.      -1072692.      -1072650.      -1072644.
      -1072602.      -1072569.      -1072608.      -1072730.      -1072854.
      -1072952.      -1073099.      -1073265.      -1073393.      -1073531.
      -1073689.      -1073830.      -1073991.      -1074139.      -1074216.
      -1074291.      -1074385.      -1074488.      -1074566.      -1074581.
      -1074558.      -1074539.      -1074561.      -1074554.      -1074484.
      -1074414.      -1074361.      -1074289.      -1074213.      -1074170.
      -1074082.      -1073962.      -1073928.      -1073974.      -1073975.
      -1073956.      -1073960.      -1073926.      -1073969.      -1074068.
      -1074129.      -1074127.      -1074029.      -1073954.      -1073899.
      -1073832.      -1073767.      -1073647.      -1073504.      -1073387.
      -1073254.      -1073134.      -1073087.      -1072971.      -1072849.
      -1072784.      -1072684.      -1072614.      -1072553.      -1072493.
      -1072459.      -1072429.      -1072387.      -1072335.      -1072319.
      -1072314.      -1072311.      -1072343.      -1072391.      -1072393.
      -1072351.      -1072354.      -1072469.      -1072615.      -1072687.
      -1072707.      -1072732.      -1072779.      -1072874.      -1072975.
      -1073036.      -1073085.      -1073160.      -1073265.      -1073342.
      -1073379.      -1073432.      -1073512.      -1073628.      -1073779.
      -1073887.      -1073928.      -1073991.      -1074127.      -1074285.
      -1074377.      -1074360.      -1074353.      -1074446.      -1074542.
      -1074596.      -1074624.      -1074662.      -1074691.      -1074676.
      -1074680.      -1074694.      -1074659.      -1074647.      -1074697.
      -1074687.      -1074600.      -1074461.      -1074287.      -1074155.
      -1074078.      -1074026.      -1073927.      -1073763.      -1073652.
      -1073593.      -1073482.      -1073393.      -1073331.      -1073254.
      -1073182.      -1073107.      -1073048.      -1073019.      -1072993.
      -1072936.      -1072899.      -1072915.      -1072941.      -1072952.
      -1072987.      -1073075.      -1073166.      -1073250.      -1073331.
      -1073425.      -1073553.      -1073666.      -1073736.      -1073768.
      -1073780.      -1073782.      -1073723.      -1073647.      -1073709.
      -1073898.      -1074204.      -1074708.      -1075383.      -1076179.
      -1076968.      -1077638.      -1078109.      -1078331.      -1078371.
      -1078250.      -1078060.      -1077887.      -1077686.      -1077464.
      -1077252.      -1077087.      -1076927.      -1076703.      -1076503.
      -1076406.      -1076343.      -1076303.      -1076270.      -1076171.
      -1076084.      -1075989.      -1075761.      -1075471.      -1075280.
      -1075148.      -1075017.      -1074917.      -1074775.      -1074582.
      -1074394.      -1074239.      -1074107.      -1074039.      -1074097.
      -1074329.      -1074757.      -1075277.      -1075915.      -1076725.
      -1077737.      -1078943.      -1080156.      -1081252.      -1082148.
      -1082769.      -1083025.      -1082905.      -1082671.      -1082510.
      -1082429.      -1082394.      -1082268.      -1081968.      -1081473.
      -1080782.      -1079855.      -1078708.      -1077300.      -1075576.
      -1073693.      -1071735.      -1069819.      -1068166.      -1066882.
      -1065852.      -1064906.      -1063924.      -1062877.      -1061817.
      -1060682.      -1059476.      -1058296.      -1057312.      -1056593.
      -1056122.      -1056048.      -1056317.      -1056751.      -1057261.
      -1057773.      -1058250.      -1058689.      -1059203.      -1059896.
      -1060868.      -1062093.      -1063437.      -1064894.      -1066386.
      -1067767.      -1068985.      -1070076.      -1071201.      -1072582.
      -1074122.      -1075622.      -1077033.      -1078159.      -1078890.
      -1079342.      -1079580.      -1079621.      -1079462.      -1078983.
      -1078131.      -1077057.      -1075941.      -1074902.      -1074057.
      -1073353.      -1072686.      -1072035.      -1071426.      -1070877.
      -1070336.      -1069782.      -1069138.      -1068420.      -1067748.
      -1067236.      -1066976.      -1066984.      -1067291.      -1067756.
      -1068308.      -1069023.      -1069822.      -1070571.      -1071108.
      -1071431.      -1071672.      -1071849.      -1072011.      -1072198.
      -1072307.      -1072219.      -1072045.      -1071905.      -1071776.
      -1071754.      -1071862.      -1071949.      -1071895.      -1071680.
      -1071406.      -1071113.      -1070931.      -1071085.      -1071572.
      -1072252.      -1072859.      -1073165.      -1073014.      -1072287.
      -1071099.      -1069792.      -1068685.      -1067733.      -1066912.
      -1066255.      -1065655.      -1065125.      -1064695.      -1064448.
      -1064395.      -1064429.      -1064594.      -1065020.      -1065690.
      -1066522.      -1067603.      -1069004.      -1070666.      -1072386.
      -1073992.      -1075381.      -1076447.      -1077174.      -1077681.
      -1078206.      -1078913.      -1079772.      -1080588.      -1081299.
      -1081911.      -1082392.      -1082786.      -1083128.      -1083370.
      -1083417.      -1083416.      -1083429.      -1083454.      -1083650.
      -1084020.      -1084459.      -1084730.      -1084674.      -1084240.
      -1083391.      -1082253.      -1080958.      -1079602.      -1078279.
      -1077009.      -1075674.      -1074186.      -1072704.      -1071367.
      -1070182.      -1069154.      -1068338.      -1067782.      -1067389.
      -1067137.      -1067035.      -1067012.      -1067073.      -1067237.
      -1067544.      -1067982.      -1068579.      -1069381.      -1070332.
      -1071409.      -1072614.      -1073922.      -1075221.      -1076429.
      -1077433.      -1078159.      -1078668.      -1078903.      -1078954.
      -1078949.      -1078897.      -1078813.      -1078767.      -1078854.
      -1079011.      -1079226.      -1079366.      -1079297.      -1079156.
      -1078872.      -1078375.      -1077812.      -1077234.      -1076675.
      -1076196.      -1075820.      -1075523.      -1075224.      -1074873.
      -1074416.      -1073816.      -1073056.      -1072207.      -1071371.
      -1070522.      -1069695.      -1069013.      -1068586.      -1068418.
      -1068526.      -1068904.      -1069424.      -1069976.      -1070429.
      -1070742.      -1070928.      -1071035.      -1071133.      -1071233.
      -1071376.      -1071633.      -1071995.      -1072422.      -1072901.
      -1073353.      -1073806.      -1074223.      -1074488.      -1074603.
      -1074585.      -1074550.      -1074578.      -1074710.      -1074937.
      -1075235.      -1075623.      -1076029.      -1076493.      -1077117.
      -1077898.      -1078775.      -1079716.      -1080680.      -1081511.
      -1082188.      -1082789.      -1083382.      -1083926.      -1084252.
      -1084414.      -1084544.      -1084605.      -1084579.      -1084464.
      -1084198.      -1083715.      -1083034.      -1082264.      -1081594.
      -1081044.      -1080411.      -1079770.      -1079181.      -1078545.
      -1077948.      -1077438.      -1077033.      -1076733.      -1076505.
      -1076383.      -1076374.      -1076356.      -1076155.      -1075812.
      -1075388.      -1074819.      -1074213.      -1073662.      -1073089.
      -1072511.      -1071991.      -1071563.      -1071215.      -1070863.
      -1070456.      -1069954.      -1069434.      -1069098.      -1068960.
      -1068890.      -1068932.      -1069168.      -1069687.      -1070508.
      -1071480.      -1072459.      -1073219.      -1073632.      -1073763.
      -1073703.      -1073616.      -1073616.      -1073787.      -1074192.
      -1074742.      -1075331.      -1075870.      -1076247.      -1076512.
      -1076701.      -1076799.      -1076826.      -1076716.      -1076465.
      -1076153.      -1075906.      -1075797.      -1075792.      -1075790.
      -1075641.      -1075334.      -1074943.      -1074552.      -1074305.
      -1074152.      -1073952.      -1073634.      -1073158.      -1072561.
      -1071917.      -1071300.      -1070753.      -1070235.      -1069695.
      -1069236.      -1069014.      -1069035.      -1069277.      -1069691.
      -1070116.      -1070472.      -1070684.      -1070673.      -1070548.
      -1070464.      -1070470.      -1070601.      -1070888.      -1071294.
      -1071777.      -1072210.      -1072470.      -1072511.      -1072394.
      -1072241.      -1072006.      -1071705.      -1071358.      -1070940.
      -1070533.      -1070101.      -1069638.      -1069132.      -1068470.
      -1067748.      -1066969.      -1066079.      -1065212.      -1064371.
      -1063645.      -1063094.      -1062695.      -1062522.      -1062516.
      -1062680.      -1062997.      -1063521.      -1064349.      -1065383.
      -1066466.      -1067460.      -1068510.      -1069671.      -1070839.
