     0.02500000      -12345.00      -12345.00   1.996620e+09      -12345.00
   0.0005390000       659.9755      -790.0195      -12345.00      -12345.00
      -12345.00      -12345.00      -12345.00      -12345.00      -12345.00
      -12345.00      -12345.00      -12345.00      -12345.00      -12345.00
      -12345.00      -12345.00      -12345.00      -12345.00      -12345.00
      -12345.00      -12345.00      -12345.00      -12345.00      -12345.00
      -12345.00       33.61070      -116.4555       1280.000       5.300000
       9.831100       126.5297      -12345.00       24.71000      -12345.00
      -12345.00      -12345.00      -12345.00      -12345.00      -12345.00
      -12345.00      -12345.00      -12345.00      -12345.00      -12345.00
       11815.75       50.75718       293.8527       106.2663      -12345.00
      -12345.00      -12345.00       0.000000       0.000000      -12345.00
      -12345.00      -12345.00      -12345.00      -12345.00      -12345.00
      -12345.00      -12345.00      -12345.00      -12345.00      -12345.00
      2019        39        12         8        18
        19         6    -12345    -12345     26400
    -12345    -12345    -12345    -12345    -12345
         1    -12345    -12345    -12345    -12345
    -12345    -12345    -12345    -12345    -12345
    -12345    -12345    -12345    -12345    -12345
    -12345    -12345    -12345    -12345    -12345
         1    -12345    -12345    -12345    -12345
PFO     Mindanao, Philip
10      -12345  -12345  
-12345  -12345  -12345  
-12345  -12345  -12345  
-12345  -12345  -12345  
-12345  -12345  -12345  
-12345  -12345  BHZ     
II      -12345  Nanometr
[...]
       5191.000       5158.000       5138.000       5150.000       5137.000
       5115.000       5118.000       5113.000       5095.000       5104.000
       5095.000       5084.000       5097.000       5084.000       5077.000
       5074.000       5067.000       5070.000       5059.000       5055.000
       5054.000       5034.000       5023.000       5021.000       5006.000
       4992.000       4991.000       4992.000       4988.000       4982.000
       4970.000       4962.000       4963.000       4948.000       4931.000
       4923.000       4911.000       4896.000       4885.000       4874.000
       4859.000       4848.000       4836.000       4814.000       4801.000
       4799.000       4779.000       4771.000       4765.000       4747.000
       4742.000       4736.000       4725.000       4708.000       4707.000
       4707.000       4697.000       4687.000       4661.000       4656.000
       4651.000       4638.000       4639.000       4637.000       4636.000
       4625.000       4613.000       4606.000       4596.000       4588.000
       4584.000       4579.000       4558.000       4553.000       4555.000
       4538.000       4532.000       4530.000       4520.000       4516.000
       4509.000       4503.000       4498.000       4488.000       4483.000
       4490.000       4478.000       4469.000       4473.000       4462.000
       4466.000       4471.000       4458.000       4455.000       4461.000
       4466.000       4467.000       4468.000       4477.000       4481.000
       4486.000       4500.000       4490.000       4486.000       4508.000
       4516.000       4513.000       4523.000       4533.000       4537.000
       4543.000       4544.000       4549.000       4555.000       4561.000
       4570.000       4574.000       4582.000       4592.000       4594.000
       4600.000       4606.000       4604.000       4609.000       4615.000
       4613.000       4625.000       4638.000       4637.000       4646.000
       4659.000       4663.000       4665.000       4679.000       4692.000
       4696.000       4711.000       4715.000       4712.000       4732.000
       4740.000       4746.000       4768.000       4781.000       4785.000
       4802.000       4813.000       4811.000       4827.000       4844.000
       4844.000       4856.000       4869.000       4865.000       4894.000
       4916.000       4903.000       4925.000       4935.000       4919.000
       4933.000       4949.000       4948.000       4958.000       4981.000
       4989.000       5001.000       5013.000       5017.000       5030.000
       5038.000       5049.000       5057.000       5070.000       5086.000
       5090.000       5107.000       5123.000       5135.000       5147.000
       5166.000       5176.000       5190.000       5216.000       5211.000
       5224.000       5252.000       5253.000       5266.000       5293.000
       5297.000       5307.000       5325.000       5319.000       5330.000
       5350.000       5350.000       5360.000       5385.000       5388.000
       5386.000       5411.000       5420.000       5421.000       5443.000
       5451.000       5454.000       5460.000       5480.000       5500.000
       5496.000       5509.000       5520.000       5510.000       5521.000
       5533.000       5536.000       5539.000       5533.000       5538.000
       5542.000       5540.000       5544.000       5535.000       5531.000
       5539.000       5535.000       5530.000       5528.000       5517.000
       5511.000       5516.000       5505.000       5490.000       5495.000
       5494.000       5476.000       5475.000       5485.000       5476.000
       5461.000       5459.000       5453.000       5450.000       5450.000
       5431.000       5421.000       5418.000       5418.000       5414.000
       5398.000       5399.000       5387.000       5385.000       5395.000
       5377.000       5380.000       5382.000       5366.000       5371.000
       5374.000       5370.000       5376.000       5379.000       5363.000
       5364.000       5373.000       5353.000       5359.000       5360.000
       5329.000       5335.000       5338.000       5331.000       5341.000
       5340.000       5342.000       5345.000       5335.000       5338.000
       5342.000       5335.000       5336.000       5343.000       5348.000
       5351.000       5350.000       5348.000       5340.000       5341.000
       5351.000       5353.000       5357.000       5351.000       5347.000
       5360.000       5361.000       5363.000       5375.000       5370.000
       5368.000       5383.000       5390.000       5394.000       5412.000
       5414.000       5417.000       5427.000       5431.000       5453.000
       5461.000       5460.000       5475.000       5485.000       5496.000
       5508.000       5515.000       5513.000       5527.000       5550.000
       5554.000       5557.000       5574.000       5581.000       5578.000
       5592.000       5594.000       5599.000       5610.000       5618.000
       5629.000       5622.000       5620.000       5625.000       5627.000
       5626.000       5616.000       5625.000       5633.000       5619.000
       5612.000       5610.000       5594.000       5579.000       5573.000
       5564.000       5563.000       5545.000       5532.000       5534.000
       5501.000       5494.000       5504.000       5488.000       5475.000
       5477.000       5473.000       5452.000       5442.000       5426.000
       5415.000       5414.000       5399.000       5387.000       5374.000
       5370.000       5349.000       5329.000       5332.000       5311.000
       5297.000       5288.000       5265.000       5242.000       5222.000
       5210.000       5191.000       5166.000       5136.000       5107.000
       5089.000       5061.000       5029.000       5014.000       4983.000
       4948.000       4922.000       4891.000       4867.000       4845.000
       4816.000       4775.000       4750.000       4730.000       4703.000
       4692.000       4668.000       4648.000       4644.000       4614.000
       4585.000       4576.000       4545.000       4523.000       4528.000
       4517.000       4500.000       4484.000       4482.000       4475.000
       4439.000       4443.000       4439.000       4399.000       4404.000
       4378.000       4343.000       4351.000       4323.000       4304.000
       4303.000       4287.000       4264.000       4247.000       4235.000
       4214.000       4204.000       4187.000       4170.000       4158.000
       4140.000       4141.000       4123.000       4093.000       4087.000
       4072.000       4045.000       4028.000       4020.000       4010.000
       3993.000       3984.000       3968.000       3953.000       3957.000
       3942.000       3928.000       3931.000       3921.000       3920.000
       3913.000       3906.000       3912.000       3906.000       3918.000
       3920.000       3902.000       3925.000       3938.000       3925.000
       3954.000       3974.000       3965.000       3993.000       4010.000
       4011.000       4042.000       4049.000       4058.000       4088.000
       4093.000       4115.000       4141.000       4147.000       4174.000
       4193.000       4205.000       4238.000       4261.000       4277.000
       4307.000       4335.000       4349.000       4368.000       4398.000
       4413.000       4441.000       4476.000       4492.000       4522.000
       4544.000       4563.000       4594.000       4618.000       4636.000
       4657.000       4686.000       4710.000       4743.000       4777.000
       4799.000       4841.000       4872.000       4903.000       4936.000
       4963.000       4998.000       5026.000       5060.000       5093.000
       5127.000       5155.000       5186.000       5224.000       5231.000
       5262.000       5306.000       5322.000       5365.000       5395.000
       5410.000       5455.000       5483.000       5507.000       5544.000
       5578.000       5609.000       5633.000       5674.000       5715.000
       5739.000       5770.000       5808.000       5834.000       5873.000
       5911.000       5933.000       5974.000       5996.000       6017.000
       6058.000       6083.000       6109.000       6131.000       6159.000
       6193.000       6217.000       6245.000       6276.000       6288.000
       6300.000       6333.000       6354.000       6356.000       6382.000
       6405.000       6417.000       6451.000       6460.000       6463.000
       6477.000       6472.000       6489.000       6499.000       6494.000
       6503.000       6502.000       6521.000       6522.000       6512.000
       6522.000       6524.000       6529.000       6526.000       6534.000
       6536.000       6520.000       6529.000       6530.000       6524.000
       6538.000       6552.000       6542.000       6540.000       6548.000
       6541.000       6554.000       6561.000       6548.000       6548.000
       6544.000       6539.000       6534.000       6525.000       6520.000
       6507.000       6499.000       6501.000       6474.000       6448.000
       6448.000       6430.000       6399.000       6389.000       6372.000
       6340.000       6316.000       6292.000       6269.000       6235.000
       6203.000       6177.000       6136.000       6111.000       6091.000
       6047.000       6008.000       5976.000       5946.000       5907.000
       5866.000       5838.000       5801.000       5780.000       5757.000
       5707.000       5685.000       5661.000       5623.000       5613.000
       5587.000       5548.000       5534.000       5508.000       5477.000
       5457.000       5424.000       5400.000       5383.000       5345.000
       5329.000       5316.000       5262.000       5242.000       5223.000
       5177.000       5162.000       5136.000       5096.000       5074.000
       5046.000       5015.000       4987.000       4952.000       4916.000
       4888.000       4844.000       4799.000       4778.000       4737.000
       4687.000       4651.000       4606.000       4565.000       4521.000
       4470.000       4423.000       4379.000       4324.000       4282.000
       4241.000       4183.000       4148.000       4107.000       4047.000
       4004.000       3963.000       3912.000       3863.000       3819.000
       3771.000       3729.000       3694.000       3659.000       3620.000
       3578.000       3541.000       3510.000       3472.000       3435.000
       3399.000       3365.000       3344.000       3314.000       3284.000
       3263.000       3233.000       3212.000       3190.000       3178.000
       3172.000       3152.000       3143.000       3122.000       3105.000
       3112.000       3107.000       3106.000       3104.000       3100.000
       3105.000       3092.000       3089.000       3089.000       3086.000
       3097.000       3096.000       3108.000       3117.000       3121.000
       3136.000       3137.000       3162.000       3173.000       3171.000
       3186.000       3192.000       3210.000       3234.000       3254.000
       3265.000       3286.000       3307.000       3318.000       3356.000
       3367.000       3374.000       3411.000       3425.000       3446.000
       3481.000       3495.000       3513.000       3550.000       3571.000
       3588.000       3627.000       3653.000       3671.000       3695.000
       3726.000       3755.000       3779.000       3814.000       3843.000
       3870.000       3906.000       3937.000       3964.000       4005.000
       4041.000       4075.000       4120.000       4151.000       4190.000
       4229.000       4267.000       4321.000       4370.000       4420.000
       4469.000       4515.000       4554.000       4598.000       4663.000
       4712.000       4767.000       4829.000       4873.000       4936.000
       4992.000       5045.000       5106.000       5158.000       5231.000
       5282.000       5327.000       5389.000       5446.000       5507.000
       5559.000       5621.000       5678.000       5721.000       5780.000
       5834.000       5875.000       5930.000       5981.000       6029.000
       6081.000       6131.000       6184.000       6223.000       6267.000
       6323.000       6365.000       6394.000       6431.000       6477.000
       6515.000       6551.000       6599.000       6637.000       6669.000
       6718.000       6760.000       6790.000       6817.000       6855.000
       6906.000       6937.000       6975.000       7008.000       7035.000
       7080.000       7101.000       7117.000       7149.000       7173.000
       7180.000       7192.000       7201.000       7207.000       7235.000
       7253.000       7251.000       7255.000       7257.000       7260.000
       7260.000       7259.000       7265.000       7260.000       7250.000
       7238.000       7237.000       7231.000       7213.000       7211.000
       7194.000       7177.000       7172.000       7145.000       7116.000
       7096.000       7083.000       7064.000       7042.000       7020.000
       6985.000       6967.000       6942.000       6899.000       6885.000
       6865.000       6825.000       6786.000       6752.000       6730.000
       6705.000       6677.000       6635.000       6604.000       6574.000
       6526.000       6494.000       6455.000       6416.000       6387.000
       6336.000       6292.000       6253.000       6206.000       6171.000
       6125.000       6080.000       6031.000       5976.000       5945.000
       5896.000       5836.000       5794.000       5752.000       5710.000
       5653.000       5607.000       5574.000       5527.000       5486.000
       5440.000       5405.000       5376.000       5319.000       5286.000
       5249.000       5211.000       5197.000       5156.000       5118.000
       5091.000       5055.000       5017.000       4996.000       4974.000
       4927.000       4895.000       4864.000       4828.000       4802.000
       4757.000       4732.000       4716.000       4674.000       4659.000
       4626.000       4581.000       4567.000       4529.000       4504.000
       4492.000       4451.000       4426.000       4414.000       4377.000
       4344.000       4335.000       4311.000       4276.000       4254.000
       4227.000       4196.000       4179.000       4149.000       4122.000
       4106.000       4073.000       4050.000       4033.000       4012.000
       4005.000       3979.000       3940.000       3937.000       3916.000
       3883.000       3880.000       3849.000       3825.000       3832.000
       3811.000       3781.000       3766.000       3753.000       3724.000
       3711.000       3707.000       3687.000       3675.000       3655.000
       3645.000       3635.000       3624.000       3617.000       3596.000
       3583.000       3575.000       3563.000       3541.000       3533.000
       3527.000       3513.000       3513.000       3507.000       3505.000
       3489.000       3480.000       3482.000       3464.000       3466.000
       3459.000       3444.000       3451.000       3439.000       3435.000
       3438.000       3434.000       3442.000       3432.000       3428.000
       3442.000       3448.000       3451.000       3456.000       3474.000
       3485.000       3493.000       3512.000       3522.000       3538.000
       3552.000       3571.000       3593.000       3603.000       3637.000
       3655.000       3659.000       3682.000       3696.000       3722.000
       3741.000       3767.000       3807.000       3822.000       3852.000
       3876.000       3892.000       3920.000       3947.000       3989.000
       4026.000       4063.000       4104.000       4139.000       4185.000
       4223.000       4251.000       4292.000       4336.000       4379.000
       4431.000       4472.000       4513.000       4572.000       4627.000
       4671.000       4712.000       4760.000       4808.000       4845.000
       4895.000       4952.000       4992.000       5046.000       5096.000
       5131.000       5180.000       5226.000       5273.000       5313.000
       5354.000       5403.000       5438.000       5477.000       5521.000
       5557.000       5591.000       5637.000       5662.000       5698.000
       5746.000       5761.000       5804.000       5843.000       5854.000
       5894.000       5924.000       5947.000       5989.000       6010.000
       6028.000       6059.000       6077.000       6093.000       6113.000
       6134.000       6159.000       6175.000       6178.000       6194.000
       6226.000       6235.000       6243.000       6268.000       6269.000
       6277.000       6314.000       6317.000       6325.000       6357.000
       6369.000       6376.000       6385.000       6407.000       6424.000
       6429.000       6445.000       6445.000       6450.000       6470.000
       6475.000       6481.000       6494.000       6502.000       6493.000
       6489.000       6494.000       6488.000       6489.000       6493.000
       6490.000       6484.000       6476.000       6471.000       6464.000
       6447.000       6437.000       6427.000       6407.000       6401.000
       6389.000       6370.000       6350.000       6339.000       6327.000
       6297.000       6293.000       6275.000       6252.000       6248.000
       6226.000       6208.000       6188.000       6172.000       6154.000
       6132.000       6118.000       6107.000       6091.000       6065.000
       6056.000       6035.000       6004.000       5993.000       5968.000
       5946.000       5934.000       5907.000       5886.000       5873.000
       5844.000       5815.000       5800.000       5773.000       5747.000
       5729.000       5700.000       5674.000       5663.000       5636.000
       5606.000       5589.000       5558.000       5535.000       5518.000
       5491.000       5466.000       5448.000       5428.000       5401.000
       5391.000       5375.000       5347.000       5335.000       5318.000
       5290.000       5285.000       5268.000       5242.000       5232.000
       5216.000       5205.000       5186.000       5173.000       5169.000
       5148.000       5133.000       5123.000       5109.000       5092.000
       5073.000       5061.000       5052.000       5037.000       5022.000
