     0.02500000      -12345.00      -12345.00   3.262830e+10      -12345.00
   0.0005380000       659.9755      -556.0195      -12345.00      -12345.00
      -12345.00      -12345.00      -12345.00      -12345.00      -12345.00
      -12345.00      -12345.00      -12345.00      -12345.00      -12345.00
      -12345.00      -12345.00      -12345.00      -12345.00      -12345.00
      -12345.00      -12345.00      -12345.00      -12345.00      -12345.00
      -12345.00       71.63410       128.8667       40.00000       0.000000
       9.831100       126.5297      -12345.00       24.71000      -12345.00
      -12345.00      -12345.00      -12345.00      -12345.00      -12345.00
      -12345.00      -12345.00      -12345.00      -12345.00      -12345.00
       6868.101      0.8406327       182.6143       61.76905      -12345.00
      -12345.00      -12345.00       0.000000       0.000000      -12345.00
      -12345.00      -12345.00      -12345.00      -12345.00      -12345.00
      -12345.00      -12345.00      -12345.00      -12345.00      -12345.00
      2019        39        12         4        24
        19         6    -12345    -12345     26400
    -12345    -12345    -12345    -12345    -12345
         1    -12345    -12345    -12345    -12345
    -12345    -12345    -12345    -12345    -12345
    -12345    -12345    -12345    -12345    -12345
    -12345    -12345    -12345    -12345    -12345
         1    -12345    -12345    -12345    -12345
TIXI    Mindanao, Philip
10      -12345  -12345  
-12345  -12345  -12345  
-12345  -12345  -12345  
-12345  -12345  -12345  
-12345  -12345  -12345  
-12345  -12345  BHZ     
IU      -12345  Streckei
[...]
       7579.000      -6868.000      -11765.00      -2565.000       1838.000
      -13172.00      -3673.000       7760.000      -12100.00      -2518.000
       577.0000      -17523.00       1256.000       250.0000      -9807.000
      -1905.000      -832.0000      -3653.000      -10893.00      -1582.000
       3342.000      -12764.00      -1791.000      -4450.000      -14477.00
       4919.000      -371.0000      -7602.000      -7085.000      -3872.000
      -2168.000      -12791.00      -901.0000       2723.000      -11909.00
       1044.000      -10244.00      -11655.00       11490.00      -6237.000
      -13935.00      -2807.000      -1855.000      -8808.000      -6844.000
       6757.000      -6375.000      -10264.00       4947.000      -13859.00
      -6610.000       6993.000      -7131.000      -8728.000      -3015.000
      -420.0000      -10999.00      -6177.000       6839.000      -13417.00
      -8378.000       4385.000      -17245.00      -2693.000       4129.000
      -9504.000      -8437.000      -4242.000      -1399.000      -12508.00
      -4010.000       3012.000      -17890.00      -4031.000      -2071.000
      -15963.00       3304.000      -2930.000      -13591.00      -9099.000
      -4836.000      -6497.000      -13728.00       1138.000      -184.0000
      -17246.00       275.0000      -11739.00      -16738.00       7431.000
      -7884.000      -14807.00      -5713.000      -660.0000      -8306.000
      -15143.00       4727.000      -5354.000      -18982.00       1688.000
      -13329.00      -9809.000       8123.000      -8275.000      -11234.00
      -4702.000      -2282.000      -8326.000      -8676.000       477.0000
      -9154.000      -4478.000      -1133.000      -17528.00       2113.000
       4518.000      -11615.00      -7376.000      -1245.000      -3018.000
      -13124.00       85.00000       7958.000      -12331.00      -325.0000
      -366.0000      -15994.00       5112.000       1785.000      -9030.000
      -1942.000       2201.000      -331.0000      -10324.00       3164.000
       5202.000      -13607.00       7378.000      -3175.000      -13844.00
       15631.00       1857.000      -13169.00      -49.00000       6788.000
      -6955.000      -6996.000       11986.00      -2575.000      -5642.000
       9442.000      -11219.00      -801.0000       11107.00      -3490.000
      -3121.000      -921.0000       6184.000      -4591.000      -6347.000
       12335.00      -4388.000      -2323.000       8306.000      -13132.00
       2121.000       7595.000      -5413.000      -3410.000       406.0000
       2953.000      -7177.000       1446.000       7344.000      -11071.00
       1445.000       1412.000      -10979.00       5495.000       3301.000
      -6976.000      -6668.000       6209.000      -2063.000      -13513.00
       10235.00       421.0000      -16308.00       5598.000      -7232.000
      -6232.000       12216.00      -7839.000      -9516.000      -797.0000
       637.0000      -6764.000      -8707.000       8096.000      -4231.000
      -11471.00       5448.000      -11664.00      -6907.000       5332.000
      -8402.000      -7870.000      -3357.000      -443.0000      -11250.00
      -9885.000       7177.000      -11344.00      -10408.00       1870.000
      -17406.00      -478.0000       3965.000      -10535.00      -6997.000
      -7701.000      -4627.000      -8735.000      -4835.000       1300.000
      -13734.00      -2682.000      -1277.000      -17376.00       2105.000
      -640.0000      -15782.00      -6680.000       1471.000      -8388.000
      -14311.00       2234.000      -2042.000      -16364.00       2423.000
      -7985.000      -14870.00       7557.000      -6721.000      -14372.00
      -2595.000      -96.00000      -8133.000      -11869.00       2440.000
      -3564.000      -13314.00       2931.000      -12383.00      -10935.00
       8508.000      -7560.000      -11547.00      -1182.000      -2429.000
      -11976.00      -5800.000       5095.000      -10981.00      -7572.000
       3620.000      -17260.00      -2811.000       7621.000      -8767.000
      -6929.000      -4621.000      -5248.000      -10746.00      -3869.000
       6811.000      -13066.00      -3591.000       2554.000      -18936.00
       4226.000       3592.000      -12786.00      -1445.000      -508.0000
      -5771.000      -8777.000       1090.000       2191.000      -12574.00
       1597.000      -5204.000      -14587.00       7786.000      -69.00000
      -12384.00      -4640.000       2958.000      -7541.000      -10888.00
       7783.000      -2214.000      -11318.00       4457.000      -12873.00
      -9263.000       10667.00      -5240.000      -9183.000      -79.00000
      -2400.000      -9435.000      -5840.000       6859.000      -8010.000
      -11522.00       4854.000      -13183.00      -2497.000       8277.000
      -9063.000      -10340.00      -2490.000      -286.0000      -13932.00
      -3744.000       7596.000      -13794.00      -1348.000      -222.0000
      -18141.00       5088.000       112.0000      -13712.00      -6093.000
      -194.0000      -2575.000      -11893.00      -560.0000       2746.000
      -13852.00      -762.0000      -4670.000      -14995.00       5086.000
      -1886.000      -8960.000      -4399.000      -2205.000      -5013.000
      -11839.00       3113.000      -2105.000      -14451.00       5083.000
      -8899.000      -11442.00       8149.000      -5891.000      -12047.00
      -2432.000       373.0000      -10370.00      -6516.000       8665.000
      -7837.000      -8385.000       1454.000      -15486.00      -533.0000
       4796.000      -9007.000      -3806.000      -2175.000      -4440.000
      -10008.00      -2415.000       6271.000      -12283.00      -4371.000
       1700.000      -13806.00       5219.000       908.0000      -13332.00
      -2376.000       671.0000      -5337.000      -10058.00       1234.000
       2271.000      -12198.00       2761.000      -4065.000      -11857.00
       9004.000      -906.0000      -9885.000      -7188.000       1423.000
       1261.000      -10173.00       4979.000       1342.000      -12968.00
       6447.000      -8873.000      -11140.00       11552.00      -1949.000
      -8185.000      -2056.000       1111.000      -5438.000      -8560.000
       5173.000      -2348.000      -7242.000       2026.000      -13063.00
      -2805.000       6156.000      -6746.000      -5501.000      -1893.000
      -48.00000      -9826.000      -5227.000       7763.000      -11877.00
      -6048.000       1598.000      -14518.00       3587.000       2551.000
      -11209.00      -6504.000      -1920.000      -5344.000      -14175.00
       2339.000       5763.000      -16985.00       250.0000      -4474.000
      -17940.00       6245.000      -2745.000      -13888.00      -4279.000
       1815.000      -8428.000      -13254.00       3072.000      -6491.000
      -16589.00       3522.000      -7964.000      -11148.00       3438.000
      -7458.000      -9941.000      -3751.000       9.000000      -11523.00
      -11787.00       8658.000      -7968.000      -12193.00       6628.000
      -14648.00      -6307.000       8132.000      -9595.000      -10795.00
      -141.0000       79.00000      -13343.00      -4487.000       6551.000
      -12551.00      -4790.000       784.0000      -14419.00       3642.000
       2974.000      -11682.00      -6665.000       892.0000      -3184.000
      -12432.00      -556.0000       4526.000      -11779.00       371.0000
      -2257.000      -16561.00       6111.000       3466.000      -11533.00
      -5843.000       5564.000      -4349.000      -14179.00       7046.000
      -752.0000      -12448.00       7411.000      -6722.000      -9218.000
       7313.000      -2189.000      -9327.000      -4702.000       3867.000
      -6448.000      -10312.00       8582.000      -4510.000      -11509.00
       5682.000      -12663.00      -5389.000       9515.000      -7594.000
      -10121.00      -627.0000      -413.0000      -11658.00      -2420.000
       8585.000      -12459.00      -4790.000       4323.000      -16774.00
      -660.0000       4385.000      -9963.000      -6528.000      -394.0000
      -1630.000      -11658.00      -3089.000       4649.000      -14633.00
      -2843.000       1263.000      -12520.00       2304.000      -2370.000
      -9180.000      -9250.000      -1702.000      -935.0000      -15518.00
       3101.000       1968.000      -16444.00       3659.000      -10975.00
      -14069.00       8493.000      -6441.000      -10086.00      -5871.000
      -2942.000      -7378.000      -9437.000       4307.000      -9412.000
      -8629.000       5238.000      -17711.00      -5463.000       6335.000
      -10766.00      -7173.000      -1479.000      -3523.000      -12090.00
      -5785.000       5564.000      -11658.00      -5435.000       2481.000
      -17502.00      -50.00000       2909.000      -12235.00      -5854.000
      -193.0000      -3469.000      -12118.00       149.0000       3137.000
      -13925.00      -428.0000      -4182.000      -15747.00       2181.000
       1233.000      -8800.000      -7541.000       1331.000      -6754.000
      -12074.00       4657.000      -1482.000      -12402.00       4103.000
      -9429.000      -12389.00       10412.00      -5059.000      -13052.00
      -3291.000       1726.000      -5657.000      -9661.000       7595.000
      -7673.000      -13421.00       9055.000      -14369.00      -5281.000
       10871.00      -9380.000      -5231.000      -1498.000      -3056.000
      -10169.00      -5881.000       10139.00      -7439.000      -5596.000
       4660.000      -14644.00       608.0000       6635.000      -8219.000
      -4606.000       420.0000      -1124.000      -8420.000       1870.000
       9498.000      -8682.000       3556.000       2221.000      -12706.00
       10437.00       7534.000       1359.000       5647.000       8909.000
       8111.000      -2700.000       16908.00       20837.00       3365.000
       25885.00       16015.00       10101.00       38908.00       23581.00
       18878.00       34656.00       36632.00       31678.00       32704.00
       50097.00       45122.00       38228.00       56778.00       43655.00
       45016.00       64605.00       51666.00       48195.00       61203.00
       60971.00       49945.00       54309.00       65489.00       48772.00
       46603.00       58339.00       40182.00       48824.00       53099.00
       32811.00       31002.00       34241.00       29197.00       18080.00
       19188.00       23266.00       1870.000       1667.000       5834.000
      -15903.00      -12052.00      -15929.00      -30751.00      -39925.00
      -43789.00      -49084.00      -67300.00      -64667.00      -69819.00
      -94250.00      -89382.00      -103481.0      -117930.0      -105281.0
      -122909.0      -137290.0      -131072.0      -131198.0      -141121.0
      -140774.0      -125332.0      -134251.0      -140059.0      -120865.0
      -134267.0      -125463.0      -102349.0      -113200.0      -105074.0
      -91075.00      -87630.00      -84571.00      -74602.00      -59495.00
      -68577.00      -61972.00      -41027.00      -52750.00      -34380.00
      -14502.00      -25952.00      -18892.00       1195.000       10561.00
       11022.00       28976.00       48976.00       41315.00       61084.00
       80019.00       75771.00       107744.0       115924.0       111220.0
       126583.0       135560.0       138951.0       137853.0       151863.0
       153151.0       136474.0       150330.0       136371.0       120350.0
       140982.0       125621.0       106206.0       106871.0       103066.0
       81922.00       67785.00       75861.00       55252.00       30459.00
       32428.00       4709.000      -6007.000      -2926.000      -29364.00
      -43945.00      -54167.00      -66044.00      -90192.00      -108150.0
      -106088.0      -138285.0      -163963.0      -166424.0      -201934.0
      -209375.0      -211884.0      -247639.0      -262452.0      -264902.0
      -280717.0      -302902.0      -303748.0      -301621.0      -327074.0
      -324741.0      -321102.0      -339755.0      -323548.0      -321731.0
      -328865.0      -318882.0      -307419.0      -297592.0      -292120.0
      -265302.0      -241971.0      -236575.0      -200985.0      -180060.0
      -160990.0      -109735.0      -91409.00      -71367.00      -33014.00
      -4895.000       21555.00       47857.00       81700.00       101841.0
       115707.0       153333.0       164280.0       186775.0       225166.0
       230014.0       247988.0       274796.0       293770.0       303815.0
       315345.0       339982.0       342197.0       347139.0       363113.0
       346458.0       353171.0       363656.0       343029.0       337295.0
       342817.0       329333.0       309807.0       308850.0       296271.0
       263133.0       254872.0       243421.0       214131.0       215417.0
       201985.0       177075.0       169479.0       160727.0       147457.0
       130198.0       130012.0       126341.0       102954.0       109527.0
       97073.00       75109.00       96402.00       84937.00       61239.00
       61569.00       58828.00       36840.00       11898.00       10939.00
      -5204.000      -35833.00      -40096.00      -71560.00      -93631.00
      -90515.00      -121520.0      -133576.0      -128312.0      -134267.0
      -139465.0      -136228.0      -124807.0      -136143.0      -140329.0
      -120802.0      -137328.0      -136673.0      -122582.0      -142124.0
      -152087.0      -148855.0      -147001.0      -154271.0      -151579.0
      -136165.0      -142211.0      -131423.0      -117564.0      -128489.0
      -104888.0      -92258.00      -94457.00      -81614.00      -69632.00
      -58328.00      -55274.00      -32652.00      -13403.00      -17085.00
       5861.000       13050.00       11143.00       40030.00       43803.00
       39383.00       45065.00       52306.00       54489.00       50756.00
       66192.00       59740.00       37569.00       57087.00       45504.00
       39914.00       69146.00       54989.00       52098.00       63984.00
       63805.00       61741.00       61204.00       74737.00       60738.00
       47513.00       58795.00       28115.00       15097.00       11415.00
      -18321.00      -30025.00      -41331.00      -51858.00      -71225.00
      -85486.00      -80170.00      -102102.0      -107268.0      -98180.00
      -114404.0      -91610.00      -77286.00      -83126.00      -71796.00
      -61101.00      -53169.00      -58482.00      -47452.00      -35569.00
      -52072.00      -37791.00      -33395.00      -50646.00      -28932.00
      -28823.00      -51634.00      -52584.00      -45095.00      -60539.00
      -77638.00      -65854.00      -74646.00      -93054.00      -75791.00
      -81601.00      -79908.00      -56553.00      -62000.00      -60574.00
      -50241.00      -38142.00      -35583.00      -25729.00       5246.000
       6241.000       6894.000       35940.00       35065.00       49277.00
       78571.00       73903.00       79076.00       100037.0       109546.0
       106672.0       122965.0       149962.0       144419.0       153380.0
       171645.0       158852.0       174008.0       178441.0       162745.0
       164938.0       174259.0       174261.0       153250.0       158840.0
       158819.0       121398.0       115809.0       97117.00       63993.00
       66433.00       44075.00       21368.00       12423.00       5288.000
      -1964.000      -18645.00      -6635.000      -13206.00      -44360.00
      -30699.00      -39781.00      -46397.00      -25474.00      -41271.00
      -51530.00      -51415.00      -52702.00      -68972.00      -84770.00
      -75887.00      -95502.00      -120565.0      -124050.0      -152586.0
      -159442.0      -161394.0      -185870.0      -194421.0      -207311.0
      -214480.0      -231190.0      -251103.0      -243844.0      -270122.0
      -291335.0      -276225.0      -294670.0      -285799.0      -271738.0
      -287738.0      -279074.0      -267869.0      -266130.0      -265685.0
      -243970.0      -221886.0      -223621.0      -195278.0      -178102.0
      -177219.0      -135954.0      -113966.0      -102141.0      -72556.00
      -43948.00      -20021.00      -6720.000       29686.00       63015.00
       68922.00       109787.0       129898.0       138146.0       172019.0
       169911.0       171852.0       187149.0       195891.0       199075.0
       201009.0       225587.0       224296.0       212201.0       230654.0
       218250.0       224785.0       237969.0       219725.0       222563.0
       227716.0       230625.0       223256.0       219701.0       229264.0
       206014.0       193943.0       193776.0       157086.0       153424.0
       144190.0       104328.0       88852.00       75767.00       59981.00
       41460.00       36607.00       32911.00       4709.000       4961.000
      -4640.000      -26834.00      -10100.00      -16059.00      -27077.00
      -17660.00      -9382.000      -5963.000      -4052.000       12817.00
       20129.00       12600.00       29064.00       22765.00       16169.00
       36332.00       27369.00       24797.00       33617.00       34382.00
       21614.00       13668.00       26648.00       11888.00      -2119.000
       11443.00      -5754.000      -10137.00       653.0000      -14982.00
      -27019.00      -27271.00      -25411.00      -37226.00      -43616.00
      -37870.00      -61724.00      -74468.00      -68643.00      -93823.00
      -86072.00      -80266.00      -101786.0      -98288.00      -94554.00
      -96099.00      -102409.0      -91532.00      -70826.00      -76735.00
      -56442.00      -42447.00      -45730.00      -13390.00      -6291.000
      -5133.000       16129.00       32897.00       36328.00       36535.00
       54657.00       56529.00       52923.00       75303.00       69453.00
       66987.00       91183.00       81532.00       71798.00       82435.00
       86304.00       81682.00       85848.00       104878.0       100832.0
       94363.00       109507.0       92263.00       94926.00       105346.0
       83471.00       72776.00       69342.00       65513.00       42177.00
