     0.02500000      -12345.00      -12345.00   2.008660e+09      -12345.00
   0.0005380000       659.9755      -395.0196      -12345.00      -12345.00
      -12345.00      -12345.00      -12345.00      -12345.00      -12345.00
      -12345.00      -12345.00      -12345.00      -12345.00      -12345.00
      -12345.00      -12345.00      -12345.00      -12345.00      -12345.00
      -12345.00      -12345.00      -12345.00      -12345.00      -12345.00
      -12345.00       9.287300       167.5369       0.000000       6.000000
       9.831100       126.5297      -12345.00       24.71000      -12345.00
      -12345.00      -12345.00      -12345.00      -12345.00      -12345.00
      -12345.00      -12345.00      -12345.00      -12345.00      -12345.00
       4494.740       87.20193       274.2630       40.42395      -12345.00
      -12345.00      -12345.00       0.000000       0.000000      -12345.00
      -12345.00      -12345.00      -12345.00      -12345.00      -12345.00
      -12345.00      -12345.00      -12345.00      -12345.00      -12345.00
      2019        39        12         1        43
        19         6    -12345    -12345     26400
    -12345    -12345    -12345    -12345    -12345
         1    -12345    -12345    -12345    -12345
    -12345    -12345    -12345    -12345    -12345
    -12345    -12345    -12345    -12345    -12345
    -12345    -12345    -12345    -12345    -12345
         1    -12345    -12345    -12345    -12345
KWJN    Mindanao, Philip
10      -12345  -12345  
-12345  -12345  -12345  
-12345  -12345  -12345  
-12345  -12345  -12345  
-12345  -12345  -12345  
-12345  -12345  BHZ     
II      -12345  Nanometr
[...]
      -3294.000      -7159.000      -3025.000       3868.000      -590.0000
       402.0000       3125.000      -3436.000      -2428.000       3347.000
       7158.000       6640.000      -807.0000       2060.000       6098.000
       1123.000       2315.000       8600.000       9796.000       2980.000
       4682.000       8624.000       2351.000       4976.000       8468.000
       6459.000       775.0000      -6110.000       6931.000       14614.00
       4583.000       4343.000       4596.000      -481.0000       1953.000
       5287.000       2051.000      -451.0000       3978.000       11281.00
       1591.000      -6377.000       5937.000       6488.000       258.0000
       762.0000       3548.000       7271.000       968.0000      -4130.000
      -856.0000      -1666.000       3437.000       10372.00       1277.000
      -4198.000       5821.000       6601.000       1767.000       4731.000
      -2554.000      -5002.000       2622.000       2555.000       7111.000
      -37.00000      -11272.00      -1675.000       3322.000       3204.000
      -247.0000      -923.0000       8531.000       2755.000      -6588.000
      -1161.000       7283.000       3008.000       865.0000       6581.000
      -1526.000       750.0000       14294.00       4130.000      -14107.00
      -7990.000       9483.000       11602.00       6159.000      -2782.000
      -4606.000       11244.00       8901.000      -3806.000       1677.000
       58.00000       2010.000       9432.000       4231.000       5697.000
       9595.000       9427.000      -320.0000      -6187.000       2560.000
       1130.000       2238.000       350.0000      -7595.000       3187.000
       4498.000      -2365.000      -116.0000      -4709.000      -6861.000
      -9753.000      -10855.00      -4747.000      -4531.000      -5249.000
      -4483.000      -4380.000      -14892.00      -23319.00      -10803.00
      -5669.000      -14858.00      -15424.00      -13750.00      -15753.00
      -13365.00      -11124.00      -13536.00      -19178.00      -17125.00
      -10993.00      -11952.00      -12313.00      -16627.00      -18784.00
      -14617.00      -9630.000      -4795.000      -10983.00      -14552.00
      -8039.000      -4993.000      -11412.00      -14990.00       118.0000
       4924.000      -8026.000      -5804.000      -3855.000      -5807.000
       2465.000       2249.000      -2175.000      -1612.000       2413.000
      -597.0000      -1961.000       6470.000       3820.000       3516.000
       8009.000       5935.000       3289.000       1874.000       5942.000
       7815.000       1946.000       5632.000       10926.00       9680.000
       8129.000       2120.000       3807.000       12151.00       15552.00
       9808.000       7025.000       5740.000       6928.000       14542.00
       5692.000       4271.000       11512.00       5607.000       9307.000
       10356.00       1133.000       6853.000       10280.00       6184.000
       1421.000      -5769.000       4618.000       11937.00       3696.000
       1037.000      -581.0000      -3183.000       6797.000       13199.00
      -1347.000      -3584.000       3224.000      -967.0000       4100.000
       7625.000      -1189.000      -819.0000       8543.000       9526.000
       4082.000       777.0000       186.0000       3265.000       10599.00
       9079.000       1840.000       4824.000       2432.000       3165.000
       11985.00       4866.000      -1635.000       3811.000       11514.00
       7807.000      -3176.000       3040.000       7555.000       6958.000
       4719.000      -1196.000       6955.000      -1183.000      -1039.000
       15348.00       756.0000      -4993.000      -3181.000      -3200.000
       7439.000       2378.000      -4571.000      -4477.000      -7446.000
      -4865.000       1173.000       1091.000       26.00000      -1720.000
      -7136.000      -9683.000      -3659.000       1572.000      -4880.000
      -7898.000      -3045.000      -5314.000      -9560.000       1077.000
       1737.000      -14302.00      -11586.00      -4490.000      -3580.000
      -3077.000      -4479.000      -6819.000      -8530.000      -1174.000
      -1654.000      -1327.000      -4048.000      -13909.00      -2883.000
       539.0000      -4128.000      -675.0000      -536.0000       1.000000
       1454.000       179.0000      -4112.000      -1968.000      -947.0000
      -885.0000      -997.0000      -2215.000       5607.000      -2280.000
      -11258.00      -970.0000       2951.000       4345.000      -653.0000
      -3886.000       6185.000      -747.0000      -11947.00      -6787.000
       954.0000       3897.000       283.0000      -1699.000      -4844.000
      -5328.000       261.0000      -662.0000      -1028.000      -3817.000
      -5367.000      -1111.000       387.0000       2786.000      -1901.000
      -5952.000      -4209.000       1407.000       7554.000       2569.000
      -1931.000      -2714.000       2658.000       7381.000      -1692.000
      -3134.000       4610.000       3396.000      -500.0000      -3533.000
      -1589.000       6338.000       9005.000       6148.000      -4331.000
      -9063.000       2689.000       4126.000       2039.000       3222.000
      -2585.000       2703.000       2670.000      -1579.000       3781.000
       3226.000       163.0000      -5183.000      -3543.000       4226.000
       7085.000       1215.000      -6944.000      -468.0000       3653.000
       785.0000       303.0000      -126.0000      -916.0000      -569.0000
       4484.000       209.0000      -7046.000       348.0000       3063.000
      -1673.000      -408.0000       1053.000       1.000000      -1499.000
       3833.000       2157.000      -4914.000      -625.0000       1883.000
       7445.000       7905.000      -2125.000      -5515.000       1455.000
       13122.00       8502.000      -6230.000      -6108.000       4411.000
       6812.000       4302.000       4703.000       6267.000       9906.000
       1899.000      -2705.000       13090.00       17115.00       3551.000
       3037.000       14092.00       13397.00       10650.00       12114.00
       11986.00       14319.00       12982.00       12422.00       16142.00
       17405.00       15319.00       6548.000       4435.000       18304.00
       21819.00       11625.00       5133.000       1299.000       8429.000
       19321.00       12110.00       69.00000      -1189.000       3094.000
       3856.000       4722.000       8671.000       1557.000      -3824.000
       1136.000       2075.000       2307.000      -2806.000      -9348.000
      -558.0000      -1544.000      -11761.00      -1493.000       70.00000
      -5497.000      -3825.000      -7363.000      -5107.000      -4932.000
      -6173.000      -11604.00      -8756.000       3993.000      -5419.000
      -11811.00      -5574.000      -1152.000      -9979.000      -14902.00
      -3907.000      -9473.000      -11395.00      -5119.000      -5421.000
      -6018.000      -11443.00      -15377.00      -10952.00      -7507.000
      -8480.000      -7895.000      -13989.00      -10205.00      -4643.000
      -16720.00      -11394.00       82.00000      -8674.000      -16043.00
      -15377.00      -5468.000      -3024.000      -12608.00      -4915.000
      -9949.000      -20938.00      -2992.000       2094.000      -14028.00
      -12484.00       321.0000      -3943.000      -5790.000       1884.000
      -6226.000      -14817.00      -3096.000      -785.0000      -10124.00
      -2003.000       5796.000      -2606.000      -14042.00      -6555.000
       2858.000      -5329.000       523.0000       4714.000      -9065.000
      -3953.000       1000.000      -3258.000       3708.000       2338.000
       836.0000       2797.000      -4113.000      -8005.000       438.0000
       11466.00       8205.000      -4161.000      -3627.000       8411.000
       3227.000       3706.000       6837.000      -1147.000       15033.00
       9660.000      -7966.000       8739.000       15836.00       6096.000
       5568.000       6044.000       687.0000       11848.00       15599.00
       3268.000       4058.000      -722.0000       7796.000       20767.00
       5803.000      -3205.000      -3613.000       6663.000       14345.00
      -1878.000      -7063.000       4837.000       3184.000      -1492.000
       8965.000       3103.000      -7107.000      -1999.000      -546.0000
       2389.000       2314.000       607.0000      -5444.000      -10181.00
       5191.000       6164.000      -4359.000      -1365.000      -6056.000
      -9938.000       3383.000       6157.000      -3902.000      -810.0000
      -2644.000      -1126.000       2693.000      -581.0000       4699.000
      -3451.000      -6928.000       1936.000       5631.000       9729.000
       8959.000       6836.000      -1600.000      -3849.000       8469.000
       6874.000       2118.000       11769.00       16382.00       9003.000
       5011.000       6210.000       6433.000       8905.000       10324.00
       10233.00       6417.000       9354.000       14339.00       7724.000
       9372.000       12577.00       10673.00       9380.000       12270.00
       10388.00      -441.0000       4568.000       8967.000       10355.00
       14203.00       3148.000       2475.000       11792.00       7214.000
       2122.000       903.0000       5414.000       8900.000       1543.000
       2699.000       1383.000      -2331.000       4693.000       1302.000
      -629.0000       1311.000      -6212.000      -4439.000      -3644.000
      -1704.000       4325.000      -5174.000      -2653.000      -2824.000
      -12501.00      -3134.000      -1190.000      -3408.000      -4558.000
      -7475.000      -2301.000      -3530.000      -6752.000      -7072.000
      -8440.000      -6822.000      -4792.000      -5396.000      -5234.000
      -8997.000      -11256.00      -1511.000      -3.000000      -6337.000
      -8979.000      -13475.00      -9618.000      -1895.000      -3743.000
      -6117.000      -1852.000      -2034.000      -12821.00      -10311.00
      -2219.000      -6800.000      -1679.000       4507.000       0.000000
      -6668.000      -5319.000       3976.000       6280.000       3743.000
      -6055.000      -2127.000       10323.00       3777.000       6710.000
       6659.000       113.0000       6176.000       5954.000       8464.000
       8868.000       4141.000       7353.000       8761.000       13463.00
       9915.000      -2937.000       904.0000       10050.00       11247.00
       13188.00       10860.00       2217.000       3522.000       5801.000
       8334.000       11111.00       10354.00       9328.000      -420.0000
       6135.000       12489.00       7660.000       7660.000      -2569.000
       180.0000       13378.00       9332.000       760.0000       5284.000
       7846.000       1351.000       1117.000       2886.000       9769.000
       10697.00      -1398.000      -2342.000       3626.000       4685.000
       4256.000      -255.0000      -7647.000      -3926.000       1927.000
       1923.000       1904.000      -9100.000      -11294.00      -1142.000
       769.0000      -5911.000      -15660.00      -10218.00      -4717.000
      -2790.000       1102.000      -5974.000      -9274.000      -10500.00
      -8251.000      -5975.000      -12957.00      -7068.000      -2247.000
      -7824.000      -294.0000       2637.000      -6900.000      -12422.00
      -11413.00       1313.000       5417.000      -5986.000      -7460.000
      -1453.000       7843.000       6930.000      -4999.000      -3071.000
       150.0000       7390.000       16825.00       6105.000      -1140.000
      -1894.000      -461.0000       13111.00       15693.00       10818.00
       4186.000      -3349.000       7731.000       16792.00       10607.00
       3284.000       2626.000       7933.000       9665.000       8267.000
       12018.00       12960.00       10055.00       15147.00       7371.000
      -4058.000       4916.000       12187.00       14311.00       13674.00
       3344.000      -2511.000       7805.000       10013.00      -1642.000
       6168.000       12904.00      -1777.000      -5374.000       5597.000
       13141.00       9445.000      -1110.000      -5975.000       748.0000
       6868.000      -2891.000      -11843.00      -5203.000       2937.000
       2435.000      -10001.00      -20668.00      -6744.000      -5270.000
      -19529.00      -13639.00      -14477.00      -15068.00      -18028.00
      -23277.00      -11302.00      -17381.00      -25249.00      -26109.00
      -31455.00      -17203.00      -11454.00      -27677.00      -32501.00
      -27080.00      -23734.00      -26044.00      -32543.00      -27571.00
      -17728.00      -24885.00      -35670.00      -31441.00      -28608.00
      -29532.00      -26805.00      -29975.00      -31793.00      -26080.00
      -16838.00      -18280.00      -26613.00      -21504.00      -20678.00
      -25955.00      -20037.00      -11272.00      -11501.00      -18687.00
      -15046.00      -8169.000      -13048.00      -8912.000       324.0000
       2268.000      -3182.000      -11619.00      -2614.000       5267.000
       7429.000       12008.00       2932.000      -3897.000       6922.000
       17358.00       10267.00       2478.000       10025.00       20050.00
       16938.00       11796.00       8258.000       12515.00       24998.00
       10705.00       2621.000       18193.00       22958.00       19521.00
       13735.00       14452.00       13528.00       14450.00       19778.00
       13999.00       8968.000       12437.00       17756.00       10074.00
       6798.000       14579.00       9637.000       9848.000       9513.000
      -1707.000      -479.0000       7176.000       13806.00       12919.00
       3256.000      -2718.000      -1594.000       7459.000       4787.000
      -1578.000       3814.000       9460.000       8925.000       2886.000
       6832.000       4613.000      -1594.000       3677.000       5729.000
       7887.000       4372.000       858.0000       3937.000       5523.000
       280.0000      -3836.000       6101.000       4951.000       3499.000
       7059.000      -4240.000      -2977.000       3131.000       3346.000
       6628.000       940.0000       410.0000       6593.000       254.0000
      -4356.000       3812.000       12369.00       10722.00       7165.000
       4133.000       368.0000       12744.00       19752.00       14726.00
       17500.00       12349.00       7077.000       13397.00       14086.00
       11731.00       19074.00       19122.00       12078.00       15207.00
       14626.00       10308.00       8651.000       9129.000       17461.00
       18492.00       6403.000       2621.000       9149.000       9276.000
       8050.000       11659.00       6541.000      -1835.000       1627.000
       7042.000       2941.000      -991.0000       3251.000       3832.000
      -3313.000      -2430.000      -39.00000      -8319.000      -5138.000
       4984.000      -3172.000      -11381.00      -9686.000      -7697.000
      -5088.000      -5615.000      -7763.000      -10529.00      -9424.000
      -6350.000      -7428.000      -11784.00      -15943.00      -8534.000
      -4998.000      -11253.00      -8132.000      -4603.000      -9618.000
      -11093.00      -6381.000      -6049.000      -6975.000      -2374.000
      -5169.000      -9368.000      -6124.000      -8986.000      -1633.000
       8454.000      -334.0000      -2145.000       428.0000      -1613.000
       4165.000       7889.000       4996.000       2990.000       6948.000
       9684.000       9982.000       14450.00       8738.000       2724.000
       9033.000       15935.00       11181.00       2439.000       8339.000
       11157.00       11634.00       11979.00       3742.000       5529.000
       12239.00       8033.000       1675.000       2650.000       4092.000
       9661.000       9317.000       477.0000       2394.000       3809.000
       1264.000       354.0000       1848.000       6839.000       5123.000
      -2969.000       158.0000       690.0000      -10473.00       645.0000
       7235.000      -12784.00      -9397.000       5191.000      -2821.000
      -6148.000      -4763.000      -5650.000      -2031.000      -6980.000
      -6952.000      -7967.000      -8053.000       1269.000      -6423.000
      -3769.000       2531.000      -7060.000      -2734.000      -3449.000
      -7678.000      -5134.000      -4732.000      -464.0000      -858.0000
       1149.000       286.0000      -6414.000      -4813.000      -4018.000
      -2906.000      -1071.000      -6491.000      -5053.000       4364.000
      -132.0000      -8884.000      -4153.000       1944.000       1714.000
       6498.000       6233.000      -5005.000       1159.000       13130.00
       8182.000       6570.000       8192.000       3173.000       10545.00
       20255.00       14461.00       12577.00       12613.00       7513.000
       11061.00       17082.00       12861.00       14641.00       21398.00
       13846.00       9208.000       10134.00       10683.00       13994.00
       15026.00       14823.00       9889.000       5012.000       10102.00
       15634.00       10344.00       11012.00       12791.00       5196.000
       8335.000       13302.00       9161.000       8069.000       13953.00
       14493.00       7032.000       6227.000       12444.00       13964.00
       5129.000       4734.000       13822.00       10070.00       4281.000
       2605.000       4180.000       8614.000       5101.000       3654.000
       2946.000      -5248.000      -4719.000       1003.000      -2752.000
      -6950.000      -6882.000      -6160.000      -6720.000      -12526.00
      -15568.00      -9267.000      -8938.000      -12650.00      -13336.00
      -14400.00      -11392.00      -15854.00      -15072.00      -6868.000
      -9231.000      -9703.000      -13390.00      -12363.00      -4271.000
      -8616.000      -11002.00      -6929.000      -7689.000      -6882.000
      -2552.000      -2444.000      -5672.000      -6300.000       797.0000
       2503.000      -7947.000      -4810.000       4391.000      -2569.000
      -4954.000      -426.0000      -4953.000      -7392.000      -2265.000
